<?xml version="1.0" encoding="UTF-8"?>
<kml xmlns="http://www.opengis.net/kml/2.2">
<Document>
  <name><![CDATA[TT-2026 03 Falcade-San_Martino_numm]]></name>
  <description><![CDATA[Converted with MapKmlTools.com - Free online GPX to KML converter.]]></description>
  
  <!-- Styles -->
  <Style id="lineStyle">
    <LineStyle>
      <color>cc4444ef</color>
      <width>4</width>
    </LineStyle>
  </Style>
  
  <Style id="wptStyle">
    <IconStyle>
      <color>fff6823b</color>
      <scale>1.1</scale>
      <Icon>
        <href>http://maps.google.com/mapfiles/kml/pushpin/ylw-pushpin.png</href>
      </Icon>
    </IconStyle>
  </Style>

  <Folder>
    <name>Tracks</name>
    <Placemark>
      <name><![CDATA[TT-2026 03 Falcade-San_Martino_numm]]></name>
      
      <styleUrl>#lineStyle</styleUrl>
      <MultiGeometry>
        <LineString>
          <tessellate>1</tessellate>
          <coordinates>
            11.870113,46.356606,1148 11.870392,46.356843,1147.9 11.870647,46.357054,1147.7 11.870839,46.357223,1147.5 11.87099,46.357336,1147.3 11.871178,46.357446,1146.6 11.871393,46.357558,1145.2 11.871755,46.357747,1143.2 11.872081,46.357916,1141.3 11.872282,46.358017,1140.2 11.872487,46.358112,1139.1 11.872673,46.358206,1138 11.873093,46.358404,1137.3 11.87343,46.35857,1136.9 11.873721,46.358686,1136.9 11.873918,46.358754,1136.9 11.874158,46.358804,1137.2 11.874391,46.358827,1137.5 11.874617,46.358818,1137.9 11.874872,46.358792,1138.7 11.875424,46.358728,1140.3 11.875966,46.358668,1141.8 11.876345,46.358622,1142.5 11.876798,46.358568,1143.5 11.877032,46.358543,1144 11.877231,46.358528,1144.2 11.877449,46.35852,1144.7 11.877605,46.358518,1145 11.877967,46.358532,1145.8 11.878313,46.358565,1146.7 11.8787,46.35861,1147.6 11.879174,46.358659,1148.6 11.879666,46.358712,1149.5 11.880096,46.35876,1150.2 11.880648,46.358815,1150.8 11.881094,46.358864,1151.2 11.881506,46.358909,1151.5 11.881925,46.358957,1151.9 11.882174,46.358996,1151.9 11.882445,46.359059,1151.9 11.882617,46.359108,1151.9 11.882795,46.359166,1151.9 11.882943,46.359219,1151.9 11.883418,46.359391,1151.9 11.883889,46.359562,1151.9 11.884145,46.359654,1151.9 11.884548,46.359802,1151.5 11.885244,46.360061,1150.7 11.885798,46.360274,1149.7 11.886319,46.360467,1147.8 11.886547,46.360551,1147 11.886304,46.360652,1147.3 11.886013,46.360811,1150.5 11.885778,46.360966,1153.3 11.885605,46.361068,1155.27 11.885361,46.361191,1156.78 11.885088,46.361295,1158.34 11.884865,46.361376,1159.6 11.884658,46.361482,1161.29 11.884413,46.361615,1163.33 11.883913,46.361876,1167.75 11.883868,46.361899,1168.14 11.883439,46.362114,1171.88 11.883005,46.362332,1175.66 11.882446,46.362612,1180.47 11.881566,46.36307,1188 11.88073,46.363511,1196.17 11.879489,46.364188,1209.85 11.879009,46.364466,1216.53 11.878716,46.364679,1219.43 11.878592,46.364792,1220.83 11.878179,46.365256,1227.62 11.87754,46.36586,1235.25 11.877195,46.366178,1240.06 11.877052,46.366232,1241.42 11.876897,46.366239,1242.72 11.876533,46.366199,1245.8 11.875976,46.366141,1250.5 11.87567,46.366173,1253.09 11.872875,46.367061,1276.72 11.871492,46.367491,1282.51 11.871349,46.367553,1283.12 11.871275,46.367625,1283.58 11.871238,46.367727,1284.08 11.871156,46.367963,1285.73 11.871109,46.368057,1286.14 11.871046,46.368155,1286.46 11.870873,46.368274,1287.84 11.870665,46.368385,1288.81 11.87029,46.368614,1291.07 11.870148,46.368697,1291.82 11.87006,46.368761,1292.27 11.870019,46.368814,1292.74 11.86999,46.36885,1293.09 11.869946,46.368881,1293.3 11.869888,46.368924,1293.67 11.869813,46.36895,1293.88 11.869752,46.368965,1294.16 11.869697,46.368974,1294.53 11.869651,46.368993,1294.95 11.869627,46.36902,1295.15 11.869598,46.369085,1295.48 11.86959,46.369131,1296.17 11.869607,46.369164,1296.46 11.869629,46.369195,1296.85 11.870028,46.369384,1298.69 11.870226,46.369514,1299.32 11.870325,46.369606,1299.58 11.870331,46.369648,1299.64 11.870312,46.369686,1299.7 11.870233,46.369735,1299.84 11.869896,46.369901,1300.8 11.869729,46.370012,1301.53 11.869622,46.370104,1301.9 11.86949,46.370278,1302.75 11.869393,46.370459,1303.42 11.86938,46.370521,1303.64 11.8694,46.370547,1303.74 11.869453,46.370578,1303.93 11.869696,46.370679,1304.35 11.869742,46.370695,1304.42 11.869783,46.3707,1304.46 11.869833,46.370691,1304.51 11.870027,46.37057,1304.89 11.870167,46.370481,1305.09 11.870305,46.370457,1305.53 11.870485,46.370473,1305.61 11.870565,46.370509,1305.71 11.870596,46.370551,1305.75 11.870602,46.370599,1305.83 11.870441,46.370693,1306.12 11.870364,46.370776,1306.31 11.870357,46.37083,1306.44 11.870387,46.370845,1306.51 11.870431,46.370868,1306.6 11.870507,46.370863,1306.78 11.870702,46.370792,1307.09 11.870806,46.370771,1307.25 11.871,46.370753,1308.07 11.871175,46.370731,1308.82 11.871255,46.370715,1309.34 11.871344,46.370686,1309.97 11.871474,46.370615,1312.02 11.871647,46.370507,1313.22 11.871719,46.370462,1313.43 11.87178,46.370447,1313.57 11.871843,46.370462,1314.2 11.871878,46.370508,1315.02 11.871902,46.370602,1316.27 11.8719,46.370687,1317.49 11.871887,46.370744,1318.31 11.8719,46.370816,1319.54 11.871956,46.370875,1320.72 11.872213,46.37101,1324.19 11.87239,46.371107,1325.71 11.872489,46.371186,1326.68 11.872531,46.371254,1327.96 11.872579,46.371298,1328.68 11.872666,46.371339,1329.82 11.872829,46.371357,1331.44 11.872965,46.371396,1332.28 11.873107,46.371445,1333.13 11.873293,46.371528,1334.44 11.873413,46.371583,1335.08 11.873535,46.371616,1336.38 11.873819,46.371634,1337.92 11.874128,46.371635,1340.2 11.874311,46.371648,1341.09 11.874424,46.371646,1341.51 11.874579,46.371617,1342.07 11.874719,46.371562,1343.05 11.874878,46.371441,1344.57 11.875045,46.37134,1345.91 11.875186,46.371235,1346.92 11.875294,46.371183,1347.02 11.875437,46.371118,1347.09 11.875762,46.371033,1347.39 11.876297,46.370937,1347.74 11.876591,46.370888,1347.93 11.877291,46.370784,1348.31 11.877503,46.370733,1348.31 11.877683,46.370695,1346.61 11.877805,46.370656,1346.12 11.877926,46.370606,1345.66 11.878042,46.370533,1344.41 11.878158,46.370456,1344.02 11.878282,46.370392,1343.28 11.878415,46.370332,1342.89 11.878572,46.370261,1342.2 11.878725,46.370235,1341.56 11.878897,46.370226,1341.08 11.879021,46.370232,1340.42 11.879174,46.370239,1340.01 11.879345,46.37028,1339.48 11.87952,46.370392,1338.79 11.87962,46.370504,1337.79 11.879652,46.370546,1336.78 11.879696,46.370572,1335.82 11.87975,46.370616,1335.28 11.879845,46.370641,1334.83 11.879914,46.370648,1334.64 11.880021,46.370645,1334.41 11.879939,46.370559,1333.4 11.879891,46.370511,1332.71 11.87984,46.37042,1331.58 11.879797,46.370345,1331.27 11.879777,46.370264,1330.76 11.879771,46.370152,1329.05 11.879726,46.369982,1327.69 11.879694,46.369857,1326.8 11.87964,46.369755,1325.61 11.879527,46.369654,1324.46 11.879299,46.369577,1323.79 11.87909,46.369557,1321.97 11.878917,46.369548,1320.48 11.878779,46.36952,1320.21 11.878633,46.36947,1319.91 11.878564,46.369444,1319.77 11.878442,46.369364,1319.46 11.878312,46.369239,1317.68 11.878256,46.36916,1316.28 11.878289,46.369102,1315.4 11.878377,46.369057,1314.49 11.878556,46.369051,1313.88 11.878802,46.369099,1312.22 11.87915,46.369155,1309.95 11.879409,46.369198,1306.19 11.879661,46.369243,1304.23 11.879913,46.36926,1301.63 11.880167,46.369269,1299.44 11.880322,46.369265,1298.3 11.880461,46.369257,1296.83 11.880851,46.369184,1293.35 11.88129,46.369049,1289.31 11.881879,46.368832,1284.48 11.882296,46.368653,1281.91 11.882534,46.368543,1280.35 11.882729,46.368421,1277.72 11.882971,46.36821,1275.48 11.88309,46.368111,1274.33 11.88324,46.368003,1272.89 11.883567,46.367858,1271.22 11.883746,46.367799,1270.22 11.883854,46.367756,1269.75 11.883929,46.3677,1269.76 11.883947,46.367659,1269.77 11.883941,46.36761,1269.78 11.884153,46.367497,1269.81 11.884486,46.367286,1269.87 11.884695,46.367172,1269.91 11.884905,46.36706,1269.94 11.88509,46.366979,1269.96 11.88513,46.366958,1269.97 11.885242,46.366917,1269.98 11.885371,46.366892,1270 11.885495,46.366881,1270.01 11.885753,46.3669,1270.32 11.885934,46.36695,1270.56 11.886164,46.367045,1270.93 11.886294,46.367173,1271.21 11.886365,46.367292,1271.42 11.886395,46.367478,1271.76 11.886345,46.367716,1272.14 11.88625,46.367941,1272.66 11.886142,46.368308,1273.15 11.886147,46.368461,1272.03 11.886195,46.368622,1270.94 11.886272,46.368789,1269.82 11.886384,46.368941,1268.73 11.886481,46.369051,1267.91 11.886782,46.369401,1265.18 11.886889,46.36952,1264.19 11.887003,46.369591,1263.39 11.887116,46.369625,1262.96 11.887252,46.369626,1262.32 11.887383,46.369611,1261.7 11.887581,46.369552,1260.65 11.887731,46.369516,1259.87 11.887888,46.369492,1259.03 11.888141,46.369475,1257.91 11.888336,46.369472,1256.76 11.888581,46.369489,1255.43 11.888902,46.369537,1253.74 11.889054,46.369578,1252.87 11.889272,46.369647,1251.4 11.889617,46.369786,1250.22 11.889933,46.369859,1246.32 11.890231,46.369901,1243.7 11.890829,46.370024,1238.72 11.891897,46.370294,1231.24 11.892527,46.370413,1226.91 11.893229,46.370537,1222.94 11.893482,46.370586,1221.48 11.893647,46.370627,1220.41 11.89383,46.370704,1219.52 11.893998,46.37081,1218.07 11.894401,46.371121,1213.52 11.894666,46.371331,1211.51 11.894834,46.371495,1210.05 11.89499,46.37168,1208.51 11.895059,46.371694,1208.17 11.895114,46.37169,1207.91 11.895222,46.371654,1207.47 11.895258,46.371595,1206.99 11.895231,46.371507,1206.55 11.895181,46.37143,1206.14 11.895092,46.37127,1204.13 11.895037,46.371152,1202.67 11.894995,46.371034,1201.89 11.894965,46.370963,1201.41 11.894885,46.370751,1199.36 11.894829,46.370613,1198.04 11.894753,46.370469,1197.04 11.894459,46.370184,1194.5 11.893979,46.369726,1187.61 11.893822,46.369581,1185.75 11.893674,46.36949,1183.6 11.89329,46.369286,1180.12 11.89314,46.369216,1178.81 11.893094,46.369156,1178.03 11.893085,46.369105,1177.35 11.893135,46.369054,1176.68 11.893214,46.369027,1176.2 11.893312,46.369029,1175.59 11.893408,46.369063,1174.73 11.893564,46.369126,1172.5 11.893691,46.369179,1171.17 11.89388,46.369253,1168.83 11.894356,46.369429,1164.94 11.894602,46.369498,1162.97 11.895079,46.369628,1158.56 11.89528,46.369666,1157.19 11.895411,46.369633,1156.64 11.895454,46.369585,1156.33 11.895448,46.36952,1155.98 11.895392,46.369451,1155.4 11.895296,46.369416,1154.84 11.895097,46.369353,1152.68 11.894847,46.369236,1149.69 11.894706,46.369149,1148.03 11.894575,46.369065,1146.7 11.894438,46.368933,1145.07 11.894236,46.368672,1140.96 11.893965,46.368356,1137.18 11.893628,46.368117,1134.06 11.893476,46.368006,1132.64 11.893422,46.367939,1131.94 11.893397,46.367868,1131.25 11.893426,46.367809,1130.67 11.893495,46.367769,1130.09 11.893642,46.367768,1129.14 11.893751,46.367803,1128.37 11.893876,46.367885,1127.28 11.89402,46.367981,1125.99 11.894201,46.368071,1124.44 11.89451,46.368193,1123.36 11.895128,46.368387,1121.31 11.895532,46.368537,1119.92 11.895794,46.368633,1119.08 11.896003,46.368723,1118.68 11.896294,46.368866,1117.53 11.896524,46.368973,1117.22 11.89665,46.369021,1117.06 11.896861,46.369083,1116.8 11.897117,46.369871,1128.15 11.89721,46.370272,1132.21 11.897224,46.37053,1134.03 11.89708,46.371314,1144.98 11.897061,46.371502,1146.86 11.897106,46.371631,1148.38 11.897141,46.371729,1149.49 11.897138,46.371855,1151.07 11.897027,46.372339,1157.69 11.897,46.37245,1158.01 11.896872,46.372643,1159.74 11.896744,46.372761,1160.95 11.896574,46.372877,1162.29 11.896392,46.372986,1163.65 11.89617,46.373111,1165.26 11.896068,46.373143,1165.9 11.895928,46.373175,1166.73 11.895623,46.373192,1168.45 11.895343,46.373199,1170.02 11.895099,46.373226,1171.42 11.894876,46.373267,1173.43 11.894647,46.373359,1175.73 11.894548,46.373423,1177.06 11.894397,46.373581,1179.75 11.8943,46.373706,1181.76 11.894276,46.373792,1183 11.8943,46.373932,1186.3 11.894323,46.374056,1189.24 11.894309,46.374179,1190.99 11.894256,46.374333,1193.24 11.894146,46.374557,1196.59 11.894108,46.374684,1198.8 11.894086,46.374848,1201.62 11.894138,46.375189,1207.81 11.894232,46.375535,1214.17 11.8943,46.37584,1219.71 11.894316,46.375956,1221.82 11.894312,46.37606,1223.68 11.894287,46.376333,1227.15 11.894134,46.376958,1235.19 11.893965,46.377556,1242.92 11.893928,46.377749,1245.38 11.89398,46.377965,1247.85 11.894024,46.378065,1249.03 11.8941,46.378152,1250.16 11.894178,46.37821,1250.25 11.894277,46.378252,1250.34 11.894371,46.378241,1250.31 11.894449,46.378204,1250.29 11.894561,46.37802,1250.18 11.894626,46.377893,1250.1 11.894694,46.377696,1249.99 11.894738,46.377433,1249.89 11.894747,46.377352,1249.85 11.894767,46.37727,1249.82 11.89488,46.377159,1249.72 11.895162,46.37697,1249.5 11.895287,46.376872,1249.4 11.895369,46.376789,1249.32 11.895488,46.376617,1248.93 11.895546,46.376489,1248.65 11.895597,46.376399,1248.34 11.895662,46.376325,1248.06 11.895748,46.376244,1247.91 11.895852,46.376177,1247.76 11.895964,46.37614,1247.63 11.896059,46.376103,1247.51 11.896141,46.376052,1247.4 11.896176,46.375993,1247.3 11.896208,46.375902,1247.16 11.896206,46.375863,1247.1 11.896218,46.375813,1247.03 11.896278,46.37576,1246.64 11.896417,46.37567,1245.89 11.896652,46.375512,1244.59 11.89693,46.375323,1243.04 11.897136,46.375184,1242.19 11.897594,46.374879,1239.37 11.89798,46.374621,1237.24 11.898175,46.374482,1236.13 11.89829,46.374392,1235 11.898593,46.374167,1232.12 11.898808,46.374022,1230.18 11.899006,46.373878,1226.03 11.899284,46.373706,1223.62 11.899432,46.373615,1222.34 11.899663,46.373526,1220.64 11.899787,46.373505,1219.18 11.899896,46.373506,1217.93 11.900057,46.373511,1217.21 11.900334,46.373546,1215.96 11.900588,46.373595,1214.79 11.900823,46.373663,1213.9 11.901005,46.373724,1213.28 11.901228,46.373819,1211.84 11.901428,46.373899,1210.57 11.901568,46.37393,1209.91 11.901706,46.373949,1209.29 11.901835,46.373927,1208.79 11.901938,46.373905,1208.39 11.902041,46.373891,1208.01 11.902162,46.373892,1207.56 11.902565,46.373961,1207.44 11.902762,46.374003,1207.38 11.902978,46.374031,1207.32 11.903092,46.374039,1207.28 11.903277,46.374013,1207.23 11.903363,46.373943,1207.19 11.903383,46.373892,1207.17 11.903378,46.373838,1207.14 11.903321,46.373762,1207.11 11.903025,46.373578,1206.99 11.902847,46.373461,1206.92 11.902751,46.373372,1206.87 11.902699,46.3733,1206.78 11.902644,46.373224,1206.69 11.902598,46.373053,1206.22 11.902611,46.372927,1205.88 11.902596,46.372822,1205.6 11.90253,46.372634,1205.08 11.902472,46.372531,1204.78 11.902405,46.372428,1204.47 11.902345,46.37234,1204.21 11.902337,46.372236,1203.93 11.902352,46.372153,1203.7 11.902405,46.372089,1203.5 11.90237,46.371819,1202.29 11.902324,46.371612,1201.35 11.902262,46.371374,1198.68 11.902171,46.371192,1196.56 11.902105,46.371088,1195.31 11.901687,46.370527,1188.31 11.901562,46.37037,1186.33 11.901482,46.370253,1184.9 11.901347,46.370071,1182.63 11.90121,46.369799,1179.38 11.90117,46.369671,1177.91 11.901142,46.369558,1176.61 11.901117,46.369326,1173.97 11.901059,46.36879,1167.88 11.900949,46.367792,1158.61 11.900932,46.367324,1155.47 11.900945,46.367193,1154.59 11.900975,46.367082,1153.84 11.901036,46.366952,1152.93 11.90114,46.366761,1151.56 11.90117,46.366674,1150.96 11.901164,46.366612,1150.57 11.901143,46.366576,1150.34 11.901093,46.366555,1150.09 11.901018,46.366559,1147.79 11.900952,46.366569,1147.45 11.900887,46.366598,1147.07 11.900781,46.366747,1145.88 11.900691,46.366936,1144.45 11.900617,46.367051,1143.55 11.900508,46.367166,1142.55 11.900381,46.367291,1141.44 11.900241,46.367427,1140.22 11.900186,46.367478,1139.9 11.90012,46.36757,1139.02 11.900036,46.367689,1138.05 11.89995,46.367869,1136.84 11.899857,46.36813,1135.11 11.899757,46.36843,1133.13 11.899696,46.368656,1131.73 11.899632,46.36895,1129.93 11.899564,46.369168,1128.58 11.899505,46.369309,1127.68 11.899469,46.369395,1127.15 11.899401,46.369463,1126.65 11.899327,46.369486,1126.32 11.899253,46.369482,1126.02 11.899186,46.369465,1125.69 11.899143,46.369444,1125.45 11.899114,46.369396,1125.12 11.899118,46.369346,1124.66 11.899164,46.369232,1123.59 11.899184,46.369111,1122.5 11.899201,46.368947,1121.01 11.899209,46.368814,1119.8 11.899221,46.36865,1118.32 11.899213,46.368432,1116.34 11.899196,46.368261,1114.8 11.899171,46.368064,1113.01 11.899109,46.367899,1111.47 11.89903,46.367743,1110.22 11.898926,46.367555,1108.6 11.898803,46.367389,1107.28 11.898716,46.367277,1106.32 11.898606,46.367155,1105.23 11.898452,46.367009,1104 11.898378,46.366985,1103.61 11.898337,46.36698,1103.41 11.898295,46.366985,1100.95 11.898165,46.367002,1100.32 11.897835,46.367022,1098.94 11.897521,46.367041,1097.62 11.897418,46.367046,1097.19 11.897295,46.367046,1096.68 11.897042,46.367031,1096.8 11.896868,46.36702,1096.91 11.896846,46.367109,1097.01 11.896833,46.367158,1097.03 11.896821,46.367185,1097.06 11.896804,46.3672,1097.09 11.896759,46.367206,1097.1 11.896694,46.367203,1097.12 11.896562,46.367192,1097.28 11.896405,46.367174,1097.34 11.895789,46.367105,1097.63 11.895723,46.367086,1097.74 11.895662,46.367063,1097.77 11.895607,46.367032,1097.87 11.895569,46.366993,1098.04 11.895542,46.366953,1098.2 11.895528,46.366935,1098.27 11.895504,46.366903,1098.4 11.895386,46.366752,1099 11.895327,46.366683,1099.28 11.895263,46.366609,1099.51 11.895094,46.366454,1100.22 11.894923,46.366315,1100.88 11.89484,46.366253,1101.19 11.894772,46.3662,1101.45 11.894708,46.366127,1101.79 11.894664,46.366059,1102.08 11.89462,46.365855,1102.9 11.894572,46.365249,1105.92 11.894546,46.365123,1107.2 11.894535,46.365031,1108.41 11.894465,46.364637,1111.3 11.894426,46.36458,1111.83 11.894331,46.364508,1112.64 11.894107,46.364358,1114 11.891533,46.362963,1129.76 11.891101,46.362735,1129.8 11.890907,46.362626,1129.81 11.890863,46.362595,1129.82 11.890781,46.362527,1130 11.89063,46.362508,1130.6 11.890448,46.362478,1131.5 11.890213,46.362419,1132.6 11.889979,46.362339,1133.7 11.889686,46.362191,1134.9 11.889446,46.362049,1135.9 11.889204,46.361897,1136.8 11.888989,46.361767,1137.7 11.888764,46.361632,1138.7 11.888497,46.361488,1139.8 11.888262,46.361355,1140.7 11.887997,46.361201,1141.9 11.887718,46.361048,1143.1 11.887522,46.360946,1143.9 11.887287,46.360838,1144.6 11.887126,46.360771,1145.2 11.886965,46.360708,1145.7 11.886773,46.360637,1146.3 11.886547,46.360551,1147 11.886319,46.360467,1147.8 11.885798,46.360274,1149.7 11.885244,46.360061,1150.7 11.884548,46.359802,1151.5 11.884145,46.359654,1151.9 11.883889,46.359562,1151.9 11.883418,46.359391,1151.9 11.882943,46.359219,1151.9 11.882795,46.359166,1151.9 11.882617,46.359108,1151.9 11.882445,46.359059,1151.9 11.882174,46.358996,1151.9 11.881925,46.358957,1151.9 11.881506,46.358909,1151.5 11.881094,46.358864,1151.2 11.880648,46.358815,1150.8 11.880096,46.35876,1150.2 11.879666,46.358712,1149.5 11.879174,46.358659,1148.6 11.8787,46.35861,1147.6 11.878313,46.358565,1146.7 11.877967,46.358532,1145.8 11.877605,46.358518,1145 11.877449,46.35852,1144.7 11.877231,46.358528,1144.2 11.877032,46.358543,1144 11.876798,46.358568,1143.5 11.876345,46.358622,1142.5 11.875966,46.358668,1141.8 11.875424,46.358728,1140.3 11.874872,46.358792,1138.7 11.874617,46.358818,1137.9 11.874391,46.358827,1137.5 11.874158,46.358804,1137.2 11.873918,46.358754,1136.9 11.873721,46.358686,1136.9 11.87343,46.35857,1136.9 11.873093,46.358404,1137.3 11.872897,46.35831,1137.7 11.872673,46.358206,1138 11.872487,46.358112,1139.1 11.872282,46.358017,1140.2 11.872081,46.357916,1141.3 11.871755,46.357747,1143.2 11.871393,46.357558,1145.2 11.871178,46.357446,1146.6 11.87099,46.357336,1147.3 11.870839,46.357223,1147.5 11.870647,46.357054,1147.7 11.870392,46.356843,1147.9 11.870113,46.356606,1148 11.869916,46.35643,1148.6 11.869692,46.356234,1149.7 11.869531,46.356091,1150.5 11.869319,46.355937,1151.5 11.869114,46.355826,1151.9 11.868906,46.355735,1152.3 11.8687,46.355656,1152.5 11.868462,46.355583,1153.1 11.86815,46.355485,1153.5 11.867687,46.355334,1154.3 11.867371,46.355225,1155.3 11.866997,46.355095,1156.6 11.866715,46.355006,1157.4 11.866439,46.354918,1158.4 11.866214,46.354843,1159.2 11.865992,46.354771,1160 11.865705,46.354678,1161 11.865379,46.354574,1161.5 11.865157,46.35449,1162 11.864968,46.354413,1162.3 11.864821,46.35434,1162.5 11.864635,46.354229,1163.2 11.864437,46.354088,1164 11.864316,46.353996,1164.6 11.864227,46.353954,1165 11.864125,46.35393,1165.4 11.864004,46.353939,1165.8 11.863921,46.353962,1166 11.863846,46.354001,1166.3 11.86378,46.354075,1166.7 11.863759,46.354139,1167.1 11.863783,46.354222,1167.6 11.863886,46.354324,1168.2 11.864095,46.354474,1169.8 11.864243,46.35459,1170.9 11.864325,46.354679,1171.5 11.86436,46.354745,1172 11.864374,46.354825,1172.6 11.86435,46.354934,1173.5 11.86426,46.355027,1174.6 11.86414,46.355088,1175.7 11.863966,46.355111,1176.9 11.863819,46.355092,1177.9 11.863661,46.355023,1178.4 11.863505,46.354929,1179 11.863304,46.35481,1180.3 11.863161,46.354726,1181.3 11.863059,46.35466,1182 11.863003,46.3546,1182.6 11.862981,46.35452,1183.1 11.862984,46.354445,1183.6 11.863018,46.354349,1184.2 11.863061,46.354247,1184.8 11.863106,46.35414,1185.6 11.863135,46.354038,1186.3 11.863139,46.353912,1187.2 11.863116,46.353798,1188.1 11.863043,46.353682,1189 11.862943,46.353577,1189.9 11.862814,46.353493,1190.8 11.862649,46.35344,1191.8 11.862445,46.353403,1192.9 11.862205,46.353414,1194.2 11.86201,46.353474,1195 11.861842,46.353585,1195.8 11.861749,46.353706,1196.6 11.861723,46.353799,1197.1 11.861725,46.353955,1198.3 11.861725,46.354108,1199.5 11.861708,46.354179,1200 11.861667,46.354236,1200.5 11.8616,46.354288,1201 11.861485,46.354301,1201.5 11.86135,46.354277,1202.2 11.861252,46.354227,1202.8 11.861024,46.354102,1204.1 11.860755,46.353956,1205.7 11.860542,46.353856,1206.9 11.860362,46.353776,1207.5 11.860223,46.353725,1208.3 11.860069,46.353661,1209.1 11.859898,46.353575,1210 11.85977,46.353505,1210.5 11.859559,46.353392,1212.1 11.85942,46.353319,1212.6 11.859286,46.353254,1213.3 11.859148,46.353154,1214.1 11.859087,46.353094,1214.5 11.859017,46.353006,1215.2 11.858969,46.352943,1215.8 11.858883,46.352916,1216.2 11.858812,46.352938,1216.6 11.858774,46.352984,1216.9 11.85877,46.353032,1217.4 11.858812,46.353085,1217.7 11.858902,46.353132,1217.9 11.858993,46.353178,1218.6 11.859123,46.353256,1219.3 11.859217,46.353316,1219.9 11.859363,46.35341,1220.8 11.859493,46.353529,1221.8 11.859592,46.353652,1222.5 11.859643,46.353755,1223.2 11.85972,46.353921,1224.4 11.859824,46.354154,1226.3 11.8599,46.354263,1227.2 11.860009,46.35436,1228.2 11.860159,46.354455,1229.7 11.860275,46.354561,1231.1 11.860363,46.354697,1232.7 11.860441,46.354828,1234.2 11.8605,46.354955,1235.7 11.860583,46.355108,1237.4 11.860677,46.355237,1239 11.860771,46.35533,1240.2 11.860896,46.355437,1241.4 11.861102,46.355596,1243.4 11.861288,46.355736,1245 11.861444,46.355845,1246.3 11.861544,46.355905,1247.1 11.861689,46.355999,1248.3 11.861853,46.356096,1249.6 11.861991,46.356181,1250.6 11.862159,46.356291,1252 11.862267,46.356372,1252.9 11.86237,46.35646,1253.9 11.862462,46.356554,1254.8 11.862553,46.356633,1255.6 11.862661,46.356748,1256.6 11.862753,46.356841,1257.5 11.862838,46.356915,1258.2 11.862954,46.35699,1259 11.863077,46.357032,1259.8 11.86313,46.357077,1260.1 11.863145,46.357129,1260.3 11.863115,46.35717,1260.6 11.863054,46.357189,1260.8 11.863001,46.357192,1261 11.862939,46.357157,1261.3 11.862888,46.35711,1261.8 11.862806,46.357043,1262.4 11.862678,46.356952,1263.5 11.862562,46.356878,1264.4 11.862457,46.356822,1265.3 11.862337,46.356772,1266.2 11.862189,46.356714,1267.5 11.862061,46.356658,1268.7 11.861955,46.356622,1269.4 11.861833,46.356581,1270.2 11.861678,46.356541,1271.7 11.86149,46.356508,1273.5 11.861321,46.356478,1275.1 11.861221,46.356432,1276.1 11.861134,46.35636,1277 11.861013,46.356277,1278.1 11.860878,46.356222,1279.3 11.860709,46.356179,1280.7 11.8605,46.356132,1282 11.860288,46.356086,1283.5 11.860102,46.356044,1285 11.859944,46.355995,1286.4 11.859789,46.355932,1287.3 11.859653,46.355848,1288.4 11.859522,46.355759,1289.4 11.859357,46.355645,1290.5 11.859234,46.355561,1291.4 11.859121,46.355488,1292.2 11.859027,46.355436,1292.8 11.858875,46.355386,1293.6 11.858623,46.35532,1294.8 11.858381,46.355253,1296 11.858151,46.355181,1297.2 11.85791,46.355111,1298.4 11.857685,46.355031,1299.6 11.85747,46.354953,1300.8 11.857174,46.354855,1302.6 11.857006,46.354808,1303.2 11.856837,46.354777,1303.9 11.856665,46.354758,1304.6 11.856517,46.354758,1305.2 11.856366,46.354786,1305.7 11.856218,46.354848,1306.3 11.856111,46.354941,1306.8 11.856023,46.355047,1307.2 11.85591,46.355207,1307.4 11.855802,46.355355,1307.6 11.855697,46.35549,1307.8 11.855612,46.355603,1308 11.855518,46.355706,1308.2 11.855379,46.355848,1308.6 11.855208,46.356011,1309.1 11.855031,46.356172,1309.6 11.854854,46.356327,1310.2 11.854651,46.356496,1310.8 11.854489,46.356647,1311.3 11.854324,46.356791,1311.8 11.854161,46.356943,1313.2 11.853984,46.357099,1314.7 11.853829,46.357238,1316.9 11.853702,46.357356,1318.7 11.853593,46.357433,1319.9 11.853437,46.357555,1321.8 11.853287,46.357641,1323.3 11.853139,46.357721,1324.8 11.853009,46.357787,1326 11.852881,46.35785,1327.1 11.852767,46.357907,1327.9 11.852673,46.357978,1328.9 11.852571,46.358066,1330 11.852493,46.358167,1331.2 11.852417,46.358275,1332.4 11.852332,46.358422,1334 11.852239,46.358576,1335.6 11.852126,46.358705,1337 11.851997,46.358818,1338.3 11.851838,46.358927,1339.6 11.851641,46.359031,1341 11.851468,46.35911,1342.2 11.851265,46.35921,1343.6 11.851004,46.359341,1345.6 11.850822,46.359415,1346.8 11.850642,46.359471,1348.1 11.850484,46.359499,1349.2 11.85032,46.359511,1350.3 11.850082,46.359517,1352 11.84982,46.359516,1354.2 11.849574,46.35953,1356.2 11.849287,46.359575,1358.3 11.849026,46.35964,1360.3 11.848689,46.359738,1363.3 11.848393,46.359823,1365.9 11.84814,46.359898,1367 11.84787,46.359981,1368.2 11.847674,46.36003,1368.9 11.847521,46.360018,1369.5 11.847379,46.35997,1370 11.847291,46.359902,1370.5 11.847242,46.35984,1370.7 11.847224,46.359746,1371 11.847254,46.359631,1371.2 11.847325,46.359562,1371.4 11.847409,46.359501,1371.6 11.847713,46.359361,1372.2 11.848025,46.359221,1373.2 11.848217,46.359125,1373.8 11.848305,46.359029,1374.2 11.848343,46.358954,1374.5 11.848319,46.358875,1374.8 11.848258,46.358816,1375 11.848166,46.358798,1375.3 11.848029,46.358788,1375.6 11.847896,46.35883,1376 11.847764,46.358915,1376.5 11.847459,46.359109,1378.1 11.847159,46.359315,1379.7 11.846941,46.35946,1381.3 11.846666,46.359642,1383.5 11.846352,46.359852,1385.4 11.846137,46.359991,1386.8 11.845942,46.360098,1387.7 11.845784,46.360167,1388.3 11.845603,46.360233,1389 11.845372,46.36031,1390 11.845115,46.360375,1391 11.844895,46.360425,1391.8 11.844719,46.36048,1392.4 11.844568,46.360545,1392.9 11.844443,46.360614,1393.4 11.844338,46.36069,1394 11.844127,46.360866,1395.2 11.844006,46.360978,1395.9 11.84393,46.361032,1396.3 11.843865,46.361054,1396.5 11.843775,46.361048,1396.9 11.843694,46.361024,1397.2 11.843646,46.360974,1397.5 11.843624,46.360925,1397.8 11.843655,46.36086,1398.2 11.843746,46.360788,1398.7 11.843934,46.360692,1399.7 11.844156,46.360579,1401.2 11.84432,46.360484,1402.3 11.844442,46.360402,1403.1 11.844552,46.360337,1403.8 11.844612,46.36029,1404.3 11.844639,46.360247,1404.7 11.844619,46.3602,1405 11.844727,46.360119,1406 11.844804,46.360048,1406.9 11.844882,46.359952,1408 11.845001,46.359841,1409.5 11.845094,46.359778,1410.5 11.845206,46.359688,1411.8 11.845269,46.359614,1412.8 11.845348,46.359475,1414.5 11.845404,46.359372,1415.7 11.845475,46.359263,1417 11.84555,46.359198,1417.9 11.845662,46.359148,1418.9 11.845804,46.359114,1420 11.845927,46.359078,1421 11.846017,46.359031,1421.9 11.846085,46.358988,1422.6 11.846157,46.358913,1423.7 11.846171,46.358842,1424.5 11.846177,46.358764,1425.6 11.846182,46.358676,1426.8 11.846216,46.358608,1427.7 11.846273,46.358542,1428.5 11.846355,46.358467,1429.5 11.84639,46.358423,1430.1 11.846407,46.358372,1430.7 11.846384,46.358308,1431.4 11.84632,46.358226,1432.5 11.846264,46.358152,1433.4 11.846243,46.358094,1434 11.846246,46.358039,1434.7 11.846284,46.357974,1435.4 11.846374,46.35789,1436.6 11.846467,46.3578,1437.5 11.846576,46.357707,1438.5 11.846691,46.35761,1439.7 11.846832,46.35751,1441 11.847013,46.357403,1442.7 11.847192,46.357306,1444.2 11.84734,46.357219,1445.6 11.847454,46.357139,1446.8 11.847538,46.357056,1447.9 11.847631,46.356935,1449.4 11.847714,46.356818,1450.7 11.847805,46.35669,1452.2 11.847904,46.356589,1453.4 11.848027,46.356492,1454.6 11.848184,46.356383,1456.5 11.848329,46.356277,1458.3 11.848451,46.356186,1459.9 11.848594,46.356085,1461.6 11.848704,46.355989,1463.2 11.848787,46.355899,1464.5 11.848876,46.355767,1466.2 11.848974,46.355614,1468.1 11.849092,46.355449,1470.1 11.849186,46.35531,1471.7 11.849271,46.355177,1473.3 11.849318,46.355068,1474.5 11.849336,46.354991,1475.3 11.84933,46.354925,1476 11.84929,46.354842,1477 11.849214,46.354764,1478 11.84911,46.354671,1479.2 11.848996,46.354574,1480.6 11.8489,46.354471,1481.9 11.848817,46.354378,1483.1 11.848733,46.354321,1483.9 11.848595,46.354262,1485 11.848451,46.354216,1486.1 11.848345,46.354145,1487.1 11.848299,46.354072,1487.9 11.848258,46.353976,1488.9 11.848201,46.353899,1489.7 11.848102,46.353806,1490.9 11.848022,46.353744,1491.7 11.848007,46.353698,1492.2 11.848024,46.353651,1492.6 11.848082,46.353584,1493.2 11.848167,46.353539,1494 11.848306,46.353487,1495.2 11.848435,46.353427,1496.5 11.848512,46.353386,1497.3 11.848592,46.35329,1498.7 11.848653,46.353183,1500.2 11.848722,46.353059,1502 11.848754,46.352986,1503.1 11.848773,46.3529,1504.2 11.848762,46.352827,1505.1 11.848715,46.352762,1506 11.848617,46.352688,1507.2 11.848517,46.352598,1508.4 11.848427,46.352497,1509.6 11.848386,46.352407,1510.6 11.848396,46.352313,1511.5 11.84845,46.35222,1512.5 11.848527,46.352142,1513.4 11.848612,46.352079,1514.4 11.848727,46.351995,1515.8 11.848827,46.351911,1517.1 11.848933,46.351798,1518.6 11.849039,46.351675,1520.3 11.849123,46.351576,1521.6 11.849159,46.351511,1522.3 11.849185,46.351427,1523.3 11.849181,46.351324,1524.5 11.849159,46.351215,1525.7 11.849117,46.351089,1527.1 11.849083,46.350965,1528.5 11.849027,46.350798,1530.6 11.848969,46.350654,1532.3 11.84893,46.35048,1534.6 11.848886,46.350323,1536.7 11.848834,46.350196,1538.5 11.848772,46.350101,1539.9 11.848715,46.350044,1541 11.848661,46.349989,1541.5 11.848581,46.349913,1542.3 11.848501,46.349837,1543.1 11.848412,46.349748,1544 11.84832,46.349661,1545 11.848222,46.349579,1546 11.84812,46.349493,1547.1 11.84802,46.349429,1548 11.847942,46.349386,1549 11.847859,46.349359,1549.9 11.84777,46.349364,1550.8 11.847694,46.349398,1551.7 11.847643,46.349456,1552.5 11.847595,46.34955,1553.7 11.84755,46.349652,1555 11.847481,46.349795,1556.8 11.847424,46.349923,1558.4 11.847372,46.350017,1559.6 11.847306,46.350124,1561 11.847245,46.350231,1562.4 11.847184,46.350339,1563.4 11.847135,46.350454,1564.5 11.847096,46.350562,1565.3 11.847068,46.350679,1566.2 11.847039,46.350796,1566.6 11.847,46.350918,1567 11.84696,46.351036,1567.2 11.846933,46.351143,1567.3 11.846905,46.351258,1567.5 11.846892,46.351349,1567.6 11.846887,46.351444,1567.7 11.846898,46.351534,1567.8 11.846896,46.351615,1567.8 11.846868,46.351673,1568 11.846813,46.351701,1568.1 11.84675,46.351706,1568.2 11.846691,46.35168,1568.3 11.84667,46.351639,1568.4 11.846678,46.351576,1568.7 11.846705,46.351494,1569.1 11.846728,46.351412,1569.8 11.846738,46.351329,1570.5 11.846743,46.351242,1571.3 11.846734,46.35115,1572 11.846717,46.351055,1573.3 11.846702,46.350971,1574.5 11.846664,46.350874,1575.8 11.846628,46.350798,1576.9 11.846572,46.350721,1577.8 11.846494,46.350634,1578.9 11.846392,46.350522,1580.3 11.846279,46.350403,1581.8 11.846199,46.350313,1582.9 11.846092,46.350194,1584.3 11.84597,46.350074,1585.8 11.845805,46.349894,1588 11.845665,46.349753,1589.6 11.845521,46.349624,1591 11.845348,46.349482,1592.7 11.845183,46.349362,1594.2 11.84501,46.349234,1595.9 11.84484,46.349087,1597.7 11.844664,46.348941,1599.6 11.844451,46.348787,1601.7 11.844319,46.348687,1603.1 11.844222,46.34862,1604.1 11.844082,46.348519,1605.6 11.84397,46.348436,1606.8 11.843853,46.348346,1608.3 11.843745,46.348257,1609.8 11.843654,46.348166,1611.1 11.84358,46.348093,1612.2 11.843524,46.348049,1613 11.843465,46.348006,1613.5 11.8434,46.347957,1614 11.843338,46.347898,1614.7 11.843291,46.347843,1615.2 11.843253,46.347787,1615.8 11.84322,46.347724,1616.2 11.843191,46.34766,1616.6 11.843163,46.347591,1617.1 11.843138,46.34752,1617.6 11.843113,46.34745,1618 11.843088,46.347389,1618.3 11.843062,46.347327,1618.6 11.84304,46.347275,1618.8 11.843009,46.347224,1619.1 11.842975,46.347181,1619.3 11.842935,46.347139,1619.6 11.842882,46.34709,1619.9 11.842825,46.347033,1620.3 11.842764,46.346979,1620.7 11.842702,46.346927,1621 11.842637,46.346877,1621.6 11.842562,46.346828,1622.1 11.842474,46.346775,1622.8 11.842394,46.34673,1623.3 11.842286,46.346672,1624.1 11.842196,46.346612,1624.9 11.842094,46.346546,1625.8 11.842004,46.346487,1626.5 11.841896,46.346415,1627.5 11.841797,46.346348,1628.4 11.84175,46.346319,1628.8 11.841679,46.346283,1629.5 11.84159,46.346252,1630.2 11.841479,46.346213,1631.2 11.841388,46.346171,1632 11.841297,46.346124,1632.9 11.841223,46.346072,1633.7 11.841157,46.34601,1634.5 11.841099,46.345953,1635.3 11.841055,46.345911,1635.9 11.840997,46.345862,1636.6 11.840923,46.345813,1637.3 11.84084,46.345763,1638.2 11.840756,46.345719,1639 11.840652,46.345663,1640 11.840546,46.345608,1641.1 11.840462,46.345566,1642 11.840366,46.34552,1643 11.840277,46.345481,1643.9 11.840179,46.34544,1644.9 11.840091,46.34541,1645.6 11.839984,46.345376,1646.5 11.83988,46.345344,1647.4 11.83977,46.345308,1648.3 11.839661,46.345271,1649.2 11.839559,46.345236,1650 11.839422,46.345192,1651.2 11.839273,46.345144,1652.4 11.839131,46.345095,1653.6 11.838989,46.345047,1655.2 11.838855,46.345,1656.6 11.838745,46.344963,1657.8 11.838634,46.344915,1659.1 11.83853,46.344866,1660.3 11.838417,46.34482,1661.5 11.838328,46.344783,1662.5 11.838203,46.344729,1663.8 11.838065,46.344662,1665.3 11.837936,46.344601,1666.8 11.837815,46.344544,1667.9 11.837672,46.344479,1669.3 11.83753,46.344404,1670.7 11.837393,46.344336,1672 11.837268,46.344271,1673.3 11.837141,46.344209,1674.4 11.837031,46.344155,1675.4 11.836888,46.344085,1676.7 11.836748,46.344018,1678 11.836629,46.343953,1679.1 11.836495,46.34388,1680.2 11.83636,46.343805,1681.4 11.836236,46.343732,1682.4 11.836083,46.343663,1683.6 11.835935,46.343605,1684.7 11.835767,46.343545,1685.9 11.835585,46.343484,1687.2 11.835415,46.343429,1688.3 11.835249,46.343378,1689.5 11.835059,46.343312,1690.8 11.83488,46.343247,1692.4 11.834735,46.343198,1693.6 11.834625,46.343152,1694.7 11.834541,46.343116,1695.4 11.834419,46.343061,1696.6 11.834294,46.343005,1698 11.834156,46.342941,1699.7 11.834023,46.342883,1701.2 11.83388,46.34282,1702.8 11.833748,46.34275,1704.5 11.83361,46.342678,1705.9 11.833483,46.342609,1707.2 11.833371,46.342559,1708.3 11.833244,46.342509,1709.4 11.833104,46.342468,1710.7 11.832948,46.342434,1711.9 11.832779,46.342398,1713.2 11.83259,46.342359,1714.7 11.832405,46.342317,1716.1 11.832225,46.342274,1717.5 11.832025,46.342226,1718.5 11.831866,46.342199,1719.3 11.831696,46.342179,1720.1 11.831519,46.342163,1720.9 11.831342,46.342152,1721.7 11.831183,46.342138,1722.8 11.831049,46.342117,1723.6 11.830902,46.342092,1724.6 11.830733,46.342065,1725.7 11.83054,46.342036,1726.9 11.830356,46.342002,1728.2 11.830157,46.341961,1729.7 11.829941,46.341915,1731.3 11.829736,46.341878,1732.8 11.829547,46.341848,1734.2 11.829356,46.341821,1735.2 11.829153,46.341795,1736.3 11.828975,46.341775,1737.2 11.828792,46.341747,1738.2 11.82864,46.341712,1739 11.828493,46.341661,1739.7 11.828372,46.341602,1740.2 11.828277,46.341541,1740.7 11.828184,46.341465,1741.3 11.828101,46.341391,1741.8 11.82803,46.341351,1742.2 11.827955,46.341345,1742.5 11.827895,46.341373,1742.8 11.827876,46.341417,1743.1 11.827898,46.341462,1743.4 11.82797,46.341527,1744.3 11.828057,46.341607,1745.5 11.828128,46.341691,1746.7 11.828174,46.34177,1747.7 11.828226,46.34186,1748.8 11.8283,46.341977,1750.5 11.828394,46.342074,1752 11.828507,46.342149,1753.3 11.828639,46.342216,1754.8 11.828757,46.342276,1756.1 11.828842,46.342321,1757.2 11.828944,46.342372,1758.4 11.829092,46.342442,1760.2 11.829238,46.342506,1761.9 11.829399,46.342585,1763.6 11.829542,46.342661,1765.1 11.829682,46.342734,1766.3 11.829846,46.342814,1767.6 11.830003,46.342895,1768.9 11.830156,46.342972,1770.2 11.830303,46.343046,1771.6 11.830453,46.343125,1773.1 11.830605,46.343199,1774.5 11.830765,46.343278,1776 11.830877,46.343335,1777.1 11.831068,46.343427,1778.8 11.831253,46.343517,1780.5 11.831458,46.343612,1782.2 11.831647,46.343698,1783.9 11.831799,46.343767,1785.2 11.83198,46.343848,1786.6 11.832199,46.343944,1788.2 11.832396,46.344028,1789.6 11.832565,46.344106,1790.9 11.83273,46.344188,1792.2 11.832871,46.344248,1793.1 11.833057,46.34431,1794.2 11.833241,46.344364,1795.3 11.833421,46.34441,1796.6 11.833552,46.344441,1797.6 11.833616,46.344468,1798.1 11.833639,46.344521,1798.7 11.833616,46.344565,1799.2 11.83357,46.344591,1799.6 11.833491,46.344602,1800.1 11.8334,46.344578,1800.8 11.83331,46.344536,1801.5 11.833194,46.344483,1802.5 11.833046,46.344442,1803.6 11.83291,46.34442,1804.6 11.832766,46.344403,1805.6 11.832614,46.344397,1806.7 11.832458,46.344389,1808.2 11.832354,46.344384,1809.1 11.83229,46.344376,1809.8 11.832239,46.344364,1810.4 11.832175,46.344351,1811.1 11.832092,46.344332,1812.1 11.831956,46.344294,1813.7 11.831808,46.344259,1815.2 11.831651,46.344218,1816.8 11.831491,46.344173,1818.4 11.83131,46.344125,1820.2 11.831141,46.344082,1821.8 11.831012,46.344048,1823 11.830863,46.344012,1824.4 11.830728,46.343981,1825.7 11.83059,46.343956,1827.2 11.830433,46.343939,1828.9 11.83029,46.343928,1830.4 11.830095,46.343929,1832.4 11.829873,46.343937,1834.1 11.829675,46.343942,1835.6 11.829445,46.343952,1837.3 11.829256,46.343958,1838.7 11.829032,46.343962,1840.7 11.828818,46.343966,1842.6 11.828562,46.343976,1844.9 11.828356,46.343985,1846.7 11.828118,46.343995,1848 11.827926,46.343997,1849 11.827766,46.344,1849.8 11.827616,46.343995,1850.6 11.827467,46.343976,1851.7 11.827293,46.343944,1853 11.827145,46.343912,1854.1 11.826971,46.343862,1855.5 11.826793,46.34382,1857.4 11.82659,46.343766,1859.6 11.82637,46.34371,1862 11.826195,46.343665,1863.9 11.825991,46.343616,1865.4 11.825794,46.343565,1866.8 11.825637,46.343521,1868 11.825484,46.343481,1869.1 11.825349,46.343441,1870.3 11.825202,46.343391,1871.6 11.825042,46.34332,1873.1 11.824912,46.34325,1874.4 11.824766,46.34317,1875.6 11.824631,46.343098,1876.7 11.824494,46.343021,1877.9 11.824385,46.34296,1878.8 11.824256,46.342914,1879.5 11.824091,46.342872,1880.4 11.823945,46.342846,1881.2 11.823805,46.342834,1881.9 11.823654,46.342837,1882.8 11.823503,46.342854,1883.7 11.823306,46.342881,1884.9 11.823143,46.342904,1885.8 11.822975,46.342918,1886.8 11.82283,46.342924,1887.7 11.822668,46.342921,1888.7 11.822501,46.34291,1889.7 11.822311,46.342882,1890.7 11.822113,46.34285,1891.8 11.821935,46.342823,1892.7 11.821771,46.342794,1893.6 11.82162,46.342774,1894.4 11.821472,46.342771,1895.2 11.821323,46.342774,1896 11.82115,46.342781,1896.9 11.820973,46.342788,1897.9 11.820767,46.342799,1899.1 11.820558,46.342808,1900.3 11.820436,46.342802,1901 11.820333,46.342786,1901.5 11.820219,46.342759,1902.2 11.820095,46.342715,1902.9 11.819979,46.342663,1903.6 11.819837,46.34259,1904.3 11.819709,46.342511,1905 11.819566,46.342429,1905.8 11.819425,46.342348,1906.5 11.819284,46.342267,1907.3 11.819139,46.342185,1908 11.819027,46.342129,1908.6 11.818901,46.342074,1909.2 11.818758,46.342014,1910 11.818598,46.341967,1910.8 11.818422,46.341925,1911.8 11.818267,46.341888,1912.5 11.818071,46.341851,1913.1 11.817905,46.341822,1913.6 11.817756,46.341795,1914 11.817576,46.341776,1914.5 11.817418,46.341768,1915 11.817242,46.34176,1915.7 11.817109,46.341751,1916.1 11.816999,46.341738,1916.5 11.816915,46.341715,1916.8 11.816843,46.341671,1917.1 11.816768,46.341603,1917.5 11.816685,46.341545,1917.9 11.816578,46.341481,1918.2 11.816442,46.341429,1918.5 11.816299,46.341387,1918.7 11.816156,46.341352,1919 11.816003,46.341316,1919.1 11.815849,46.34129,1919.3 11.815724,46.341272,1919.4 11.815579,46.341258,1919.9 11.815422,46.341238,1920.4 11.8153,46.341224,1921.1 11.815185,46.341206,1921.8 11.815081,46.341172,1922.5 11.814971,46.34113,1923.3 11.814856,46.341071,1924.2 11.814756,46.341006,1925 11.814645,46.34094,1925.9 11.814541,46.340879,1926.4 11.81443,46.340827,1926.9 11.814291,46.340789,1927.4 11.814139,46.340761,1927.9 11.813987,46.340745,1928.3 11.813829,46.340745,1928.6 11.813679,46.340763,1929 11.813505,46.340795,1929.4 11.813347,46.340836,1929.9 11.813193,46.340877,1930.5 11.813034,46.340919,1931 11.812901,46.340951,1931.5 11.812748,46.340976,1932.4 11.812556,46.340995,1933.5 11.812339,46.341021,1934.7 11.812136,46.341046,1935.9 11.811941,46.341073,1936.8 11.811726,46.341102,1937.7 11.811566,46.341122,1938.4 11.811444,46.341134,1939 11.811317,46.34114,1939.7 11.811198,46.341135,1940.5 11.811051,46.341116,1941.4 11.810901,46.34108,1942.3 11.810767,46.341035,1943.9 11.81064,46.340979,1945.4 11.810518,46.340947,1946.8 11.81038,46.340926,1948.2 11.810214,46.340917,1949.6 11.810029,46.340926,1951.2 11.809847,46.340943,1952.8 11.809678,46.340957,1954.3 11.809542,46.340961,1955.4 11.809383,46.340954,1956.8 11.809202,46.340941,1958.3 11.809002,46.340915,1960 11.808802,46.340885,1961.5 11.80859,46.340861,1963 11.808379,46.340826,1964.6 11.808189,46.340793,1966 11.80797,46.340751,1967.7 11.807748,46.340715,1969.4 11.807527,46.340697,1971 11.807338,46.340686,1972.4 11.807157,46.340669,1973.7 11.80702,46.340646,1974.8 11.806892,46.340606,1975.8 11.806795,46.340548,1976.7 11.806669,46.340468,1977.7 11.806568,46.340394,1978.5 11.806466,46.340331,1979.2 11.806343,46.340285,1980 11.806225,46.340261,1981.2 11.806065,46.340252,1982.7 11.805861,46.34026,1984.6 11.805663,46.340269,1986.5 11.805459,46.340275,1988 11.805222,46.340285,1989.6 11.804991,46.340294,1991.3 11.804788,46.340308,1992.7 11.804558,46.340316,1994.5 11.804384,46.340318,1995.8 11.804229,46.340302,1997 11.804086,46.340269,1998.2 11.803955,46.340223,1999.3 11.803872,46.340175,2000.2 11.803782,46.340105,2001.3 11.803721,46.340026,2002.4 11.803678,46.339953,2003.3 11.803645,46.339866,2004.3 11.803628,46.339783,2005.3 11.803617,46.339681,2006.5 11.803605,46.339543,2007.8 11.803603,46.339403,2009.2 11.803599,46.339249,2010.7 11.803594,46.339129,2011.9 11.803591,46.339005,2013.2 11.803586,46.33888,2014.4 11.803577,46.33876,2015.7 11.803551,46.338669,2016.6 11.803498,46.338586,2017.6 11.803415,46.338514,2018.6 11.803319,46.338457,2019.5 11.803196,46.338419,2020.5 11.80304,46.338403,2022 11.80288,46.338415,2023.4 11.802699,46.338436,2025.1 11.802485,46.338467,2027 11.802269,46.338499,2028.5 11.80205,46.338531,2030.1 11.801884,46.338556,2031.2 11.801659,46.338583,2032.8 11.801535,46.338593,2033.5 11.801376,46.338601,2034.3 11.801253,46.338604,2035 11.80119,46.338609,2035 11.801119,46.338609,2034.8 11.800961,46.338605,2034.5 11.80078,46.338602,2034 11.800547,46.338598,2033.2 11.800391,46.338598,2032.7 11.800229,46.338599,2032 11.799991,46.338596,2031.3 11.799774,46.338596,2030.7 11.79961,46.338605,2029.5 11.799491,46.338629,2028.5 11.79936,46.338661,2027.5 11.799204,46.338708,2026.2 11.799027,46.338761,2024.2 11.798891,46.338808,2022.7 11.798806,46.338854,2021.6 11.798743,46.338931,2020.4 11.798715,46.339044,2019.3 11.79869,46.33917,2018.1 11.798666,46.339296,2017 11.798642,46.339422,2015.8 11.798609,46.339542,2014.8 11.798575,46.339618,2014.2 11.798525,46.339712,2013.4 11.798474,46.339804,2012.6 11.798437,46.339895,2011.5 11.79843,46.339981,2010.4 11.79845,46.340059,2009.5 11.798496,46.34014,2008.5 11.798541,46.340219,2007.3 11.798558,46.340291,2006.4 11.798535,46.340349,2005.6 11.798477,46.340396,2004.8 11.798386,46.34042,2004 11.798245,46.340433,2002.8 11.798124,46.340449,2001.7 11.798027,46.340491,2000.8 11.797966,46.34054,2000.1 11.797921,46.34059,1999.5 11.797828,46.340697,1998.3 11.797739,46.340804,1997.1 11.79762,46.340948,1995.6 11.797523,46.34106,1994.4 11.797422,46.341151,1993.4 11.797339,46.341274,1992.2 11.797281,46.34137,1990.7 11.797222,46.341463,1989.2 11.797151,46.341528,1988.2 11.79706,46.341567,1987.4 11.796955,46.341578,1986.5 11.796836,46.341564,1985.5 11.796753,46.341542,1984.7 11.796667,46.341495,1983.8 11.796576,46.341435,1982.7 11.796484,46.341361,1981.6 11.796402,46.341285,1980.9 11.796285,46.34119,1980 11.796185,46.341136,1978.9 11.796083,46.341099,1977.8 11.795962,46.341075,1976.8 11.795815,46.341077,1975.5 11.795691,46.341098,1974.5 11.79556,46.341139,1973.3 11.795478,46.341181,1972.5 11.795419,46.341241,1971.7 11.795358,46.34135,1970.6 11.795304,46.341431,1969.8 11.795238,46.341489,1969.1 11.795161,46.341529,1968.5 11.795036,46.341567,1968 11.794878,46.341583,1967.4 11.794722,46.341566,1966.8 11.794533,46.341531,1965.8 11.794379,46.341497,1965 11.79423,46.341453,1963.8 11.794077,46.341405,1962.6 11.79395,46.341368,1961.6 11.793814,46.341339,1960.7 11.793672,46.341327,1959.8 11.793519,46.341345,1958.9 11.793383,46.341381,1958 11.793295,46.34142,1957.4 11.793216,46.341468,1956.8 11.793132,46.341524,1956.2 11.793049,46.341558,1955.7 11.79297,46.341565,1955.3 11.792886,46.341556,1954.8 11.792803,46.341513,1954.1 11.792738,46.341456,1953.5 11.792679,46.341405,1953 11.792611,46.341357,1952.4 11.792507,46.341312,1951.7 11.792352,46.341276,1950.8 11.792144,46.341264,1949.5 11.791941,46.341265,1948.4 11.791713,46.341282,1947 11.791493,46.341311,1945.7 11.791278,46.341336,1944.7 11.791112,46.34134,1943.8 11.790932,46.341327,1943 11.790749,46.341291,1942.1 11.790588,46.341237,1941.1 11.790508,46.341193,1940.5 11.790464,46.341138,1940 11.790447,46.341093,1939.6 11.790447,46.341021,1938.8 11.790472,46.340948,1937.9 11.790545,46.340878,1936.8 11.79066,46.34084,1935.8 11.790826,46.340818,1934.7 11.790996,46.340798,1933.6 11.791137,46.340766,1932.6 11.791292,46.340714,1931.5 11.791459,46.34064,1930.1 11.791645,46.340535,1928.3 11.791799,46.340434,1926.8 11.791993,46.340292,1924.8 11.792144,46.340185,1923 11.792282,46.340083,1921.4 11.792463,46.339949,1919.2 11.792593,46.339841,1917.6 11.792674,46.339754,1916.1 11.792723,46.339665,1914.7 11.792746,46.339543,1912.9 11.792745,46.339445,1911.5 11.792723,46.339378,1910.8 11.792672,46.339335,1910.1 11.792561,46.339291,1909.1 11.792428,46.339259,1908 11.792291,46.339219,1906.8 11.792178,46.33917,1905.8 11.792097,46.339108,1904.8 11.792016,46.339016,1903.5 11.791946,46.338885,1902 11.791878,46.338753,1900.4 11.791813,46.338621,1898.8 11.791756,46.338535,1897.7 11.791692,46.33846,1896.8 11.791592,46.338411,1896 11.791451,46.33837,1894.9 11.791318,46.33833,1893.8 11.791218,46.338273,1893 11.791138,46.338205,1892.1 11.791076,46.338128,1891.2 11.791049,46.338017,1890.1 11.791037,46.3379,1889.1 11.791019,46.337771,1887.9 11.790984,46.337657,1886.8 11.79094,46.337555,1885.8 11.790883,46.337438,1884.7 11.79082,46.337314,1883.5 11.790765,46.337199,1882.3 11.790708,46.337089,1881.2 11.790672,46.336995,1880.2 11.790643,46.336876,1878.8 11.790624,46.336744,1877.4 11.790601,46.336615,1875.9 11.790581,46.336486,1874.6 11.790549,46.336357,1873.3 11.790506,46.336241,1872.1 11.79046,46.336138,1871 11.790402,46.33602,1869.8 11.790338,46.335862,1868.1 11.790279,46.335707,1866.5 11.790254,46.335606,1865.5 11.79021,46.335478,1863.9 11.790158,46.335344,1862.2 11.790111,46.335218,1860.7 11.790053,46.335081,1859 11.790009,46.334934,1857.3 11.78995,46.334795,1855.6 11.789886,46.334662,1854 11.789808,46.334502,1852.1 11.789728,46.33434,1850.6 11.789664,46.3342,1849.4 11.789599,46.334062,1848.2 11.789547,46.333907,1846.8 11.789519,46.333748,1845.4 11.789478,46.333606,1844.2 11.789427,46.333458,1842.9 11.789366,46.333309,1841.5 11.78931,46.333182,1839.9 11.789248,46.333065,1838.4 11.789192,46.332936,1836.8 11.789133,46.332792,1835 11.789073,46.332644,1833.1 11.788995,46.332503,1831.2 11.788919,46.332354,1829.2 11.788877,46.332237,1827.7 11.788833,46.332072,1825.6 11.788774,46.331922,1823.7 11.78871,46.331784,1821.8 11.788638,46.331644,1820 11.788581,46.331527,1818.1 11.788521,46.331398,1816 11.788443,46.331257,1813.6 11.788374,46.331146,1811.7 11.788279,46.331036,1810.3 11.788173,46.330934,1808.9 11.788092,46.330851,1807.8 11.78804,46.330776,1806.8 11.787994,46.330674,1805.8 11.787957,46.330559,1804.7 11.787911,46.330444,1803.5 11.787856,46.330325,1802.3 11.787783,46.330203,1801 11.787681,46.330089,1799.7 11.787564,46.329975,1798.3 11.787419,46.329847,1796.6 11.787288,46.329728,1795.1 11.787131,46.329588,1793.2 11.786977,46.329462,1791.5 11.786852,46.329363,1790.1 11.786677,46.329234,1788.1 11.786521,46.329117,1786.3 11.786373,46.329013,1784.7 11.786211,46.328899,1782.9 11.786046,46.328784,1781.1 11.7859,46.328684,1779.5 11.785699,46.328537,1777.3 11.78543,46.328358,1774.4 11.785228,46.328251,1772.5 11.78504,46.328153,1770.7 11.784867,46.328052,1769 11.784672,46.327938,1767.1 11.784462,46.327817,1765.2 11.784212,46.327686,1762.9 11.784059,46.327602,1761.5 11.78388,46.327512,1759.9 11.783775,46.327458,1759.1 11.783715,46.327428,1758.6 11.783632,46.327391,1758 11.783517,46.327325,1757.1 11.783407,46.327238,1756.1 11.783304,46.327141,1755.1 11.783221,46.327064,1754.3 11.783125,46.326974,1753.3 11.783015,46.326872,1752.1 11.782924,46.326806,1751.3 11.782831,46.326736,1750.4 11.78274,46.326684,1749.6 11.782633,46.326623,1748.5 11.782541,46.32656,1747.4 11.782483,46.326487,1746.5 11.782409,46.326361,1744.8 11.78233,46.326251,1743.6 11.782257,46.326185,1742.7 11.782155,46.326126,1741.8 11.782045,46.326069,1740.8 11.781963,46.326019,1740.2 11.781868,46.325934,1739.3 11.781777,46.325837,1738.4 11.78169,46.325732,1737.4 11.781616,46.325645,1736.4 11.781526,46.325576,1735.5 11.781419,46.325506,1734.4 11.781286,46.325419,1733.2 11.781145,46.325328,1731.9 11.781028,46.325241,1730.8 11.78095,46.325171,1729.9 11.780886,46.32509,1729.1 11.780827,46.325012,1728.2 11.780758,46.324928,1727.3 11.780689,46.324864,1726.5 11.780598,46.324787,1725.6 11.780473,46.324703,1724.2 11.780321,46.324611,1722.6 11.780167,46.324527,1721 11.780011,46.324448,1719.5 11.779859,46.324381,1718.1 11.779713,46.32432,1716.8 11.779571,46.324263,1715.6 11.779464,46.324203,1714.5 11.779364,46.32413,1713.6 11.779246,46.324035,1712.4 11.779112,46.323931,1711 11.778909,46.323804,1709.2 11.77875,46.32371,1707.8 11.778621,46.323629,1706.6 11.778511,46.323559,1705.5 11.778389,46.32347,1704.3 11.778246,46.32336,1703.1 11.778119,46.323259,1702 11.778007,46.32317,1701 11.777911,46.323064,1699.9 11.777789,46.322936,1698.7 11.777664,46.322842,1697.7 11.777569,46.322773,1697 11.777496,46.322697,1696.2 11.777485,46.322645,1695.9 11.777511,46.322611,1695.6 11.777572,46.322603,1695.3 11.777642,46.322631,1694.9 11.777722,46.322678,1694.3 11.777831,46.322745,1693.5 11.77795,46.322823,1692.7 11.778075,46.322886,1691.8 11.778186,46.322953,1690.8 11.778308,46.32302,1689.8 11.778385,46.32306,1689.2 11.77846,46.323078,1688.6 11.778536,46.323073,1688.2 11.778603,46.323051,1687.7 11.778655,46.323013,1687.2 11.778669,46.322969,1686.8 11.778663,46.322915,1686.4 11.778637,46.32285,1685.8 11.778603,46.32278,1685.2 11.77856,46.322701,1684.5 11.778523,46.32262,1683.8 11.77848,46.322507,1682.8 11.778448,46.322397,1681.8 11.778424,46.322303,1681 11.778402,46.322215,1680.3 11.778372,46.322113,1679.6 11.778346,46.322035,1679 11.778329,46.321972,1678.5 11.778291,46.32189,1678.3 11.778252,46.321832,1678.1 11.778214,46.32178,1678 11.778188,46.321745,1677 11.778156,46.321704,1676.8 11.778115,46.321648,1676.7 11.778058,46.321561,1676.5 11.777992,46.321472,1676.2 11.777919,46.321373,1676 11.777858,46.321294,1675.6 11.777801,46.321234,1675.4 11.777724,46.321165,1675.1 11.777639,46.321105,1674.8 11.777529,46.321051,1674.4 11.777423,46.320999,1674.1 11.777306,46.320944,1673.8 11.777194,46.320885,1673.4 11.77707,46.320808,1673 11.776961,46.320738,1672.7 11.77686,46.320674,1672.3 11.776708,46.320592,1671.8 11.776583,46.320534,1671.5 11.776445,46.320488,1670.9 11.776293,46.320442,1670.3 11.776128,46.320392,1669.7 11.775974,46.320334,1669 11.7758,46.320266,1668.3 11.775653,46.320213,1667.7 11.775511,46.320162,1667.1 11.775369,46.320117,1666.6 11.775218,46.320066,1666 11.775099,46.320022,1665.5 11.774978,46.319962,1664.9 11.77487,46.3199,1664.4 11.774754,46.319833,1663.9 11.77463,46.319772,1663.4 11.774512,46.319718,1662.9 11.774385,46.319665,1662.4 11.774234,46.319609,1661.8 11.774079,46.319557,1661.3 11.773918,46.319511,1660.7 11.773756,46.319467,1660.1 11.773577,46.319427,1659.5 11.773435,46.319392,1659 11.773284,46.319356,1658.4 11.773126,46.319315,1657.9 11.772973,46.319275,1657.3 11.77284,46.319236,1656.8 11.772735,46.319209,1656.5 11.772636,46.31919,1656.1 11.772547,46.319192,1655.9 11.772443,46.319211,1655.5 11.772306,46.319245,1655 11.772156,46.31928,1654.5 11.772014,46.319317,1654 11.771867,46.319349,1653.5 11.771718,46.319383,1653 11.771574,46.319413,1652.6 11.771444,46.319439,1652.1 11.77129,46.319473,1651.6 11.77112,46.31951,1651 11.770956,46.319545,1650.9 11.770806,46.319583,1650.8 11.770655,46.319611,1650.7 11.7705,46.319637,1650.7 11.770363,46.319649,1650.6 11.770222,46.319656,1650.5 11.770093,46.319657,1650.4 11.769938,46.319657,1650.3 11.769767,46.319652,1650.2 11.769612,46.319645,1650.1 11.769471,46.319638,1650 11.76932,46.319623,1649.9 11.769167,46.319603,1649.8 11.769027,46.319585,1649.8 11.768857,46.319561,1649.8 11.768726,46.319539,1649.8 11.7686,46.319512,1649.8 11.76849,46.319472,1649.8 11.768389,46.319423,1649.8 11.768298,46.319367,1649.8 11.768207,46.319309,1649.8 11.7681,46.319244,1649.8 11.768,46.3192,1649.8 11.767912,46.319175,1649.8 11.767813,46.319168,1649.8 11.767722,46.319169,1649.8 11.767616,46.319184,1649.8 11.767498,46.31921,1649.8 11.767387,46.319237,1649.8 11.767261,46.319274,1649.8 11.767128,46.319308,1649.7 11.767001,46.31934,1649.7 11.766885,46.319362,1649.7 11.766758,46.319373,1649.7 11.76664,46.319367,1649.7 11.766531,46.319345,1649.7 11.766427,46.319313,1649.6 11.766318,46.319263,1649.6 11.76623,46.319218,1649.6 11.766145,46.319164,1649.4 11.766059,46.319113,1649.2 11.765947,46.319075,1649 11.76585,46.319059,1648.8 11.765739,46.31905,1648.7 11.765632,46.319041,1648.5 11.765509,46.319029,1648.3 11.765399,46.319005,1648.1 11.765277,46.318965,1647.9 11.765158,46.318925,1647.7 11.765038,46.318897,1647.4 11.764929,46.318885,1647.3 11.764825,46.31888,1646.9 11.764687,46.318873,1646.5 11.764569,46.318865,1646 11.764441,46.318847,1645.5 11.764334,46.318828,1645.1 11.764231,46.318799,1644.6 11.764131,46.318756,1644.2 11.764031,46.318702,1643.6 11.763935,46.318644,1643.1 11.763849,46.318583,1642.6 11.763765,46.318542,1642.2 11.763661,46.31851,1641.7 11.76356,46.318492,1641.3 11.76343,46.318468,1640.8 11.763293,46.318447,1639.9 11.763159,46.318423,1639.1 11.763019,46.3184,1638.2 11.762877,46.318373,1637.3 11.762767,46.318353,1636.6 11.762646,46.318329,1635.8 11.762532,46.318305,1635.1 11.762412,46.318259,1634.2 11.762316,46.318213,1633.5 11.762204,46.31814,1632.5 11.762115,46.318069,1631.7 11.762039,46.318002,1631 11.761961,46.317929,1630.4 11.761879,46.317849,1629.8 11.761806,46.317769,1629.5 11.761747,46.317694,1629.2 11.761703,46.317609,1628.9 11.761671,46.317523,1628.7 11.761641,46.317443,1628.4 11.761582,46.317351,1628 11.76151,46.317285,1627.8 11.76143,46.317221,1627.5 11.761344,46.317153,1627.2 11.761263,46.317094,1626.9 11.76119,46.317035,1626.7 11.761108,46.31696,1626.4 11.761011,46.316877,1626.2 11.760924,46.316818,1626.1 11.760824,46.316779,1626 11.76071,46.316742,1626 11.760604,46.316708,1625.8 11.76051,46.316673,1625.8 11.760415,46.316613,1625.7 11.760325,46.316539,1625.6 11.760248,46.316477,1625.5 11.760167,46.316416,1625.4 11.760073,46.316367,1625.3 11.759966,46.316316,1625.2 11.759851,46.316266,1625 11.759742,46.316223,1624.8 11.759627,46.316173,1624.6 11.759506,46.316117,1624.3 11.759401,46.316063,1624 11.759288,46.316003,1623.8 11.759201,46.315956,1623.6 11.759106,46.315905,1623.3 11.759003,46.315847,1623.1 11.758906,46.315789,1622.8 11.758816,46.315735,1622.6 11.758742,46.315684,1622.4 11.75868,46.315628,1622 11.75863,46.315566,1621.6 11.758605,46.315499,1621.2 11.758605,46.315442,1620.9 11.758628,46.315351,1620 11.758651,46.315273,1619.3 11.758667,46.315193,1618.6 11.758665,46.315117,1617.9 11.758646,46.315034,1617.1 11.758612,46.314969,1616.5 11.758567,46.314894,1615.8 11.758508,46.314806,1614.9 11.758431,46.314693,1613.7 11.758362,46.314594,1612.7 11.7583,46.314506,1612 11.75824,46.314454,1611.5 11.758159,46.314418,1611.1 11.75807,46.314392,1610.7 11.757982,46.314363,1610.4 11.757904,46.314325,1610 11.757812,46.314272,1609.6 11.75772,46.314221,1609.1 11.757631,46.314176,1608.7 11.757563,46.314125,1608.3 11.757523,46.314063,1607.9 11.757494,46.313987,1607.5 11.757453,46.313883,1606.9 11.75741,46.313789,1606.4 11.757365,46.313691,1606 11.757324,46.3136,1605.5 11.757301,46.313492,1605.1 11.757293,46.313408,1604.7 11.757303,46.313321,1604.3 11.757317,46.313229,1603.9 11.757316,46.313155,1603.6 11.75729,46.31309,1603.3 11.757233,46.31301,1602.9 11.757183,46.31293,1602.6 11.757148,46.312851,1602.2 11.757127,46.312759,1601.8 11.757114,46.312675,1601.5 11.757103,46.312569,1601.2 11.757092,46.312481,1600.9 11.757078,46.312406,1600.7 11.757046,46.312328,1600.5 11.757006,46.312273,1600.4 11.756955,46.312237,1600.2 11.756889,46.312217,1600.1 11.7568,46.312214,1599.9 11.756693,46.312219,1599.8 11.756549,46.312226,1599.5 11.756412,46.312231,1599.2 11.756294,46.312223,1599 11.756162,46.312193,1598.8 11.756044,46.312156,1598.1 11.75595,46.312134,1597.6 11.755843,46.312132,1597 11.755721,46.31214,1596.3 11.755588,46.312146,1595.6 11.755475,46.312146,1595 11.755385,46.312129,1594.5 11.755313,46.312089,1594.1 11.755257,46.312025,1593.5 11.755226,46.31194,1592.8 11.755208,46.311852,1592.1 11.755201,46.311764,1591.5 11.755197,46.311661,1590.2 11.755186,46.311567,1589 11.755173,46.311494,1587.7 11.755154,46.311415,1586.3 11.755123,46.311332,1584.8 11.755093,46.311242,1583.2 11.755075,46.311144,1581.4 11.755062,46.311058,1579.9 11.75505,46.31098,1578.5 11.755035,46.310922,1577.5 11.75501,46.310869,1576.5 11.754955,46.310804,1575.2 11.754878,46.310741,1573.7 11.754794,46.310675,1572.2 11.754724,46.310613,1571.3 11.754671,46.310549,1570.6 11.75463,46.310474,1569.7 11.754595,46.310396,1568.8 11.754547,46.310331,1568 11.754478,46.310264,1567.2 11.75438,46.310195,1566.1 11.754285,46.310137,1565.2 11.754165,46.31006,1564 11.754066,46.309995,1563 11.753957,46.309921,1561.9 11.753845,46.309844,1560.7 11.753733,46.309767,1559.8 11.753622,46.309692,1559 11.7535,46.309604,1558.3 11.753376,46.309515,1557.7 11.753259,46.309431,1557 11.75313,46.309338,1556.4 11.75302,46.309265,1555.8 11.75289,46.309184,1555.2 11.752761,46.309111,1554.6 11.752655,46.309047,1554 11.752564,46.308998,1553.6 11.752493,46.308963,1553.3 11.752401,46.308921,1552.9 11.752338,46.308882,1552.6 11.75229,46.308815,1552.3 11.75227,46.308762,1552 11.752288,46.308766,1552.1 11.752356,46.308786,1552.3 11.752432,46.308805,1552.6 11.752555,46.308836,1553.1 11.752702,46.308879,1553.7 11.752883,46.308934,1554.4 11.75305,46.308988,1555.1 11.753195,46.309043,1555.7 11.753324,46.309096,1556.2 11.75342,46.30915,1556.7 11.753508,46.309213,1557 11.753623,46.309314,1557.5 11.753745,46.30941,1558 11.7539,46.309497,1558.4 11.754064,46.309562,1558.7 11.754231,46.309598,1559 11.754444,46.309605,1559.3 11.754624,46.309604,1559.5 11.754756,46.309629,1559.6 11.754926,46.309688,1559.9 11.755059,46.309728,1560.2 11.755187,46.309743,1560.4 11.755363,46.309732,1560.9 11.755536,46.309712,1561.4 11.755697,46.309682,1561.9 11.755883,46.309649,1562.5 11.756066,46.309629,1563.2 11.756253,46.30961,1564 11.756474,46.309589,1564.5 11.756696,46.309563,1565.1 11.756938,46.30954,1566 11.757119,46.309517,1566.7 11.757268,46.309489,1567.5 11.757379,46.30944,1568.2 11.757445,46.309385,1569 11.757488,46.30931,1569.8 11.757498,46.309223,1570.6 11.757496,46.309114,1571.7 11.757491,46.309005,1572.7 11.757489,46.308913,1573.6 11.757498,46.308833,1574.2 11.757523,46.30877,1574.8 11.757575,46.308712,1575.4 11.757672,46.308646,1576.2 11.757781,46.308588,1577.1 11.757891,46.308534,1577.9 11.75799,46.308468,1578.8 11.758048,46.308402,1579.5 11.758109,46.308296,1580.5 11.758157,46.308179,1581.5 11.758196,46.308056,1582.5 11.758229,46.30794,1583.5 11.758236,46.307847,1584 11.758211,46.30777,1584.4 11.758162,46.307671,1585.2 11.758099,46.30755,1586.2 11.758053,46.30746,1587.1 11.758029,46.307379,1587.8 11.758013,46.307292,1588.8 11.758029,46.307179,1590 11.758075,46.307093,1590.9 11.758104,46.307,1591.8 11.758108,46.306879,1592.8 11.758112,46.306729,1594.1 11.758116,46.306619,1595.2 11.758123,46.306476,1596.5 11.758129,46.306355,1597.6 11.758129,46.30621,1598.9 11.758131,46.306075,1600 11.758124,46.305948,1601 11.758129,46.305844,1601.8 11.758145,46.305755,1602.5 11.75819,46.305665,1603.3 11.758235,46.305561,1604.2 11.758256,46.305464,1605.1 11.758237,46.305352,1606.1 11.758205,46.305265,1606.7 11.75813,46.305165,1607.5 11.758059,46.305097,1608 11.757943,46.305026,1608.6 11.757833,46.304997,1609 11.757661,46.304962,1609.7 11.757527,46.304944,1610.3 11.757413,46.304914,1610.8 11.757336,46.304871,1611.5 11.757286,46.304808,1612.1 11.757269,46.304725,1613.2 11.757283,46.304623,1614.4 11.757311,46.304516,1615.6 11.757332,46.304404,1616.8 11.757361,46.304286,1617.9 11.757401,46.304153,1619.2 11.757455,46.303992,1620.5 11.757502,46.303829,1621.9 11.757541,46.303647,1623.1 11.757583,46.303451,1624.3 11.757627,46.303258,1625.4 11.757675,46.303038,1626.7 11.757718,46.302846,1627.6 11.75777,46.302651,1628.6 11.757785,46.302533,1630 11.757791,46.302412,1631.5 11.757771,46.302313,1632.5 11.757738,46.30223,1633.4 11.757669,46.302114,1634.6 11.757608,46.302037,1635.4 11.757573,46.301978,1636 11.757569,46.301908,1636.7 11.757624,46.301862,1637.3 11.75771,46.301847,1638 11.757822,46.301876,1639.1 11.757961,46.301948,1640.7 11.758065,46.302025,1641.6 11.758156,46.302119,1642.5 11.758223,46.302232,1643.5 11.758289,46.302377,1644.7 11.758348,46.302525,1645.9 11.758413,46.30269,1647.2 11.758492,46.302832,1648.4 11.758555,46.30293,1649.3 11.75865,46.303,1650.3 11.758781,46.303064,1651.5 11.758907,46.303148,1652.9 11.759,46.303247,1654.3 11.759086,46.303371,1655.2 11.75918,46.303527,1656.4 11.759294,46.303697,1657.5 11.759385,46.303844,1658.5 11.759501,46.304037,1659.7 11.75959,46.304208,1660.7 11.759681,46.304399,1661.8 11.75977,46.304577,1662.9 11.759834,46.304725,1663.9 11.759885,46.304843,1664.7 11.759939,46.304915,1665.3 11.760014,46.304944,1665.8 11.760104,46.304938,1666.1 11.76019,46.3049,1666.6 11.760253,46.304836,1667.1 11.760267,46.304752,1667.7 11.76025,46.304639,1668.5 11.760204,46.304508,1669.5 11.76017,46.304378,1670.6 11.760165,46.304237,1671.8 11.760174,46.304094,1673 11.760214,46.303946,1674.3 11.760267,46.30381,1675.5 11.760326,46.303661,1676.8 11.760392,46.303454,1678.3 11.76045,46.303263,1679.6 11.760523,46.303031,1681.2 11.760584,46.302864,1682.4 11.760669,46.302682,1683.7 11.760769,46.302527,1684.9 11.760871,46.302399,1685.9 11.761025,46.302237,1687.2 11.761166,46.302093,1688.3 11.761291,46.301968,1689.3 11.761424,46.301835,1690.3 11.761535,46.301713,1691.2 11.761601,46.301584,1692.1 11.761639,46.301463,1692.9 11.76167,46.30132,1693.8 11.761688,46.301184,1694.8 11.76168,46.301062,1695.6 11.761639,46.300946,1696.4 11.761568,46.300827,1697.4 11.761527,46.300733,1698.1 11.761507,46.300594,1699.4 11.761512,46.300457,1700.6 11.761535,46.30027,1702.4 11.761577,46.300049,1704.5 11.761626,46.299847,1705.8 11.76168,46.299691,1706.8 11.761729,46.299504,1707.9 11.761753,46.299349,1708.8 11.761783,46.29917,1709.8 11.761766,46.29903,1710.6 11.761754,46.298917,1711.3 11.76177,46.298809,1712 11.761821,46.298689,1712.9 11.761918,46.298531,1714.1 11.762034,46.298357,1715.5 11.762111,46.29824,1716.5 11.762201,46.298083,1717.6 11.762282,46.297921,1718.7 11.762353,46.297726,1720 11.762414,46.29754,1721.2 11.762499,46.297388,1722.2 11.762617,46.297235,1723.3 11.762702,46.297101,1724.2 11.762777,46.296947,1725.2 11.762855,46.296786,1726.1 11.762934,46.296626,1727.1 11.763009,46.296494,1727.8 11.763109,46.29636,1728.7 11.763223,46.296215,1729.5 11.7633,46.296091,1730.1 11.763365,46.295971,1730.8 11.763421,46.295874,1731.4 11.763485,46.295828,1731.8 11.763563,46.295807,1732.1 11.763632,46.295826,1732.5 11.763669,46.295873,1732.9 11.763649,46.295956,1733.7 11.763583,46.296078,1734.9 11.763504,46.296235,1736.5 11.763453,46.296386,1738.1 11.763421,46.296526,1739.3 11.763408,46.296697,1740.7 11.763422,46.296862,1741.9 11.763435,46.297032,1743.2 11.763443,46.297186,1744.1 11.763427,46.297348,1745.1 11.763395,46.297492,1745.9 11.763331,46.297675,1746.9 11.763277,46.297828,1747.9 11.763278,46.297975,1748.8 11.763307,46.298135,1749.9 11.763319,46.298273,1750.8 11.763325,46.298393,1751.8 11.7633,46.298502,1752.6 11.763244,46.298618,1753.5 11.763187,46.298735,1754.5 11.763166,46.298842,1755.3 11.763184,46.299002,1756.5 11.763206,46.299149,1757.6 11.763228,46.299294,1758.7 11.763248,46.299444,1759.7 11.763269,46.299608,1760.9 11.76327,46.299741,1761.9 11.763264,46.299861,1762.8 11.763273,46.299962,1763.3 11.763304,46.300031,1763.7 11.763379,46.300072,1764.2 11.763466,46.300071,1764.7 11.763559,46.300044,1765.3 11.763615,46.299995,1766 11.763644,46.299926,1766.7 11.763677,46.299808,1768 11.763705,46.29969,1769.2 11.763769,46.299574,1770.5 11.763851,46.299482,1771.5 11.763965,46.299366,1772.8 11.764072,46.299269,1773.6 11.764119,46.2992,1774.1 11.764138,46.299138,1774.6 11.764137,46.29902,1775.4 11.764114,46.29891,1776.3 11.764097,46.298796,1777.2 11.764099,46.29868,1778 11.764135,46.298581,1778.8 11.764207,46.298465,1779.7 11.764309,46.298309,1780.9 11.764411,46.298146,1782 11.764523,46.29797,1783.3 11.764641,46.297803,1785 11.76477,46.297617,1786.8 11.764923,46.297412,1788.8 11.765067,46.297209,1790.8 11.765189,46.297054,1792.2 11.765301,46.29692,1793.5 11.765404,46.296803,1794.6 11.765514,46.296704,1795.6 11.765636,46.296611,1796.6 11.765797,46.296521,1797.7 11.765966,46.296457,1798.8 11.766173,46.296383,1800.1 11.76636,46.296319,1800.7 11.766546,46.29625,1801.2 11.76678,46.29616,1802 11.766971,46.296091,1802.7 11.767153,46.296045,1803.3 11.767339,46.296012,1804 11.767587,46.29597,1805.1 11.767808,46.295941,1806 11.76801,46.295923,1806.9 11.768221,46.29589,1807.8 11.768482,46.295829,1809 11.768665,46.295777,1809.8 11.768875,46.295719,1810.9 11.769083,46.295656,1812 11.769319,46.295582,1813.3 11.769509,46.295525,1814.3 11.769698,46.295467,1815.5 11.769832,46.295423,1816.3 11.769937,46.295378,1817 11.770034,46.295308,1817.9 11.770115,46.295216,1818.9 11.770214,46.295118,1820.1 11.770295,46.295045,1821 11.770392,46.294979,1821.9 11.770565,46.294896,1822.9 11.770791,46.294808,1824.1 11.771027,46.294731,1825.4 11.771312,46.294639,1827 11.771607,46.294543,1828.7 11.771896,46.294452,1830.3 11.772166,46.294365,1832 11.772304,46.294325,1832.9 11.7724,46.294304,1833.5 11.77248,46.294314,1834.1 11.772527,46.294353,1834.7 11.772538,46.294409,1835.3 11.772511,46.29445,1835.6 11.772412,46.29451,1836.3 11.772256,46.294578,1837.3 11.772138,46.294636,1838 11.772008,46.294735,1838.9 11.771886,46.294838,1839.7 11.771752,46.294962,1840.7 11.771611,46.295096,1841.7 11.771465,46.295225,1842.6 11.771341,46.295341,1843.5 11.7712,46.29548,1844.5 11.771079,46.295596,1845.4 11.770984,46.295733,1846.4 11.770889,46.295871,1847.5 11.770804,46.295993,1848.4 11.770718,46.296156,1849.7 11.770667,46.296311,1850.8 11.770605,46.296462,1852 11.770527,46.296618,1853.1 11.770466,46.296801,1854.5 11.770388,46.296988,1855.8 11.770326,46.297178,1857 11.770279,46.297304,1857.9 11.770236,46.297422,1858.7 11.770237,46.297494,1859.5 11.770269,46.297559,1860.3 11.770338,46.297602,1861 11.770424,46.297607,1861.6 11.770496,46.297579,1862.2 11.770539,46.297525,1862.7 11.770618,46.297429,1863.5 11.770748,46.297312,1864.5 11.770921,46.297191,1865.6 11.771114,46.297064,1866.7 11.771295,46.296943,1867.6 11.771422,46.296847,1868.3 11.771511,46.296753,1868.9 11.771592,46.296646,1869.5 11.77166,46.296531,1870.2 11.771699,46.296436,1870.8 11.771697,46.296321,1871.6 11.771694,46.296202,1872.4 11.771722,46.296121,1873.1 11.771797,46.29606,1873.7 11.771955,46.295972,1875 11.77215,46.295881,1876.5 11.772336,46.295806,1877.9 11.772501,46.295749,1879.1 11.77269,46.2957,1880.5 11.772931,46.295667,1882.3 11.773181,46.295655,1883.9 11.773472,46.295661,1885.9 11.773768,46.295685,1887.8 11.774089,46.295715,1889.9 11.774381,46.295738,1891.6 11.774632,46.29575,1893.1 11.774905,46.295758,1894.7 11.775248,46.295764,1896.8 11.77556,46.295774,1898.6 11.77585,46.29578,1900.3 11.776151,46.295786,1901.8 11.77655,46.2958,1903.9 11.776948,46.295811,1905.9 11.77733,46.295828,1907.8 11.777611,46.295836,1909.1 11.777939,46.295844,1910.7 11.778186,46.295845,1911.8 11.778433,46.295821,1912.9 11.778697,46.295776,1914 11.779033,46.295714,1915.4 11.779226,46.295669,1916.2 11.779364,46.295612,1916.8 11.779487,46.295533,1917.4 11.779619,46.295423,1918 11.779717,46.295362,1918.5 11.779815,46.295349,1918.9 11.779893,46.295375,1919.4 11.77993,46.295432,1919.9 11.77992,46.295504,1920.6 11.779864,46.295615,1921.7 11.779786,46.295739,1923 11.779688,46.295912,1924.7 11.779595,46.296075,1926.4 11.779504,46.296236,1928 11.779451,46.296371,1929.4 11.779438,46.296504,1930.8 11.779451,46.296628,1931.9 11.779488,46.29674,1933 11.779539,46.296853,1933.8 11.779594,46.296975,1934.8 11.779624,46.297088,1935.4 11.779636,46.297195,1936.1 11.77965,46.29728,1936.5 11.779688,46.297335,1936.9 11.779766,46.297357,1937.2 11.77985,46.297348,1937.5 11.77992,46.297301,1938 11.77996,46.297227,1938.5 11.779994,46.297161,1938.9 11.780041,46.297053,1939.7 11.780071,46.296943,1940.5 11.780089,46.296825,1941.3 11.780115,46.296713,1942.1 11.780164,46.296605,1943 11.780252,46.296507,1943.8 11.780363,46.29643,1944.7 11.780492,46.296348,1945.7 11.780663,46.296257,1946.9 11.780831,46.296191,1948.5 11.780995,46.296148,1949.9 11.781139,46.296123,1951 11.781319,46.296106,1952.3 11.781486,46.296102,1953.5 11.78173,46.296108,1955.1 11.781931,46.296136,1956.2 11.782124,46.296177,1957.3 11.782377,46.296233,1958.5 11.78266,46.29629,1959.8 11.782951,46.296341,1960.9 11.783252,46.296389,1962.1 11.78347,46.29642,1963.1 11.783686,46.296424,1964.1 11.783905,46.29641,1964.9 11.784179,46.296392,1966 11.784431,46.29638,1966.9 11.784686,46.296378,1967.8 11.784983,46.296377,1968.5 11.785299,46.296368,1969.3 11.785532,46.296356,1969.7 11.7858,46.296328,1970.2 11.786087,46.296293,1970.6 11.786347,46.296266,1970.9 11.786675,46.296237,1971.4 11.786905,46.296229,1971.7 11.787157,46.296239,1971.8 11.787377,46.296244,1971.8 11.787595,46.296249,1971.6 11.78776,46.296246,1971.5 11.787985,46.296237,1970.9 11.788228,46.296223,1970.3 11.788455,46.296217,1969.7 11.788552,46.296238,1969.4 11.788635,46.296307,1968.9 11.788742,46.296416,1968.3 11.788848,46.296542,1967.7 11.788908,46.296662,1967.2 11.788925,46.296774,1966.6 11.788909,46.296917,1965.8 11.788884,46.297091,1964.8 11.788862,46.297302,1963.6 11.788833,46.297469,1962.4 11.788797,46.297609,1961.4 11.788772,46.297703,1960.7 11.788794,46.297791,1960 11.788858,46.297855,1959.4 11.788938,46.297906,1958.8 11.78904,46.297935,1958.3 11.789134,46.297933,1957.8 11.789221,46.29791,1957 11.78931,46.297877,1957 11.789373,46.297839,1957 11.789409,46.297782,1957 11.789429,46.297667,1955.93 11.789428,46.297575,1955.17 11.789396,46.297407,1953.97 11.789364,46.297279,1953.05 11.789354,46.297119,1951.92 11.789363,46.296997,1951.06 11.789412,46.29682,1949.78 11.789526,46.296621,1948.27 11.789588,46.296514,1947.45 11.789845,46.296223,1945.68 11.790042,46.296055,1944.56 11.79019,46.295893,1943.57 11.790343,46.29566,1942.53 11.790407,46.295525,1941.95 11.790492,46.295291,1940.96 11.790521,46.295116,1940.25 11.790516,46.294612,1938.19 11.790556,46.294286,1935.81 11.790628,46.294098,1934.37 11.790726,46.293935,1933.07 11.790953,46.29368,1930.86 11.791766,46.292858,1922.88 11.79216,46.292499,1918.02 11.792341,46.292317,1915.64 11.792458,46.292176,1913.89 11.79257,46.291954,1911.36 11.79268,46.291433,1905.68 11.792814,46.291118,1904.23 11.792912,46.290975,1903.6 11.793554,46.29034,1900.53 11.793735,46.290061,1899.75 11.79381,46.289859,1899.23 11.793833,46.289558,1899.1 11.79386,46.289269,1899.69 11.793902,46.288986,1900.26 11.793951,46.288792,1900.72 11.794037,46.288656,1901.07 11.794156,46.288529,1901.43 11.794301,46.288439,1901.74 11.794629,46.288317,1902.35 11.794811,46.288288,1902.78 11.795587,46.288257,1905.44 11.795815,46.288211,1906.25 11.795902,46.288171,1906.61 11.796024,46.288063,1907.28 11.796084,46.28793,1907.97 11.796066,46.287798,1908.63 11.795926,46.287554,1909.1 11.795848,46.287508,1908.6 11.795735,46.287425,1907.5 11.79565,46.287351,1906.7 11.795514,46.287224,1905.2 11.795415,46.287138,1904.3 11.795348,46.287064,1903.6 11.795315,46.286987,1902.9 11.795315,46.286922,1902.5 11.795345,46.286807,1901.6 11.795375,46.286709,1900.9 11.79542,46.286602,1900 11.795472,46.286496,1899.2 11.795542,46.286416,1898.5 11.79566,46.286307,1897.4 11.795789,46.286196,1896.3 11.79593,46.286066,1894.9 11.796015,46.285986,1894.1 11.796113,46.285889,1893.2 11.796197,46.285797,1892.3 11.796272,46.285699,1891.4 11.796372,46.285563,1890.3 11.796443,46.285471,1889.5 11.796524,46.285363,1888.6 11.796608,46.285263,1887.8 11.796703,46.28518,1887.1 11.796828,46.285085,1885.6 11.796918,46.285013,1884.4 11.796994,46.284934,1883.4 11.797067,46.284819,1882 11.797127,46.284717,1880.9 11.797185,46.284644,1880.1 11.797264,46.28457,1879.3 11.797364,46.284521,1878.6 11.797451,46.284489,1878.1 11.797558,46.284478,1877.5 11.797661,46.284488,1877 11.797746,46.284512,1876.5 11.797809,46.284545,1876.2 11.797859,46.284593,1875.7 11.797895,46.284638,1875.2 11.797938,46.284734,1874.2 11.797979,46.28482,1873.3 11.798027,46.284914,1872.3 11.798092,46.285008,1871.3 11.798166,46.285094,1870.3 11.798218,46.28516,1869.5 11.798258,46.285237,1868.8 11.798282,46.285325,1867.9 11.7983,46.285447,1866.7 11.798318,46.285553,1865.6 11.798327,46.285637,1864.8 11.798326,46.285719,1864.1 11.798311,46.285792,1863.5 11.798301,46.285874,1862.8 11.798304,46.28595,1862.1 11.798315,46.286024,1861.5 11.798337,46.286085,1861 11.798379,46.286126,1860.5 11.798462,46.286157,1860 11.798537,46.286168,1859.5 11.798618,46.286156,1859 11.798698,46.286112,1858.4 11.798758,46.286071,1857.8 11.798825,46.286019,1857.3 11.798896,46.285971,1856.7 11.798976,46.28592,1856.1 11.799075,46.285858,1855.4 11.799204,46.285778,1854.5 11.79932,46.285699,1853.7 11.799421,46.285638,1853 11.799503,46.285585,1852.5 11.799593,46.285532,1851.9 11.799673,46.285484,1851.4 11.799771,46.285429,1850.8 11.79986,46.285394,1850.3 11.799974,46.28536,1849.7 11.800102,46.285331,1849 11.800205,46.285312,1848.5 11.800294,46.285304,1848.1 11.800351,46.285285,1847.8 11.800387,46.285253,1847.6 11.800384,46.285217,1847.4 11.800352,46.285193,1847.2 11.800306,46.285183,1846.9 11.800252,46.285186,1846.7 11.80017,46.285205,1846.3 11.800055,46.28524,1845.7 11.799952,46.285265,1845.2 11.799845,46.285291,1844.7 11.799708,46.285331,1843.9 11.799597,46.285369,1843.3 11.79949,46.285416,1842.7 11.799392,46.285453,1842.2 11.799313,46.285484,1841.7 11.799249,46.285507,1841.3 11.799183,46.285523,1841 11.799122,46.285519,1840.6 11.79907,46.285493,1840.3 11.799048,46.285452,1839.9 11.799061,46.285414,1839.6 11.79911,46.285383,1839.2 11.799179,46.285364,1838.8 11.799267,46.285356,1838.4 11.799351,46.285342,1837.9 11.799467,46.285312,1837.2 11.799568,46.285265,1836.6 11.799664,46.285211,1835.9 11.799746,46.285169,1835.3 11.799834,46.285118,1834.7 11.799928,46.285063,1834 11.800026,46.28502,1833.4 11.800124,46.284994,1832.8 11.800234,46.284987,1832.2 11.800354,46.284986,1831.6 11.800461,46.284985,1831 11.800533,46.284975,1830.7 11.800581,46.284954,1830.4 11.800597,46.284923,1830.2 11.800584,46.284887,1829.9 11.800544,46.284866,1829.7 11.800476,46.284859,1829.3 11.800379,46.284867,1828.8 11.800272,46.284882,1828.3 11.800133,46.284898,1827.5 11.799998,46.284914,1826.8 11.79988,46.284926,1826.2 11.799759,46.284939,1825.5 11.79967,46.284945,1825.1 11.799589,46.284944,1824.7 11.799526,46.284933,1824.4 11.799493,46.284907,1824.1 11.799486,46.284868,1823.9 11.799502,46.284837,1823.6 11.799552,46.284817,1823.4 11.799616,46.284811,1823.1 11.799689,46.284808,1822.7 11.79977,46.2848,1822.3 11.799847,46.284787,1821.8 11.799938,46.284765,1821.3 11.800058,46.284734,1820.6 11.800168,46.284699,1820 11.800274,46.284664,1819.3 11.800394,46.284625,1818.6 11.80049,46.284604,1818 11.800624,46.284592,1817.3 11.800715,46.284602,1816.8 11.800815,46.28463,1816.2 11.800903,46.284686,1815.7 11.800967,46.284764,1815.1 11.801011,46.284831,1814.7 11.801054,46.284911,1814.1 11.801088,46.284976,1813.9 11.801144,46.285044,1813.6 11.801201,46.285088,1813.4 11.80127,46.285109,1813.2 11.801347,46.285107,1813.1 11.801415,46.285089,1813 11.801466,46.285064,1813 11.801509,46.285021,1812.9 11.801531,46.284972,1812.7 11.80156,46.284921,1812.5 11.801583,46.284848,1812.3 11.801607,46.284764,1812 11.801624,46.284702,1811.5 11.801643,46.284611,1810.9 11.801665,46.284497,1810 11.80169,46.284385,1809.2 11.801714,46.284275,1808.4 11.801733,46.28417,1807.6 11.801753,46.284074,1806.9 11.801764,46.283982,1806.3 11.80177,46.283883,1805.7 11.80177,46.283783,1805.1 11.801763,46.283685,1804.5 11.80175,46.283581,1803.8 11.801737,46.283466,1803.2 11.80174,46.28336,1802.5 11.801749,46.283271,1802 11.801764,46.28314,1801.1 11.801782,46.283016,1800.2 11.801805,46.282882,1799.2 11.80183,46.28274,1798.1 11.80185,46.28258,1796.9 11.801865,46.282424,1795.6 11.801879,46.282297,1794.6 11.80189,46.282197,1793.8 11.801904,46.282128,1793.2 11.80192,46.28205,1792.5 11.801933,46.281996,1792.2 11.801927,46.281953,1791.9 11.801895,46.281915,1791.7 11.801844,46.281905,1791.4 11.801779,46.281917,1791.2 11.801732,46.281953,1790.9 11.801689,46.282022,1790.4 11.80164,46.282121,1789.8 11.801585,46.282216,1789.2 11.801527,46.282328,1788.4 11.801477,46.282429,1787.7 11.801426,46.28254,1786.9 11.801376,46.282642,1786.2 11.801338,46.282687,1785.8 11.801288,46.282705,1785.5 11.801229,46.282709,1785.3 11.80119,46.282688,1785 11.801164,46.282637,1784.7 11.801173,46.282566,1784.3 11.801203,46.282457,1783.6 11.801238,46.282311,1782.7 11.801272,46.282184,1781.9 11.801299,46.282048,1781 11.801314,46.281938,1780.3 11.801321,46.281818,1779.5 11.801322,46.281642,1778.3 11.801314,46.281481,1777.1 11.801306,46.281352,1776.2 11.801292,46.281212,1775.2 11.801288,46.2811,1774.4 11.801296,46.280995,1773.7 11.801316,46.280887,1773 11.801345,46.280781,1772.4 11.801383,46.280675,1771.7 11.801437,46.280588,1771.2 11.801501,46.280506,1770.6 11.801581,46.280444,1770.3 11.801698,46.280367,1769.8 11.801815,46.280293,1769.3 11.801873,46.28023,1768.9 11.801916,46.280157,1768.5 11.80194,46.28007,1768.1 11.80196,46.279968,1767.4 11.80199,46.279885,1766.9 11.802033,46.27983,1766.4 11.802105,46.279777,1765.8 11.802227,46.279723,1764.9 11.802318,46.279693,1764.3 11.802471,46.279646,1763.1 11.802632,46.279611,1761.9 11.802769,46.279593,1760.9 11.802881,46.279572,1760.1 11.802966,46.279553,1759.5 11.803017,46.279526,1759 11.803037,46.279485,1758.7 11.803024,46.279437,1758.3 11.802976,46.279399,1758 11.802916,46.279384,1757.7 11.802783,46.279391,1757.2 11.80261,46.279407,1756.7 11.802426,46.279425,1755.9 11.802229,46.279444,1755.1 11.802039,46.279471,1754.2 11.801888,46.279501,1753.5 11.801707,46.279548,1752.7 11.801517,46.279604,1751.7 11.801397,46.279652,1751 11.801257,46.279725,1750.1 11.801167,46.279788,1749.4 11.801046,46.279866,1748.6 11.800938,46.279926,1747.9 11.800789,46.279972,1747.1 11.800652,46.280017,1746.3 11.800531,46.280058,1745.6 11.800407,46.280115,1744.9 11.800295,46.28018,1744.1 11.800201,46.280252,1743.4 11.80007,46.280349,1742.4 11.799936,46.280449,1741.4 11.79982,46.280538,1740.5 11.799734,46.280631,1739.7 11.799641,46.28075,1738.8 11.799561,46.280845,1738.1 11.799496,46.280926,1737.5 11.799431,46.280966,1737.1 11.799362,46.280985,1736.8 11.799304,46.280978,1736.5 11.799254,46.280955,1736.3 11.799232,46.280907,1735.9 11.799244,46.280828,1735.4 11.799294,46.280655,1733.9 11.799352,46.280489,1732.5 11.799407,46.280339,1731.2 11.799462,46.280177,1729.8 11.799544,46.279992,1728 11.799645,46.279782,1726 11.799761,46.279547,1724.5 11.79985,46.279377,1723.3 11.799931,46.279239,1722.4 11.800045,46.279058,1721.1 11.80016,46.27892,1720 11.800311,46.278772,1718.8 11.800447,46.278637,1717.7 11.800567,46.278518,1716.6 11.800677,46.278407,1715.6 11.800769,46.278313,1714.8 11.800904,46.278222,1713.9 11.801034,46.278155,1713 11.801237,46.278072,1711.8 11.801377,46.278018,1711 11.801571,46.27794,1709.8 11.801731,46.277882,1708.8 11.801886,46.277839,1707.9 11.802028,46.277819,1707.1 11.802202,46.277798,1706.1 11.802342,46.27778,1705.4 11.802415,46.277746,1704.9 11.802437,46.277695,1704.5 11.802426,46.277646,1704.2 11.802374,46.277608,1703.8 11.802277,46.277585,1703.4 11.802149,46.277583,1702.9 11.801928,46.277583,1702.1 11.801686,46.277576,1701.2 11.801483,46.277568,1700.4 11.801281,46.277563,1699.7 11.801142,46.277545,1699 11.801048,46.277505,1698.5 11.80091,46.277447,1697.8 11.800777,46.277389,1697 11.800654,46.277357,1696.4 11.800533,46.277344,1695.8 11.800365,46.277347,1695 11.8002,46.277353,1694.2 11.800038,46.277369,1693.3 11.799842,46.277413,1692.2 11.799648,46.277477,1691 11.799442,46.277544,1689.8 11.799238,46.277612,1688.5 11.799079,46.277673,1687.5 11.798933,46.277739,1686.6 11.798809,46.277799,1685.8 11.798685,46.277847,1685.2 11.798578,46.277857,1684.7 11.798508,46.277841,1684.3 11.798456,46.277804,1684 11.798447,46.277763,1683.7 11.798475,46.277699,1683.2 11.798554,46.277562,1682.1 11.798654,46.277406,1680.8 11.798765,46.277228,1679.2 11.798849,46.277088,1678 11.798931,46.276965,1676.9 11.798989,46.276899,1676.2 11.799102,46.276819,1675.3 11.799226,46.276747,1674.3 11.799357,46.276682,1673.7 11.799448,46.276619,1673.2 11.799524,46.276538,1672.5 11.799592,46.276443,1671.9 11.799675,46.276298,1670.8 11.799751,46.276167,1669.9 11.799812,46.276083,1669.2 11.799883,46.276003,1668.4 11.799976,46.275919,1667.6 11.800136,46.27581,1666.4 11.800337,46.275657,1664.8 11.800496,46.275535,1663.5 11.800631,46.275435,1662.4 11.800766,46.275348,1661.4 11.800887,46.275279,1660.6 11.800982,46.275225,1660 11.801016,46.275193,1659.7 11.801014,46.275149,1659.5 11.800981,46.275107,1659.2 11.800915,46.275087,1658.9 11.800829,46.275086,1658.5 11.800698,46.275096,1658 11.80052,46.275112,1657.3 11.800354,46.275127,1656.7 11.800197,46.275132,1656 11.800022,46.275134,1655.2 11.799822,46.275128,1654.3 11.799597,46.275121,1653.2 11.799381,46.275109,1652.2 11.799181,46.275098,1651.2 11.798981,46.275083,1650 11.798799,46.275076,1648.8 11.798586,46.275075,1647.5 11.798376,46.275086,1646.2 11.798178,46.275094,1645 11.798021,46.2751,1644.1 11.797867,46.275112,1643.3 11.797759,46.275116,1642.8 11.797674,46.275106,1642.4 11.797608,46.275076,1642 11.797586,46.275031,1641.7 11.7976,46.274985,1641.4 11.797658,46.27492,1640.9 11.797726,46.27486,1640.5 11.797893,46.274722,1639.3 11.798036,46.274594,1638.3 11.7982,46.274447,1637 11.798363,46.274306,1635.9 11.798519,46.274167,1634.7 11.798635,46.274062,1633.7 11.798763,46.273969,1632.8 11.798888,46.273894,1632 11.799102,46.273796,1630.6 11.799315,46.273693,1629.2 11.799502,46.273602,1628 11.7997,46.273512,1626.7 11.799824,46.273449,1625.9 11.799902,46.273397,1625.3 11.799932,46.273342,1624.8 11.799915,46.273301,1624.5 11.799858,46.273258,1624 11.799754,46.27322,1623.5 11.799642,46.273186,1622.9 11.799459,46.273141,1621.9 11.799257,46.273086,1620.8 11.799081,46.273042,1619.9 11.798963,46.273013,1619.3 11.798864,46.273008,1618.9 11.798751,46.27303,1618.4 11.798649,46.273056,1617.9 11.798571,46.273064,1617.6 11.798496,46.273045,1617.3 11.798463,46.273005,1617 11.798471,46.272951,1616.8 11.79855,46.272873,1616.3 11.798655,46.27279,1615.7 11.798783,46.272692,1614.9 11.798905,46.272617,1614.3 11.79904,46.272551,1613.7 11.79917,46.27252,1613.2 11.799381,46.272487,1612.5 11.799632,46.272451,1611.7 11.799877,46.272416,1610.9 11.800167,46.27238,1610 11.800402,46.272354,1609.5 11.800658,46.272317,1608.9 11.800802,46.272292,1608.5 11.800907,46.272264,1608.3 11.800982,46.272226,1608.1 11.801038,46.272149,1607.9 11.801069,46.272069,1607.3 11.801114,46.271965,1606.7 11.801172,46.271889,1606.1 11.801278,46.271802,1605.4 11.801403,46.271739,1604.8 11.801572,46.271648,1603.8 11.801763,46.271546,1602.8 11.801893,46.271464,1602.1 11.801976,46.271389,1601.5 11.802062,46.271274,1600.7 11.80217,46.271121,1599.6 11.802291,46.270983,1598.6 11.802427,46.270827,1597.5 11.80255,46.270662,1596.3 11.802689,46.270495,1595.1 11.802821,46.270367,1594.2 11.803002,46.270203,1592.9 11.803198,46.270031,1591.6 11.803403,46.269851,1590.1 11.803592,46.269687,1588.8 11.803785,46.269521,1587.4 11.803976,46.269352,1586 11.804128,46.269221,1584.9 11.804267,46.269106,1583.9 11.804355,46.269017,1583.3 11.804399,46.268941,1582.8 11.80442,46.268862,1582.4 11.804412,46.268768,1581.9 11.804389,46.26865,1581.3 11.804371,46.268517,1580.6 11.804362,46.268371,1579.5 11.804344,46.268198,1578.2 11.804344,46.268055,1577 11.804354,46.267903,1575.9 11.804381,46.267762,1574.7 11.804408,46.26761,1573.5 11.80443,46.26744,1572.1 11.804461,46.267286,1570.9 11.80449,46.26716,1569.8 11.804509,46.267026,1568.8 11.804509,46.266901,1567.8 11.804486,46.266761,1566.7 11.804456,46.266622,1565.6 11.804436,46.266507,1564.7 11.80443,46.266418,1564.2 11.804429,46.26634,1563.7 11.804466,46.266281,1563.3 11.804535,46.266238,1563 11.804669,46.266218,1562.5 11.804825,46.266216,1562 11.804972,46.266218,1561.5 11.805138,46.266228,1561 11.805281,46.26624,1560.5 11.805393,46.266228,1560.2 11.805514,46.266187,1559.6 11.805621,46.266143,1559 11.805768,46.266097,1558.3 11.805907,46.266087,1557.6 11.806045,46.266089,1556.9 11.806192,46.266116,1556.1 11.806337,46.266164,1555.4 11.806463,46.266214,1554.7 11.80655,46.266236,1554.3 11.806608,46.266228,1554 11.806636,46.266195,1553.7 11.806624,46.266151,1553.4 11.806561,46.266108,1553 11.806457,46.266071,1552.5 11.806308,46.266037,1551.7 11.806134,46.265997,1550.8 11.805978,46.265961,1550 11.805846,46.265941,1549.3 11.805692,46.265946,1548.5 11.805491,46.26596,1547.3 11.805336,46.26597,1546.5 11.8052,46.265968,1545.7 11.805061,46.265947,1544.9 11.804938,46.265915,1544.1 11.804756,46.265847,1542.9 11.804562,46.265781,1541.6 11.804395,46.265717,1540.5 11.804242,46.265665,1539.5 11.80413,46.265635,1538.8 11.804024,46.265626,1538.2 11.803911,46.265633,1537.7 11.803803,46.265671,1537.2 11.803731,46.265723,1536.7 11.803681,46.265794,1536.2 11.803617,46.265912,1535.5 11.803558,46.26603,1534.8 11.803493,46.266158,1533.7 11.803428,46.266289,1532.7 11.803382,46.266388,1531.8 11.803324,46.266469,1531.1 11.803244,46.266527,1530.5 11.803165,46.266561,1530 11.803046,46.266577,1529.3 11.802932,46.266572,1528.6 11.802802,46.26656,1527.8 11.802655,46.266547,1526.9 11.802497,46.266538,1526 11.802388,46.266522,1525.3 11.802333,46.266492,1524.9 11.802326,46.266453,1524.6 11.802353,46.266417,1524.2 11.802399,46.266389,1523.8 11.802479,46.266374,1523.3 11.802628,46.266366,1522.3 11.802796,46.26636,1521.2 11.80294,46.266349,1520.3 11.803046,46.26632,1519.7 11.803126,46.266266,1519.1 11.80318,46.266186,1518.5 11.803201,46.266082,1517.8 11.803207,46.265918,1516.9 11.803222,46.265748,1515.9 11.803251,46.265614,1515.2 11.803288,46.265509,1514.6 11.803346,46.265405,1514 11.803429,46.265317,1513.4 11.80351,46.265254,1512.8 11.803679,46.265159,1511.7 11.803857,46.265078,1510.6 11.804064,46.265002,1509.4 11.804244,46.264946,1508.4 11.804387,46.264892,1507.5 11.80447,46.264833,1506.9 11.80454,46.264744,1506.2 11.804582,46.26467,1505.6 11.804591,46.26462,1505.2 11.804588,46.264589,1505 11.804544,46.264557,1505 11.80449,46.264544,1504.9 11.80441,46.264562,1504.8 11.80434,46.26459,1504.6 11.804221,46.264647,1504.3 11.804129,46.264693,1504 11.80401,46.264764,1503.4 11.803904,46.26482,1503 11.803777,46.264886,1502.5 11.80367,46.264945,1501.7 11.803563,46.264987,1501 11.803463,46.265004,1500.4 11.803392,46.264994,1500 11.803326,46.264958,1499.5 11.803276,46.26493,1499.1 11.803207,46.264883,1498.6 11.803129,46.264829,1498 11.803074,46.264787,1497.8 11.803016,46.264743,1496.8 11.802947,46.264688,1495.9 11.802848,46.264637,1494.9 11.802731,46.264597,1493.8 11.802599,46.26458,1492.6 11.802452,46.264571,1491.6 11.802317,46.264562,1490.7 11.802188,46.264537,1490.1 11.802063,46.264477,1489.2 11.801949,46.26441,1488.4 11.801827,46.264327,1487.3 11.801694,46.264239,1486.1 11.801552,46.264154,1485.2 11.801407,46.264075,1484.3 11.8013,46.26402,1483.7 11.80123,46.263981,1483.2 11.801201,46.26396,1483 11.801194,46.263919,1483 11.801217,46.263889,1483 11.801245,46.263875,1482.9 11.801313,46.263865,1482.7 11.80143,46.263874,1482.4 11.801532,46.263901,1482.1 11.801655,46.26393,1481.8 11.801776,46.263947,1481.4 11.80189,46.263951,1481 11.80197,46.263921,1480.8 11.802051,46.263864,1480.5 11.802164,46.263762,1480 11.802343,46.263614,1479.2 11.802449,46.263521,1478.7 11.802579,46.263428,1478.1 11.802741,46.263299,1477.2 11.802907,46.263179,1476.3 11.803013,46.263105,1475.8 11.803115,46.263039,1475.2 11.803254,46.262982,1474.5 11.803378,46.262932,1473.8 11.803463,46.262898,1473.9 11.803522,46.262868,1474 11.80355,46.262841,1474.2 11.803861,46.26267,1474.2 11.804422,46.2623,1473.87 11.804792,46.261968,1473.41 11.805021,46.261836,1473.19 11.805214,46.261774,1472.88 11.805415,46.26175,1472.58 11.805587,46.261746,1472.33 11.805667,46.261733,1472.21 11.805776,46.261685,1472.02 11.80586,46.261642,1471.86 11.805914,46.261606,1471.68 11.806054,46.261429,1471 11.806207,46.261312,1470.47 11.806467,46.261164,1469.67 11.806719,46.261066,1468.97 11.806936,46.260999,1468.39 11.807131,46.260964,1467.9 11.80815,46.260899,1465.41 11.80839,46.260863,1464.82 11.808595,46.260787,1464.26 11.808877,46.260512,1462.65 11.809034,46.260301,1461.48 11.809064,46.260209,1461.02 11.80903,46.260163,1460.76 11.808688,46.259983,1459.3 11.808604,46.259891,1458.76 11.808597,46.259815,1458.39 11.808541,46.259816,1458.2 11.808378,46.259883,1457.57 11.808051,46.260162,1455.85 11.80795,46.260247,1455.51 11.80789,46.260273,1455.36 11.807816,46.260289,1455.39 11.806674,46.26028,1455.84 11.806452,46.260294,1455.93 11.806251,46.260349,1456.01 11.806052,46.260437,1456.15 11.805675,46.260681,1456.44 11.805197,46.261088,1458.09 11.805134,46.261136,1458.3 11.805005,46.261225,1459 11.804926,46.261262,1459.2 11.804786,46.261285,1459.52 11.804642,46.261289,1459.83 11.804533,46.261307,1460.07 11.804328,46.261373,1460.52 11.804122,46.26148,1461.02 11.803917,46.261581,1461.51 11.803799,46.261639,1461.8 11.803726,46.261666,1461.89 11.803671,46.261676,1461.96 11.803626,46.261674,1461.96 11.803577,46.261784,1461.96 11.803529,46.261859,1461.96 11.803443,46.261939,1461.96 11.803394,46.26197,1461.96 11.803327,46.262009,1461.96 11.803238,46.262034,1461.96 11.803084,46.262038,1461.96 11.802976,46.26204,1461.96 11.802923,46.262041,1462
          </coordinates>
        </LineString>
      </MultiGeometry>
    </Placemark>
  </Folder>
</Document>
</kml>