<?xml version="1.0" encoding="UTF-8"?>
<kml xmlns="http://www.opengis.net/kml/2.2">
<Document>
  <name><![CDATA[TT-2026 01 Lienz-Sillian_numm]]></name>
  <description><![CDATA[Converted with MapKmlTools.com - Free online GPX to KML converter.]]></description>
  
  <!-- Styles -->
  <Style id="lineStyle">
    <LineStyle>
      <color>cc4444ef</color>
      <width>4</width>
    </LineStyle>
  </Style>
  
  <Style id="wptStyle">
    <IconStyle>
      <color>fff6823b</color>
      <scale>1.1</scale>
      <Icon>
        <href>http://maps.google.com/mapfiles/kml/pushpin/ylw-pushpin.png</href>
      </Icon>
    </IconStyle>
  </Style>

  <Folder>
    <name>Tracks</name>
    <Placemark>
      <name><![CDATA[TT-2026 01 Lienz-Sillian_numm]]></name>
      
      <styleUrl>#lineStyle</styleUrl>
      <MultiGeometry>
        <LineString>
          <tessellate>1</tessellate>
          <coordinates>
            12.769981,46.829319,672 12.769454,46.829376,672.15 12.768936,46.829435,672.29 12.768495,46.829485,672.41 12.7683,46.829508,672.47 12.767946,46.829553,672.57 12.767681,46.829586,672.65 12.767466,46.829609,672.7 12.767311,46.829626,672.74 12.767197,46.829633,672.78 12.767052,46.829634,672.81 12.76703,46.829736,672.8 12.766987,46.829804,672.92 12.76692,46.82986,673.04 12.766735,46.829977,673.32 12.766677,46.830006,673.4 12.766612,46.830031,673.48 12.766405,46.830096,673.73 12.766195,46.830165,673.99 12.766052,46.830215,674.17 12.765856,46.830285,674.41 12.765509,46.830431,674.86 12.765368,46.830477,675.03 12.765216,46.830527,675.22 12.765089,46.830557,675.37 12.764946,46.830591,675.54 12.764871,46.830609,675.62 12.764798,46.830598,675.75 12.764723,46.830598,675.81 12.764642,46.830602,675.89 12.764513,46.83061,676.01 12.764399,46.830627,676.15 12.764338,46.830633,676.22 12.763038,46.830906,677.72 12.762945,46.830932,677.83 12.762873,46.830959,677.92 12.762321,46.831151,678.61 12.76196,46.831279,679.06 12.761138,46.831571,680.08 12.761034,46.831602,680.2 12.76093,46.831633,680.33 12.760822,46.831655,680.45 12.760659,46.831659,680.63 12.760533,46.831675,680.78 12.760455,46.8317,680.87 12.760388,46.831736,680.6 12.760322,46.831693,680.67 12.760261,46.831667,680.72 12.760145,46.831638,680.81 12.75991,46.83161,681 12.75892,46.83154,681.81 12.75779,46.83147,682.74 12.75722,46.83145,683.21 12.75674,46.83143,683.6 12.756511,46.831428,683.79 12.75599,46.83142,684.21 12.75525,46.83141,684.82 12.7545,46.8314,685.43 12.754267,46.831399,685.62 12.754156,46.831392,685.71 12.75406,46.83138,685.79 12.75395,46.83135,685.89 12.75384,46.83129,686 12.753723,46.831369,686.21 12.753527,46.831501,686.31 12.753348,46.831612,686.48 12.753187,46.831695,686.41 12.753115,46.831737,686.41 12.752823,46.831906,685.9 12.751948,46.832373,685.28 12.751342,46.832705,684.74 12.751046,46.832871,684.14 12.750709,46.833049,683.47 12.750061,46.833377,682.21 12.74932,46.833784,681.31 12.749133,46.833882,681.09 12.74885,46.834026,680.76 12.748533,46.834138,680.42 12.748053,46.834271,679.94 12.747414,46.834409,679.31 12.746863,46.834548,679.06 12.746335,46.834717,678.81 12.745738,46.834924,678.53 12.744909,46.835204,678.46 12.744326,46.835342,678.42 12.743789,46.835453,678.85 12.739888,46.836184,681.96 12.739162,46.836282,682.68 12.738671,46.836352,683.11 12.737998,46.836413,683.7 12.737556,46.836446,684.18 12.736471,46.836503,685.36 12.735247,46.836565,686.69 12.734782,46.836621,687.34 12.734489,46.836661,687.75 12.734029,46.836756,688.25 12.733467,46.836896,689.75 12.729999,46.837904,697.7 12.729345,46.838084,698.54 12.728443,46.838356,699.28 12.72838,46.838375,699.31 12.726838,46.838856,699.7 12.726355,46.839028,699.35 12.725821,46.839259,698.95 12.72549,46.839399,698.7 12.725367,46.839461,698.6 12.725189,46.839546,698.46 12.724157,46.840109,696.77 12.72396,46.840225,696.44 12.723766,46.840349,696.1 12.723409,46.840589,695.35 12.722964,46.840888,694.41 12.722457,46.841226,693.78 12.721773,46.841669,693.18 12.721187,46.842027,692.68 12.72058,46.842369,692.18 12.719657,46.842872,691.93 12.718442,46.843456,691.62 12.717196,46.844067,691.3 12.716627,46.844415,691.16 12.715878,46.844899,691.05 12.71522,46.845412,690.94 12.713479,46.846961,691 12.712987,46.847375,691.14 12.7125,46.847745,691.27 12.711852,46.848155,691.45 12.711283,46.848509,691.75 12.710332,46.849017,692.2 12.709234,46.849652,692.75 12.708666,46.85003,693.16 12.707994,46.850526,693.68 12.707833,46.850652,693.81 12.707635,46.850823,693.98 12.707009,46.85141,694.65 12.706473,46.851994,695.34 12.70632,46.852166,695.53 12.706177,46.852328,695.72 12.704988,46.853641,697.37 12.70454,46.854131,697.87 12.704036,46.854596,698.37 12.703594,46.854987,698.76 12.702978,46.85541,699.22 12.702469,46.855748,699.52 12.701786,46.856133,699.9 12.701301,46.856403,700.19 12.700678,46.856713,700.56 12.698981,46.857478,701.63 12.698128,46.857829,702.52 12.697402,46.858107,703.26 12.695856,46.85863,704.82 12.694503,46.859055,706.16 12.693782,46.859314,706.77 12.693008,46.859611,707.23 12.692168,46.86,707.83 12.691764,46.860204,707.96 12.69138,46.860433,708.07 12.690914,46.860742,708.21 12.690481,46.861069,708.41 12.68999,46.861523,708.65 12.689225,46.862355,709.31 12.688548,46.863291,710.17 12.688448,46.863462,710.34 12.687817,46.86454,711.43 12.687443,46.865226,711.91 12.687083,46.86583,712.33 12.686841,46.86623,712.56 12.686719,46.866417,712.6 12.685884,46.867643,712.86 12.684913,46.868884,713.35 12.684362,46.869511,713.77 12.684161,46.869735,714.07 12.683579,46.870318,714.87 12.682814,46.870987,715.86 12.68157,46.871865,717.43 12.68109,46.872164,718 12.680506,46.872518,718.66 12.680077,46.872772,719.14 12.680007,46.872817,719.23 12.679747,46.872974,719.52 12.678441,46.873738,720.51 12.676564,46.874847,721.25 12.676355,46.87497,721.28 12.675458,46.8755,721.43 12.673656,46.876565,722.08 12.673094,46.876884,722.3 12.669929,46.878682,723.88 12.668983,46.879174,724.55 12.665566,46.880848,728.31 12.664582,46.881338,728.99 12.663663,46.881871,729.68 12.661468,46.883279,730.51 12.659782,46.884307,731.13 12.658801,46.884841,731.45 12.658574,46.884964,731.56 12.655993,46.886201,732.96 12.655072,46.88668,733.63 12.654098,46.887261,734.33 12.653489,46.887657,734.76 12.653133,46.887941,735.04 12.652327,46.888586,736.03 12.651592,46.889293,737.23 12.650874,46.890146,739.3 12.650416,46.890773,741.08 12.649966,46.891575,742.83 12.649031,46.893788,744.97 12.64864,46.894394,745.11 12.648383,46.894684,745.12 12.648118,46.894955,744.97 12.647692,46.895322,744.74 12.647374,46.895543,744.59 12.646657,46.896043,744.29 12.646475,46.896162,744.29 12.645451,46.896751,744.29 12.644314,46.897283,744.72 12.637999,46.899714,751.5 12.637121,46.90009,752.18 12.636535,46.900373,752.6 12.636127,46.900587,752.9 12.634578,46.901581,752.74 12.634091,46.901904,752.54 12.633226,46.902489,752.22 12.631627,46.903416,751.85 12.630592,46.903954,752.1 12.630134,46.904194,752.19 12.629664,46.904423,752.33 12.629627,46.904369,752.3 12.629145,46.903869,749.4 12.628916,46.903668,749.4 12.628693,46.903571,749.4 12.627978,46.903284,749.4 12.627691,46.90318,750.25 12.62754,46.903133,750.69 12.627361,46.903152,750.52 12.627195,46.903177,750.36 12.626907,46.903301,749.88 12.626441,46.903563,749.87 12.625806,46.903934,750.55 12.625557,46.904046,750.79 12.625076,46.904267,751.26 12.624508,46.904496,751.8 12.624054,46.904702,752.08 12.623632,46.904967,752.31 12.62323,46.905246,752.54 12.622863,46.905491,752.75 12.622077,46.90599,753.95 12.621246,46.906443,755.14 12.62065,46.906781,757.54 12.619696,46.907282,760.9 12.619163,46.907545,762.03 12.618794,46.907728,762.82 12.617724,46.908254,761.38 12.617183,46.908519,761.55 12.616797,46.908728,761.66 12.616498,46.908916,761.74 12.616141,46.909141,761.85 12.614546,46.910212,762.32 12.61419,46.910464,762.45 12.613493,46.910864,762.67 12.613102,46.911057,762.79 12.611938,46.911593,763.88 12.610943,46.912087,764.71 12.610276,46.912459,765.56 12.609776,46.912758,766.07 12.609243,46.913103,766.63 12.608613,46.913554,767.54 12.608256,46.913839,768.09 12.607665,46.914324,769.02 12.606162,46.915739,770.93 12.604775,46.917038,772.36 12.60377,46.91798,773.33 12.602854,46.918828,773.66 12.60243,46.919182,773.8 12.602161,46.91941,774.08 12.601945,46.919592,774.3 12.601657,46.919858,774.62 12.601434,46.920022,774.83 12.60125,46.920132,775.23 12.600454,46.920596,778.11 12.599739,46.920996,778.95 12.599472,46.921125,779.25 12.599191,46.921235,779.55 12.598233,46.921452,781.04 12.59766,46.921615,781.95 12.596864,46.921915,782.91 12.59627,46.922183,783.75 12.595861,46.922357,784.31 12.595467,46.922498,784.82 12.594956,46.922646,785.15 12.593985,46.922901,785.78 12.593395,46.923049,786.36 12.592999,46.923179,786.82 12.592693,46.923322,787.21 12.592327,46.923541,787.54 12.591706,46.92388,788.08 12.591284,46.924094,788.44 12.591032,46.924214,788.65 12.589846,46.924668,790.06 12.58918,46.924946,790.87 12.589024,46.924995,791.05 12.58868,46.925055,791.52 12.588484,46.92507,791.62 12.58774,46.925071,792 12.587151,46.925109,792.56 12.58687,46.925107,792.82 12.586434,46.925096,793.23 12.586214,46.925107,793.44 12.585958,46.925171,793.91 12.585586,46.925287,795.36 12.585395,46.925334,795.36 12.585122,46.925405,795.36 12.584971,46.925421,795.36 12.584839,46.92544,795.36 12.584652,46.925499,795.36 12.58403,46.925773,796.8 12.583899,46.925847,796.85 12.583739,46.925967,796.93 12.58362,46.926099,797 12.583559,46.926184,797.05 12.583522,46.92625,797.08 12.583361,46.926627,797.27 12.583288,46.926762,797.45 12.583178,46.926862,797.58 12.583055,46.926928,797.69 12.582587,46.927058,798.04 12.582375,46.927174,798.23 12.582049,46.927393,798.53 12.581854,46.927528,798.71 12.581448,46.927796,799.52 12.580959,46.92808,800.45 12.580823,46.928152,800.7 12.580577,46.928242,801.1 12.579696,46.928467,804.47 12.579051,46.928686,805.58 12.578882,46.928753,805.81 12.578238,46.929057,806.86 12.57747,46.929414,806.86 12.57681,46.929722,806.86 12.575804,46.930201,807.64 12.575595,46.930314,807.81 12.575466,46.930425,807.81 12.575341,46.930617,808.23 12.575278,46.930726,808.56 12.575229,46.930848,808.92 12.575171,46.931063,809.55 12.575132,46.931298,810.22 12.575103,46.931708,810.69 12.575033,46.931944,811.16 12.574922,46.932188,811.66 12.574711,46.932577,812.47 12.574547,46.932878,813.09 12.574394,46.933098,813.57 12.573943,46.933505,814.17 12.573818,46.933655,814.36 12.573722,46.933784,814.52 12.573614,46.933969,815.05 12.573443,46.934359,816.13 12.573392,46.93454,816.63 12.573372,46.934653,816.93 12.573278,46.935355,817.4 12.573253,46.935614,817.82 12.573235,46.935794,818.12 12.573219,46.93594,818.36 12.573204,46.936199,818.2 12.573162,46.936994,818.88 12.573022,46.936936,819.68 12.57282,46.936786,821.12 12.572664,46.93665,822.45 12.572574,46.93656,823.29 12.572438,46.936459,824.34 12.572196,46.93637,825.87 12.572036,46.936316,826.85 12.571816,46.936229,828.26 12.571563,46.93604,830.4 12.571553,46.936024,830.55 12.571425,46.935792,832.63 12.57143,46.935527,834.85 12.571637,46.935136,837.99 12.571897,46.934802,840.85 12.572631,46.934134,846.33 12.572963,46.933724,849.44 12.573134,46.933382,851.82 12.573333,46.93289,856.97 12.573394,46.932553,859.53 12.573412,46.931977,864.98 12.573388,46.931573,868.8 12.573416,46.931221,872.14 12.573536,46.930997,874.4 12.573658,46.930796,876.48 12.574,46.930457,880.36 12.574142,46.930202,882.94 12.574154,46.930036,884.44 12.574151,46.929808,886.51 12.574077,46.929512,888.25 12.574051,46.929248,889.78 12.57409,46.929098,890.66 12.574214,46.928701,893.01 12.574256,46.928454,894.44 12.574232,46.928311,895.2 12.57412,46.927983,896.97 12.574092,46.927745,897.73 12.57411,46.927524,898.43 12.574076,46.927342,899.01 12.573967,46.927216,899.47 12.573535,46.927037,900.57 12.572897,46.926777,902.18 12.572526,46.926554,904.67 12.572358,46.926295,907 12.572281,46.92608,908.82 12.572207,46.925938,910.06 12.572085,46.925814,911.3 12.571426,46.925452,916.07 12.571098,46.925342,918.38 12.570761,46.925268,920.63 12.570461,46.925204,922.33 12.570007,46.9252,925.68 12.569545,46.92525,928.78 12.569169,46.925291,931.3 12.56882,46.925291,933.61 12.56866,46.925258,934.48 12.568436,46.925181,935.78 12.568262,46.925051,936.89 12.568127,46.924808,938.51 12.568023,46.924613,939.79 12.567859,46.924469,940.91 12.567726,46.924393,941.65 12.567473,46.924297,942.88 12.566996,46.92423,944.96 12.566471,46.924239,946.5 12.566113,46.924222,947.55 12.565763,46.924183,948.41 12.565472,46.924122,949.15 12.56513,46.924067,950.01 12.564776,46.924033,950.88 12.564409,46.924022,951.78 12.563637,46.924041,952.34 12.563063,46.924052,952.27 12.562617,46.924087,952.22 12.562175,46.924144,952.24 12.561753,46.924223,952.26 12.561355,46.924288,952.28 12.561126,46.924325,952.47 12.560799,46.924335,952.74 12.560476,46.924342,953.01 12.559967,46.924356,953.44 12.559566,46.924407,953.77 12.559287,46.924459,954.01 12.559005,46.924467,954.25 12.558732,46.924451,955.33 12.558494,46.924386,956.34 12.557816,46.924133,959.75 12.55757,46.92407,960.91 12.557348,46.924059,961.89 12.557233,46.924053,962.4 12.556853,46.924096,964.1 12.556283,46.924278,966.8 12.555742,46.924413,969.27 12.5555,46.924428,970.3 12.555159,46.924386,971.77 12.554928,46.924332,972.8 12.554546,46.924195,974.63 12.554316,46.924142,975.55 12.553985,46.924092,976.85 12.553563,46.924058,978.47 12.553154,46.924047,979.81 12.552748,46.924024,981.15 12.552497,46.923955,982.03 12.552289,46.923867,983.14 12.552103,46.923806,983.51 12.551949,46.923775,984.04 12.551702,46.923765,984.84 12.551016,46.92383,986.47 12.550658,46.923894,987.12 12.550142,46.923913,988.04 12.549726,46.923912,988.76 12.549086,46.923844,989.89 12.548796,46.923807,990.5 12.548588,46.923741,990.75 12.548317,46.923645,991.19 12.547859,46.923351,992.1 12.547501,46.92317,992.99 12.54716,46.92304,993.5 12.546336,46.92285,994.07 12.545743,46.922764,994.47 12.545419,46.922726,994.57 12.544961,46.922723,994.71 12.544502,46.922777,994.85 12.544165,46.922874,994.95 12.54382,46.923034,995.64 12.543537,46.923148,995.8 12.543126,46.923221,996.9 12.542766,46.923247,997.6 12.542006,46.923222,999.05 12.541643,46.92326,999.76 12.54122,46.923324,1001.51 12.540631,46.923502,1004.1 12.540233,46.923672,1006.17 12.539864,46.923786,1007.96 12.539513,46.923836,1009.53 12.539076,46.92384,1011.46 12.538497,46.923804,1013.82 12.537897,46.923731,1016.51 12.537598,46.92369,1017.54 12.53705,46.923563,1019.88 12.536028,46.923209,1024.38 12.535438,46.923055,1026.77 12.534902,46.92297,1028.85 12.534267,46.922994,1031.25 12.533798,46.923091,1033.09 12.532975,46.923315,1036.43 12.53269,46.923324,1037.5 12.532415,46.923316,1038.54 12.53207,46.923261,1039.87 12.531493,46.92314,1042.14 12.531164,46.923085,1043.39 12.530826,46.923067,1044.65 12.530445,46.92309,1046.07 12.53,46.923152,1047.76 12.529314,46.923276,1050.46 12.528708,46.923386,1052.84 12.528281,46.92344,1054.49 12.52799,46.923438,1055.63 12.527749,46.923419,1056.64 12.527497,46.923376,1057.61 12.52688,46.923169,1060.34 12.526497,46.92294,1062.35 12.526226,46.922746,1064.06 12.525972,46.922541,1065.77 12.525812,46.92241,1066.87 12.525339,46.922145,1069.55 12.52498,46.921957,1071.52 12.524879,46.921899,1072.1 12.524529,46.921719,1074.01 12.524171,46.921568,1075.67 12.523719,46.921429,1077.62 12.523206,46.921305,1079.76 12.522372,46.921251,1083.06 12.521535,46.921201,1085.41 12.521309,46.921188,1085.86 12.521,46.921194,1086.66 12.520569,46.921212,1087.19 12.519748,46.921266,1089.16 12.519608,46.921276,1089.45 12.519086,46.921309,1090.03 12.517971,46.921369,1090.7 12.517526,46.921336,1090.96 12.517011,46.921251,1091.28 12.515773,46.920952,1092.11 12.514649,46.920603,1092.89 12.514642,46.920601,1092.89 12.514407,46.920503,1093.1 12.514186,46.920367,1093.33 12.513909,46.920096,1093.75 12.513721,46.91998,1093.97 12.5134,46.919822,1094.31 12.513296,46.919773,1094.42 12.513013,46.919658,1094.71 12.512696,46.919579,1095 12.512332,46.919508,1095.33 12.511984,46.919396,1096.01 12.511899,46.919363,1096.19 12.511691,46.919276,1096.65 12.51143,46.919162,1097.22 12.51106,46.919,1098.03 12.510667,46.918835,1098.89 12.510421,46.918741,1099.41 12.51031,46.918707,1099.63 12.510298,46.918704,1099.66 12.510208,46.918676,1099.84 12.510087,46.918635,1099.86 12.50991,46.918603,1100.45 12.509694,46.918577,1100.91 12.509442,46.918592,1101.44 12.509108,46.918663,1102.18 12.50887,46.918724,1102.71 12.508528,46.918758,1103.44 12.508117,46.918743,1104.16 12.506719,46.918596,1106.62 12.505694,46.918507,1108.43 12.504982,46.918488,1109.67 12.504399,46.918508,1109.85 12.503923,46.918584,1109.73 12.503559,46.918676,1109.63 12.502341,46.918983,1109.3 12.501667,46.919147,1108.93 12.50127,46.919197,1108.72 12.500932,46.919212,1108.54 12.500398,46.919159,1108.25 12.499867,46.919059,1108.02 12.499378,46.918994,1107.8 12.498959,46.918968,1107.72 12.498568,46.918962,1107.64 12.498204,46.91892,1107.57 12.497714,46.918884,1107.61 12.497169,46.918786,1107.65 12.496551,46.918684,1107.7 12.496176,46.918655,1107.93 12.495791,46.918647,1108.17 12.495562,46.918636,1108.3 12.495099,46.918633,1108.59 12.494784,46.918639,1108.83 12.494332,46.918661,1109.2 12.492652,46.919012,1111.23 12.490932,46.919378,1113.27 12.490396,46.919506,1113.96 12.489559,46.919672,1114.9 12.488599,46.919831,1116.6 12.488196,46.919886,1116.84 12.487657,46.919938,1117.86 12.486717,46.919992,1119.61 12.486015,46.920021,1121.26 12.485294,46.920011,1122.94 12.484931,46.920013,1123.74 12.484163,46.920022,1125.39 12.48376,46.920044,1126.25 12.48348,46.920073,1126.86 12.483179,46.920138,1127.53 12.482166,46.92046,1129.73 12.480965,46.920898,1132.02 12.478289,46.921874,1136.94 12.477346,46.922259,1138.83 12.476775,46.922589,1140.38 12.476599,46.92271,1140.93 12.476289,46.923041,1142.21 12.476009,46.923297,1143.25 12.475645,46.923569,1144.45 12.475132,46.92385,1145.96 12.474079,46.924214,1148.92 12.472956,46.924583,1152.04 12.472003,46.924893,1154.69 12.471155,46.925176,1157.33 12.470586,46.925346,1159.18 12.470104,46.925463,1160.71 12.469613,46.925555,1162.22 12.467468,46.925968,1169.34 12.466982,46.926096,1171.13 12.466674,46.926217,1172.36 12.466197,46.92638,1174.19 12.465915,46.926454,1175.24 12.465348,46.926546,1177.93 12.46479,46.926574,1180.72 12.464085,46.926518,1184.27 12.46389,46.926493,1185.26 12.463339,46.926444,1188.03 12.46276,46.926474,1191.16 12.462271,46.926498,1193.87 12.461649,46.926553,1197.34 12.461288,46.926533,1199.34 12.460992,46.926496,1201 12.460144,46.926301,1206.31 12.459436,46.926133,1211.05 12.459104,46.926113,1213.15 12.458723,46.92612,1215.56 12.458262,46.926196,1218.6 12.457473,46.926331,1223.8 12.456602,46.926339,1229.46 12.456232,46.92633,1231.86 12.456145,46.926322,1232.43 12.455973,46.926308,1233.55 12.455812,46.926284,1234.62 12.455528,46.926156,1236.83 12.454451,46.925435,1243.47 12.45426,46.925362,1244.41 12.453994,46.925342,1245.57 12.4537,46.925343,1246.83 12.45342,46.925347,1247.82 12.453123,46.925384,1248.89 12.451835,46.925788,1251.4 12.451334,46.925864,1252.32 12.450872,46.925894,1252.96 12.449813,46.925886,1253.13 12.449345,46.925872,1253.09 12.448635,46.92579,1253.01 12.448205,46.925674,1252.35 12.447547,46.925439,1251.31 12.446984,46.9253,1250.47 12.445657,46.925072,1247.86 12.444695,46.924935,1245.09 12.44374,46.924829,1241.9 12.443361,46.924785,1241.24 12.442799,46.924694,1240.64 12.442302,46.924631,1240.11 12.441778,46.924606,1239.76 12.441063,46.924591,1239.3 12.440584,46.924537,1238.98 12.440122,46.92444,1239.08 12.439737,46.924322,1239.16 12.439045,46.923949,1239.38 12.438697,46.923655,1239.51 12.437974,46.922863,1240.12 12.437601,46.92256,1240.41 12.437021,46.922197,1240.81 12.436542,46.921981,1241.24 12.436422,46.921927,1241.38 12.435728,46.921706,1242.08 12.435152,46.921579,1242.64 12.434619,46.921517,1243.13 12.433967,46.9215,1243.75 12.433466,46.921519,1244.23 12.433051,46.921579,1244.63 12.432538,46.921695,1245.14 12.432038,46.921777,1245.64 12.431463,46.921802,1246.23 12.430622,46.921792,1247.13 12.429996,46.921764,1247.81 12.429363,46.9217,1248.5 12.429025,46.921638,1248.85 12.427169,46.921179,1250.65 12.425844,46.92092,1251.65 12.424834,46.92076,1252.4 12.424381,46.920638,1252.74 12.424174,46.920586,1252.9 12.423942,46.920522,1253.06 12.423769,46.920509,1253.18 12.423506,46.920508,1253.29 12.423185,46.920474,1253.44 12.422797,46.920431,1253.65 12.422325,46.920299,1253.93 12.42211,46.920258,1254.05 12.421763,46.92024,1254.24 12.420487,46.920315,1255.15 12.419652,46.920376,1255.75 12.418925,46.9204,1256.27 12.41843,46.920392,1256.58 12.41801,46.920349,1256.84 12.417521,46.920317,1257.15 12.417024,46.920317,1257.48 12.416393,46.920334,1257.91 12.415774,46.920311,1258.33 12.415408,46.920239,1258.64 12.414911,46.920055,1259.1 12.413857,46.919683,1260.11 12.412899,46.919372,1261.02 12.412215,46.919169,1261.7 12.411165,46.918887,1262.65 12.410828,46.918796,1262.91 12.409616,46.91843,1263.85 12.409366,46.918347,1264.05 12.40919,46.918241,1264.22 12.408827,46.918003,1264.59 12.408363,46.917651,1265.1 12.408158,46.917516,1265.31 12.407935,46.917434,1265.5 12.407547,46.917346,1265.82 12.406494,46.917205,1266.64 12.406063,46.917176,1266.99 12.405609,46.917209,1267.36 12.405223,46.917307,1267.69 12.404477,46.917759,1268.49 12.404065,46.917909,1268.94 12.403857,46.917958,1269.16 12.403585,46.918019,1269.36 12.402807,46.918135,1270.21 12.402441,46.918152,1270.56 12.402205,46.918143,1270.78 12.40194,46.918142,1271.05 12.401734,46.918097,1271.2 12.401224,46.917975,1271.65 12.40018,46.917693,1272.6 12.398758,46.917406,1274.02 12.398465,46.917355,1274.33 12.397795,46.917261,1275.11 12.396616,46.917144,1276.46 12.395062,46.917101,1278.79 12.394696,46.917114,1279.14 12.393638,46.917139,1281.26 12.392931,46.917096,1282.44 12.39251,46.91703,1283.16 12.392271,46.916989,1283.39 12.391285,46.916747,1285.56 12.389402,46.9161,1289.47 12.388737,46.915943,1290.47 12.388018,46.915826,1291.51 12.387285,46.915775,1292.52 12.386496,46.91569,1293.61 12.385941,46.915613,1294.31 12.385404,46.915516,1294.99 12.385094,46.915441,1295.39 12.384791,46.915358,1295.87 12.384253,46.91525,1296.69 12.383755,46.915171,1297.44 12.382702,46.91505,1299.35 12.381955,46.914997,1300.7 12.381777,46.914983,1301.02 12.380927,46.914865,1302.81 12.379563,46.914572,1305.79 12.378966,46.91449,1307.15 12.378394,46.914521,1308.58 12.377885,46.914622,1309.91 12.377434,46.914805,1311.22 12.376971,46.915121,1312.85 12.376651,46.915341,1313.94 12.376425,46.915435,1314.6 12.376125,46.915505,1315.4 12.375709,46.915599,1316.5 12.375107,46.915728,1318.09 12.374719,46.915823,1319.12 12.374232,46.916025,1320.6 12.373883,46.916167,1321.65 12.373469,46.916258,1322.79 12.372841,46.916251,1324.44 12.371823,46.915942,1327.76 12.371721,46.915911,1328.23 12.371497,46.915856,1329.22 12.370844,46.915737,1332.02 12.370332,46.915736,1334.15 12.36972,46.91583,1336.88 12.369018,46.915949,1340.02 12.368537,46.916031,1342.18 12.368171,46.916099,1343.82 12.367738,46.916111,1345.69 12.367231,46.916122,1347.94 12.366561,46.916066,1350.39 12.366232,46.916032,1351.6 12.365861,46.916025,1352.95 12.365321,46.916037,1354.78 12.365003,46.916071,1355.87 12.364506,46.916083,1357.56 12.364015,46.916017,1358.97 12.363492,46.915839,1360.37 12.363234,46.915726,1361.1 12.362944,46.91567,1361.81 12.362547,46.915647,1362.77 12.362019,46.915713,1363.77 12.360538,46.916049,1366.67 12.359838,46.916191,1368.03 12.359185,46.916286,1369.26 12.358874,46.916356,1369.87 12.358535,46.916444,1370.33 12.358033,46.916627,1371.05 12.357535,46.916806,1371.75 12.357177,46.916875,1372.22 12.356264,46.916945,1372.96 12.355271,46.91699,1373.76 12.355059,46.916972,1373.91 12.354861,46.91691,1374.06 12.354351,46.91665,1374.51 12.354074,46.916492,1374.65 12.353889,46.916419,1374.73 12.353706,46.916379,1374.8 12.353398,46.916371,1374.92 12.352946,46.91643,1375.1 12.352548,46.916453,1375.25 12.352187,46.916394,1375.39 12.351923,46.916333,1375.49 12.35099,46.916111,1375.72 12.350216,46.915938,1375.91 12.349544,46.915782,1376.07 12.348686,46.915698,1376.31 12.348268,46.915702,1376.42 12.347884,46.91579,1376.53 12.347643,46.915881,1376.61 12.347436,46.915991,1376.68 12.347411,46.916005,1376.69 12.347072,46.91623,1376.82 12.346595,46.91643,1377 12.346108,46.916557,1377.2 12.345643,46.916598,1377.33 12.345018,46.916617,1377.55 12.34414,46.91655,1377.86 12.342957,46.916348,1378.34 12.342048,46.916184,1378.7 12.341532,46.916109,1378.91 12.340199,46.91597,1379.5 12.339283,46.915874,1379.9 12.336333,46.91541,1380.99 12.335924,46.915346,1381.3 12.335252,46.915235,1381.8 12.334734,46.915194,1382.17 12.334438,46.915214,1382.39 12.334108,46.915289,1382.69 12.333972,46.915331,1382.93 12.333444,46.915508,1383.91 12.332885,46.915696,1384.94 12.332782,46.915727,1385.12 12.332281,46.915871,1386.14 12.332161,46.915905,1386.23 12.331941,46.915959,1386.62 12.331725,46.91602,1386.99 12.331573,46.916066,1387.2 12.331193,46.916183,1387.7 12.331039,46.916239,1387.99 12.33085,46.916329,1388.23 12.33068,46.916521,1388.63 12.330537,46.916678,1389.03 12.330386,46.916759,1389.26 12.330261,46.916823,1389.43 12.330102,46.916857,1389.64 12.329911,46.916865,1389.87 12.329287,46.916838,1390.39 12.328839,46.91682,1390.62 12.328141,46.916807,1390.99 12.32774,46.916794,1391.2 12.327398,46.916686,1391.39 12.327317,46.916638,1391.45 12.327095,46.916486,1391.6 12.326644,46.91619,1391.82 12.326342,46.916028,1391.95 12.326095,46.915924,1392.05 12.32596,46.915872,1392.1 12.325743,46.915816,1392.18 12.325363,46.915753,1392.32 12.325192,46.915711,1392.38 12.324883,46.915621,1392.57 12.324718,46.915538,1392.69 12.324502,46.915359,1393 12.324488,46.915346,1393.02 12.324222,46.91512,1393.41 12.324161,46.915082,1393.48 12.324031,46.915033,1393.62 12.323283,46.914845,1394.34 12.323066,46.914791,1394.55 12.322342,46.9146,1395.72 12.32186,46.914425,1396.88 12.321668,46.914347,1397.35 12.321371,46.914308,1398.1 12.321024,46.914302,1398.85 12.320735,46.914299,1399.62 12.320552,46.914295,1399.88 12.319894,46.914302,1401.29 12.319681,46.914296,1401.45 12.319196,46.91428,1402.22 12.318798,46.914251,1402.84 12.318443,46.914209,1403.41 12.31814,46.914153,1403.9 12.317835,46.914093,1404.28 12.317412,46.913968,1404.82 12.317112,46.913847,1405.23 12.316844,46.913778,1405.57 12.316715,46.913761,1405.69 12.316488,46.913777,1405.9 12.31616,46.913835,1406.22 12.315664,46.913882,1406.68 12.315428,46.913902,1406.91 12.315257,46.913904,1407.07 12.315087,46.913882,1407.27 12.31464,46.913772,1407.95 12.314093,46.913632,1408.57 12.313325,46.913381,1409.5 12.312362,46.913053,1410.67 12.312075,46.912978,1410.87 12.311821,46.912953,1411.03 12.311546,46.912962,1411.21 12.311283,46.913007,1411.38 12.310103,46.913436,1412.26 12.309972,46.913453,1412.35 12.30976,46.913459,1412.49 12.30945,46.913437,1412.71 12.309171,46.913397,1412.91 12.308646,46.91331,1413.29 12.308291,46.913236,1413.54 12.308017,46.913172,1413.74 12.307691,46.913068,1413.99 12.307124,46.912775,1414.45 12.306737,46.912489,1414.82 12.306493,46.91232,1415.04 12.306165,46.912198,1415.28 12.306023,46.912158,1415.38 12.305748,46.912142,1415.55 12.304962,46.912231,1416.14 12.304584,46.912315,1416.44 12.304016,46.912463,1416.91 12.303824,46.912502,1417.06 12.303535,46.912548,1417.29 12.303146,46.91257,1417.69 12.302532,46.912577,1418.32 12.302145,46.912587,1418.82 12.301764,46.912606,1419.31 12.301482,46.912625,1419.79 12.301111,46.912682,1420.43 12.300715,46.91275,1421.11 12.300275,46.912819,1421.87 12.300124,46.912839,1422 12.299851,46.912862,1422.82 12.299654,46.912879,1423.41 12.299486,46.912868,1423.91 12.299147,46.912827,1424.93 12.29892,46.912795,1425.62 12.298806,46.912794,1426.07 12.298733,46.912807,1426.18 12.298512,46.912942,1427.06 12.298426,46.913018,1427.48 12.298155,46.913208,1428.63 12.298022,46.913249,1429.17 12.297871,46.913266,1429.73 12.297669,46.913263,1430.46 12.297455,46.913233,1431.3 12.297277,46.91318,1432.05 12.297136,46.913148,1432.63 12.296983,46.913121,1433.24 12.29675,46.913122,1434.14 12.296663,46.913115,1434.47 12.296508,46.913095,1435.08 12.29635,46.91307,1435.71 12.296154,46.913003,1436.55 12.295998,46.912965,1437.19 12.295849,46.912963,1437.78 12.295648,46.912961,1438.57 12.295562,46.91296,1438.9 12.295435,46.912945,1439.41 12.29526,46.912889,1440.25 12.295105,46.912787,1441.18 12.29491,46.91268,1442.26 12.294613,46.912592,1443.67 12.294453,46.912574,1444.38 12.294253,46.91258,1445.25 12.293959,46.912636,1446.73 12.293698,46.912691,1447.76 12.293489,46.912697,1448.54 12.293259,46.912687,1449.94 12.292815,46.912602,1452.42 12.292597,46.912549,1454.15 12.292346,46.912478,1456.2 12.29197,46.912321,1459.52 12.291627,46.912202,1462.42 12.291472,46.912183,1463.6 12.291318,46.912174,1464.76 12.291087,46.912187,1466.49 12.290797,46.912267,1468.82 12.290466,46.912476,1472.13 12.290225,46.912632,1474.57 12.289915,46.912795,1477.27 12.289645,46.91292,1479.67 12.289452,46.913039,1481.56 12.289304,46.913134,1483.07 12.289159,46.913331,1485.43 12.288976,46.913488,1487.59 12.288808,46.913587,1488.97 12.288557,46.913687,1490.41 12.288143,46.913805,1492.51 12.287716,46.91392,1494.4 12.287245,46.914038,1496.46 12.286821,46.914115,1498.31 12.286342,46.914192,1500.38 12.286099,46.914235,1501.28 12.285694,46.914314,1502.79 12.285289,46.914409,1504.29 12.284942,46.914518,1505.64 12.284398,46.914741,1507.87 12.283928,46.914952,1509.86 12.283375,46.915259,1512 12.282876,46.915535,1514.03 12.28251,46.915718,1515.29 12.282215,46.915855,1516.37 12.281923,46.915956,1517.14 12.281335,46.91615,1518.29 12.280678,46.91634,1518.93 12.28005,46.916481,1519.52 12.279273,46.91663,1520.26 12.278873,46.916685,1520.94 12.278263,46.916715,1521.96 12.277738,46.916741,1522.83 12.277375,46.916777,1523.44 12.276813,46.916894,1524.87 12.276601,46.916932,1525.4 12.276168,46.916984,1526.22 12.275394,46.917031,1529.25 12.273884,46.9171,1534.47 12.272944,46.917126,1535.82 12.272497,46.917139,1536.46 12.272158,46.917137,1536.95 12.271826,46.917125,1537.42 12.2714,46.917118,1537.96 12.271119,46.917146,1538.02 12.270926,46.917171,1538.06 12.270373,46.917276,1538.18 12.269758,46.91741,1538.3 12.269318,46.917502,1538.41 12.269033,46.917538,1538.47 12.268693,46.917552,1538.55 12.268074,46.917571,1538.81 12.267536,46.917574,1539.03 12.2669,46.917576,1539.3 12.266207,46.917574,1539.89 12.26562,46.917551,1540.39 12.265348,46.91753,1540.59 12.265093,46.9175,1540.74 12.264837,46.917468,1541.12 12.26461,46.917421,1541.47 12.264423,46.917377,1541.68 12.264141,46.917275,1542.01 12.263885,46.917224,1542.29 12.263531,46.917198,1542.93 12.262695,46.917122,1544.46 12.261639,46.917006,1546.4 12.261443,46.916981,1546.77 12.260997,46.916912,1547.54 12.260786,46.916898,1547.9 12.260616,46.91691,1548.15 12.260497,46.916917,1548.36 12.260409,46.916916,1548.46 12.260152,46.916903,1548.84 12.259984,46.916889,1549.09 12.259526,46.916827,1549.78 12.259199,46.916791,1550.27 12.259044,46.916778,1550.5 12.258816,46.916794,1550.84 12.258513,46.916844,1551.54 12.258296,46.916861,1552.03 12.257726,46.916865,1554 12.257376,46.916843,1555.22 12.257092,46.916809,1556.17 12.256897,46.916744,1556.98 12.256672,46.916644,1557.98 12.25643,46.916456,1559.12 12.256281,46.916319,1559.99 12.256251,46.916275,1560.24 12.256157,46.916136,1561.76 12.256054,46.916008,1563.21 12.255956,46.915906,1564.54 12.255795,46.915809,1566.13 12.254941,46.915534,1573.2 12.254732,46.915419,1575.21 12.25463,46.915301,1576.69 12.254594,46.915201,1577.81 12.25459,46.915111,1578.8 12.254609,46.915016,1579.84 12.254835,46.91475,1583.43 12.255327,46.91442,1588.97 12.255787,46.914196,1593.51 12.25625,46.914031,1597.67 12.256581,46.913976,1600.39 12.257039,46.913962,1603.37 12.257227,46.913966,1604.59 12.257401,46.913918,1605.75 12.257466,46.913835,1606.59 12.257434,46.913752,1607.37 12.257243,46.913675,1608.73 12.257041,46.913672,1609.96 12.256715,46.913731,1612.03 12.256334,46.913782,1614.4 12.255906,46.913804,1616.86 12.255426,46.91383,1619.61 12.255035,46.913886,1621.68 12.254432,46.913981,1624.87 12.253433,46.914065,1630.07 12.253156,46.914114,1631.46 12.252791,46.914244,1633.11 12.25253,46.914403,1634.99 12.252313,46.914528,1636.63 12.251967,46.914604,1638.11 12.251477,46.914665,1640.44 12.251021,46.914695,1642.58 12.250435,46.914737,1646.29 12.250115,46.914795,1648.64 12.249865,46.914906,1650.76 12.249594,46.915003,1652.93 12.249307,46.915014,1654.99 12.248942,46.915,1657.6 12.247893,46.91493,1665.74 12.2473,46.91489,1669.81 12.246882,46.914886,1673.44 12.246382,46.914896,1677.61 12.246254,46.914853,1678.75 12.246214,46.914812,1679.31 12.246199,46.914723,1680.34 12.246238,46.914669,1681.03 12.246315,46.914621,1681.85 12.246462,46.914614,1682.94 12.246968,46.914618,1686.7 12.247305,46.914575,1689.14 12.247618,46.914485,1691.4 12.247903,46.914408,1693.64 12.248111,46.914379,1695.02 12.248299,46.91437,1696.69 12.248401,46.91434,1697.38 12.24844,46.914303,1697.8 12.248505,46.914172,1699.04 12.248678,46.913849,1702.59 12.248857,46.913676,1704.78 12.249025,46.913562,1706.44 12.249446,46.913375,1709.96 12.249566,46.913323,1710.96 12.249779,46.913205,1712.88 12.249836,46.913175,1713.38 12.250052,46.913141,1714.93 12.250166,46.913122,1715.75 12.250285,46.913086,1716.65 12.250386,46.913056,1717.41 12.250555,46.912966,1718.89 12.250754,46.912814,1720.96 12.250891,46.912736,1722.03 12.251054,46.912696,1723.07 12.251462,46.912636,1725.6 12.251929,46.912617,1728.44 12.252511,46.912563,1732.01 12.252717,46.912517,1733.33 12.252876,46.912465,1734.4 12.253027,46.91237,1735.65 12.253132,46.912211,1737.21 12.253136,46.912093,1738.29 12.25305,46.912007,1739.25 12.252905,46.911997,1740.17 12.252757,46.912038,1741.16 12.25264,46.912097,1742.06 12.252515,46.912163,1743.05 12.25235,46.912225,1744.19 12.252166,46.912219,1745.3 12.251922,46.91219,1746.85 12.251528,46.912084,1749.49 12.251007,46.91195,1752.97 12.250685,46.911899,1755.22 12.250341,46.911881,1757.57 12.249983,46.911894,1760.04 12.249531,46.91198,1763.27 12.24915,46.912113,1766.2 12.248923,46.912193,1767.91 12.248743,46.912194,1769.11 12.248574,46.912184,1770.22 12.248309,46.912116,1772.09 12.248076,46.91207,1773.68 12.247645,46.912026,1776.41 12.247334,46.912041,1778.37 12.247135,46.91209,1779.7 12.246944,46.912191,1781.2 12.246728,46.912415,1783.68 12.246588,46.912581,1785.45 12.246511,46.912657,1786.29 12.246353,46.912718,1787.4 12.246227,46.912755,1788.46 12.245961,46.912759,1790.53 12.245714,46.912735,1792.45 12.245461,46.91271,1794.43 12.245036,46.912598,1798.13 12.24482,46.912528,1800.06 12.244472,46.912386,1803.35 12.244156,46.912199,1806.74 12.244018,46.912123,1808.19 12.24384,46.91201,1810.16 12.243378,46.911782,1814.73 12.243086,46.911639,1817.62 12.24294,46.911553,1819.17 12.242778,46.91143,1821.1 12.242595,46.911331,1822.86 12.242262,46.911185,1825.84 12.241788,46.910999,1829.95 12.241603,46.910941,1831.47 12.24141,46.910899,1832.31 12.241286,46.910847,1832.91 12.24111,46.910738,1833.89 12.241017,46.910672,1834.44 12.240875,46.910621,1835.09 12.240636,46.910557,1836.15 12.240231,46.910491,1837.87 12.239942,46.910429,1839.12 12.239553,46.910325,1840.52 12.239261,46.910219,1841.62 12.238643,46.909904,1841.51 12.238314,46.909761,1841.46 12.238054,46.909706,1841.42 12.237936,46.909705,1841.4 12.237799,46.909769,1841.38 12.237737,46.909894,1841.35 12.237711,46.910006,1841.33 12.237768,46.910324,1842 12.23782,46.910503,1842.39 12.237889,46.910638,1842.69 12.238031,46.910789,1843.4 12.238209,46.910912,1844.09 12.238507,46.91104,1845.05 12.238621,46.911104,1845.45 12.238642,46.911141,1845.61 12.238628,46.911198,1845.83 12.238579,46.911215,1845.97 12.238476,46.9112,1846.24 12.23841,46.91119,1846.54 12.238064,46.911038,1848.33 12.237642,46.910807,1850.69 12.237407,46.910681,1851.98 12.237106,46.910504,1853.71 12.236837,46.91032,1855.92 12.23679,46.910278,1856.36 12.236719,46.910166,1857.4 12.236677,46.910086,1858.11 12.236681,46.909995,1858.88 12.236786,46.909806,1860.61 12.236837,46.909632,1862.13 12.23685,46.909521,1863.1 12.236814,46.909366,1864.46 12.236715,46.909206,1866.09 12.236559,46.909012,1868.15 12.236413,46.908893,1869.6 12.236197,46.908694,1871.91 12.236078,46.908572,1873.27 12.235973,46.908416,1874.87 12.235901,46.908224,1876.67 12.235624,46.907691,1881.8 12.235504,46.907482,1883.56 12.235307,46.907211,1885.93 12.235029,46.906965,1888.35 12.234653,46.906696,1891.08 12.234322,46.906488,1893.34 12.233989,46.906303,1895.49 12.233404,46.906036,1897.65 12.232726,46.905769,1900 12.231898,46.905454,1903.07 12.23112,46.905181,1905.54 12.230673,46.905016,1907.04 12.23034,46.904887,1908.17 12.230156,46.904791,1908.75 12.229997,46.904698,1909.42 12.22985,46.904597,1910.06 12.229732,46.904506,1910.24 12.229584,46.904407,1911.38 12.229414,46.904288,1912.31 12.229215,46.90416,1912.81 12.228846,46.903942,1914.95 12.228517,46.903734,1916.92 12.228213,46.903528,1918.78 12.227993,46.90336,1919.79 12.227813,46.90321,1920.87 12.227632,46.903012,1922.03 12.227468,46.902767,1923.36 12.227385,46.902636,1924.07 12.227283,46.902515,1924.76 12.227189,46.902415,1925.35 12.227059,46.902347,1925.89 12.226851,46.902254,1926.73 12.226544,46.902158,1927.88 12.226261,46.902069,1928.94 12.22572,46.901919,1930.98 12.225174,46.901799,1932.98 12.224938,46.901735,1933.87 12.22475,46.901681,1934.58 12.224376,46.9015,1936.19 12.224146,46.901376,1937.22 12.223224,46.900801,1942.14 12.222701,46.900506,1945 12.221906,46.900059,1949.69 12.221377,46.899728,1952.96 12.221133,46.899555,1954.8 12.221019,46.899421,1955.99 12.220956,46.89931,1956.9 12.220903,46.899173,1958 12.220873,46.899083,1958.71 12.220813,46.898984,1959.54 12.220721,46.898899,1960.35 12.220614,46.898828,1961.14 12.220555,46.89879,1961.57 12.220055,46.898499,1965.19 12.219855,46.898381,1966.77 12.219292,46.898014,1971.43 12.218695,46.897636,1976.31 12.218428,46.897467,1978.49 12.218363,46.897425,1979.02 12.21825,46.897361,1979.91 12.218151,46.8973,1980.75 12.21806,46.897246,1981.51 12.217919,46.897137,1982.85 12.217807,46.896988,1984.38 12.217551,46.896569,1988.57 12.217359,46.896257,1991.68 12.217282,46.896149,1992.79 12.217198,46.89606,1993.76 12.21675,46.895733,1997.65 12.216425,46.895469,2000.66 12.216208,46.895245,2002.83 12.21604,46.895014,2005.06 12.215799,46.894678,2008.05 12.215631,46.894436,2010.17 12.215372,46.894202,2012.38 12.215001,46.89397,2014.1 12.214177,46.893561,2017.45 12.213848,46.89342,2018.73 12.213623,46.893335,2019.57 12.213394,46.89326,2020.29 12.213218,46.893225,2020.45 12.213011,46.89323,2020.63 12.21278,46.893257,2020.84 12.212508,46.893327,2021.1 12.212173,46.89338,2021.4 12.211956,46.893392,2021.59 12.21173,46.893392,2021.79 12.211497,46.893341,2022.01 12.210874,46.893058,2023.1 12.210564,46.892902,2023.66 12.210383,46.892801,2024.17 12.210265,46.892707,2024.57 12.210189,46.892632,2024.86 12.21015,46.892573,2025.07 12.21015,46.892508,2025.28 12.210204,46.892413,2025.6 12.210577,46.892091,2026.92 12.210717,46.891953,2027.45 12.210757,46.891827,2027.86 12.210757,46.891743,2028.13 12.210643,46.891627,2028.56 12.210048,46.891337,2030.01 12.209464,46.89106,2031.43 12.209055,46.890862,2032.46 12.208398,46.890499,2032.58 12.207921,46.890217,2032.67 12.207469,46.889966,2032.75 12.206995,46.88976,2032.43 12.206535,46.889571,2032.11 12.206087,46.889356,2032.54 12.205916,46.889285,2032.7 12.205682,46.889211,2032.9 12.204716,46.888987,2033.81 12.204576,46.888953,2033.95 12.204406,46.888894,2034.17 12.204239,46.888813,2034.29 12.203976,46.88868,2035.31 12.203597,46.888497,2037.49 12.203314,46.888381,2038.96 12.202772,46.888252,2041.88 12.202467,46.888203,2043.38 12.202274,46.888187,2044.31 12.202015,46.888174,2045.54 12.201809,46.888158,2046.53 12.201634,46.888124,2046.93 12.201409,46.888067,2047.41 12.201036,46.887965,2048.22 12.200688,46.887858,2048.98 12.200518,46.887807,2049.35 12.200367,46.887779,2049.62 12.200058,46.887739,2050.45 12.199893,46.88772,2050.63 12.199732,46.887705,2051.03 12.199588,46.88768,2051.28 12.199264,46.887628,2051.97 12.199201,46.88763,2051.88 12.199108,46.88765,2051.72 12.198995,46.887697,2051.26 12.198825,46.88784,2050.31 12.198649,46.887949,2049.48 12.19838,46.888029,2048.45 12.198167,46.888081,2047.67 12.19803,46.888164,2047.05 12.197929,46.888221,2046.59 12.197797,46.888347,2045.8 12.197801,46.888432,2045.36 12.197874,46.888499,2044.94 12.197952,46.888556,2044.56 12.197959,46.888633,2044.18 12.197924,46.888764,2043.5 12.197914,46.888859,2043 12.197974,46.889015,2041.84 12.197992,46.88909,2041.3 12.198005,46.889166,2040.74 12.197981,46.889219,2040.41 12.197947,46.889246,2040.24 12.197886,46.88923,2040.02 12.197854,46.889187,2039.65 12.19785,46.889068,2038.74 12.197829,46.888956,2037.87 12.19773,46.888806,2036.6 12.197612,46.888656,2035.27 12.197519,46.888578,2034.5 12.197435,46.888545,2033.99 12.197348,46.88851,2033.47 12.197168,46.888497,2032.52 12.197073,46.888475,2032 12.197011,46.88843,2031.53 12.196999,46.888372,2031.1 12.197005,46.888321,2030.71 12.197067,46.888236,2029.99 12.197269,46.888032,2028.56 12.197524,46.887798,2026.87 12.197585,46.887716,2026.34 12.197628,46.887628,2025.86 12.197631,46.887552,2025.47 12.197616,46.887524,2025.35 12.197592,46.887513,2025.28 12.197554,46.887517,2025.18 12.197498,46.887547,2025 12.197476,46.887577,2024.83 12.197471,46.887646,2024.48 12.197433,46.887739,2023.99 12.197368,46.88783,2023.47 12.197291,46.887891,2023.06 12.197104,46.888019,2022.13 12.196988,46.888103,2021.53 12.196884,46.888172,2021.02 12.196795,46.888244,2020.54 12.196755,46.888302,2020.21 12.196727,46.888393,2019.65 12.196718,46.888484,2019.1 12.196739,46.88859,2018.46 12.196767,46.888659,2017.96 12.196809,46.888722,2017.48 12.196894,46.888776,2016.93 12.197,46.888808,2016.39 12.197083,46.888847,2015.92 12.197143,46.888884,2015.55 12.197219,46.888954,2014.96 12.197225,46.889015,2014.54 12.197223,46.889042,2014.38 12.197195,46.88906,2014.21 12.197161,46.889057,2014.05 12.197115,46.889044,2013.82 12.197063,46.889021,2013.53 12.197035,46.888956,2013.08 12.196996,46.888907,2012.71 12.196959,46.888875,2012.43 12.196822,46.888834,2011.73 12.196744,46.888801,2011.3 12.196654,46.888746,2010.74 12.196443,46.888489,2008.66 12.196267,46.888285,2006.99 12.196182,46.888179,2006.14 12.196103,46.888074,2005.25 12.196102,46.88803,2004.92 12.196149,46.887957,2004.33 12.196234,46.887923,2003.82 12.196445,46.887862,2002.65 12.196554,46.88781,2001.97 12.196719,46.887725,2000.9 12.196855,46.887649,2000.01 12.196917,46.887592,1999.48 12.196964,46.887444,1998.34 12.196977,46.887226,1996.43 12.196956,46.887102,1995.78 12.196942,46.887022,1995.17 12.196916,46.886966,1994.73 12.196884,46.886944,1994.51 12.196823,46.886937,1994.2 12.196781,46.886951,1993.98 12.196766,46.886979,1993.77 12.19676,46.887034,1993.36 12.196793,46.887148,1992.48 12.196802,46.887209,1992.01 12.19681,46.88726,1991.63 12.196795,46.887332,1991.08 12.196765,46.887433,1990.32 12.196719,46.887498,1989.8 12.196651,46.887542,1989.33 12.196557,46.887573,1988.86 12.196441,46.887599,1988.24 12.196252,46.887623,1987.27 12.196008,46.887629,1985.96 12.19584,46.88763,1985.05 12.195631,46.887648,1983.92 12.195442,46.887664,1982.94 12.195314,46.887678,1982.27 12.19511,46.887704,1981.21 12.19493,46.887765,1980.18 12.194835,46.887815,1979.74 12.194765,46.887868,1979.37 12.194745,46.887944,1978.96 12.194746,46.888024,1978.57 12.194776,46.888111,1978.13 12.19482,46.888202,1977.66 12.194916,46.888429,1976.49 12.194997,46.888565,1975.77 12.195101,46.888672,1975.13 12.195206,46.888778,1974.5 12.195258,46.888868,1974.03 12.195282,46.888959,1973.57 12.195266,46.889232,1972.22 12.195252,46.889365,1971.57 12.195253,46.889388,1971.46 12.195273,46.889416,1971.31 12.195295,46.889435,1971 12.195449,46.889479,1969.52 12.195825,46.889551,1966.07 12.195901,46.889579,1965.3 12.195993,46.88961,1964.4 12.196081,46.889654,1963.32 12.196162,46.889718,1962.11 12.196226,46.889798,1960.8 12.196255,46.889879,1959.6 12.196235,46.889959,1958.44 12.196202,46.889991,1957.88 12.196128,46.89002,1957.04 12.196051,46.890028,1956.27 12.195888,46.890038,1954.63 12.195742,46.890047,1953.18 12.195553,46.890072,1952 12.195121,46.89015,1946.22 12.194664,46.890255,1940 12.194248,46.890355,1932.99 12.193873,46.890457,1926.58 12.193259,46.890643,1917.23 12.192604,46.890839,1907.27 12.192125,46.890956,1899.82 12.191863,46.89103,1895.66 12.1917,46.891087,1894.06 12.191544,46.891137,1892.45 12.191444,46.891206,1891.18 12.191412,46.891286,1890.09 12.191363,46.891447,1887.83 12.191374,46.891567,1886.19 12.191429,46.891678,1884.59 12.191444,46.891728,1883.9 12.191408,46.891766,1883.33 12.191347,46.891776,1882.78 12.191294,46.89176,1882.29 12.191271,46.8917,1881.52 12.191244,46.891617,1880.36 12.191234,46.891508,1878.88 12.191232,46.891387,1877.49 12.191258,46.891223,1876.79 12.191274,46.891146,1876.46 12.191344,46.891071,1876.08 12.19164,46.890899,1875.2 12.192089,46.890692,1873.96 12.192446,46.890507,1872.94 12.192595,46.890437,1872.53 12.192786,46.890266,1871.69 12.192904,46.890142,1871.11 12.193029,46.889969,1870.37 12.193028,46.889939,1870.19 12.193005,46.889893,1869.9 12.192899,46.889841,1869.36 12.192846,46.889817,1869.1 12.192803,46.889774,1868.79 12.19276,46.889571,1867.56 12.192741,46.889432,1866.72 12.192725,46.889387,1866.45 12.192682,46.889337,1866.11 12.192597,46.88924,1865.43 12.192551,46.889202,1865.13 12.192499,46.889169,1864.86 12.192443,46.889164,1864.66 12.192414,46.889175,1864.54 12.192376,46.889197,1864.32 12.192375,46.889243,1864.03 12.192415,46.889289,1863.82 12.192504,46.889384,1863.14 12.192553,46.889444,1862.72 12.192581,46.88951,1862.31 12.192584,46.889565,1861.98 12.192561,46.889637,1861.25 12.192451,46.889872,1858.83 12.192339,46.890028,1857.12 12.192231,46.890129,1855.36 12.192095,46.89022,1853.52 12.191863,46.890317,1850.14 12.191606,46.890415,1846.48 12.191388,46.890494,1843.42 12.191041,46.890591,1839.25 12.19066,46.890677,1834.8 12.190348,46.890765,1831.08 12.190174,46.89083,1828.91 12.190008,46.890903,1827.03 12.189873,46.890975,1824.77 12.189772,46.89105,1822.84 12.189658,46.891171,1820.28 12.189592,46.89125,1818.66 12.189512,46.891319,1817.09 12.189407,46.891363,1815.58 12.18929,46.891403,1813.99 12.189212,46.891415,1813.02 12.189113,46.89142,1811.81 12.189012,46.89141,1810.54 12.188926,46.891388,1809.37 12.188801,46.891332,1807.55 12.18856,46.891245,1804.23 12.188415,46.891204,1802.32 12.188271,46.891178,1800.73 12.187968,46.891159,1797.62 12.187784,46.891149,1795.75 12.187605,46.891147,1793.62 12.187469,46.891154,1792.82 12.187336,46.891178,1791.79 12.18721,46.891235,1790.68 12.187129,46.891248,1790.07 12.187008,46.891231,1788.84 12.18684,46.891184,1787.02 12.186714,46.891156,1785.71 12.186563,46.891148,1784.34 12.186394,46.891163,1782.8 12.186303,46.891166,1781.98 12.186199,46.891156,1781.04 12.186131,46.891139,1780.38 12.186016,46.891123,1779.32 12.185907,46.891114,1778.34 12.185826,46.891125,1777.6 12.185598,46.89118,1775.85 12.185473,46.891217,1774.88 12.185412,46.891224,1774.44 12.185336,46.891215,1774.12 12.185278,46.891188,1773.84 12.185268,46.891164,1773.69 12.185272,46.891138,1773.54 12.185313,46.891094,1773.24 12.185452,46.891022,1772.51 12.185627,46.890949,1771.66 12.18579,46.890879,1770.85 12.186175,46.890677,1768.82 12.186489,46.8905,1767.13 12.186727,46.890358,1765.81 12.186846,46.890265,1765.06 12.186952,46.890149,1764.54 12.187052,46.889986,1763.88 12.187097,46.889924,1763.62 12.187179,46.889835,1763.22 12.187307,46.889749,1762.89 12.187621,46.88956,1762.12 12.187866,46.889402,1761.49 12.187902,46.88935,1761.34 12.187886,46.889277,1761.15 12.187854,46.889246,1761.05 12.187787,46.889222,1760.92 12.187639,46.889197,1760.64 12.187364,46.889171,1760.13 12.187064,46.889156,1759.57 12.18673,46.889152,1758.11 12.186405,46.889151,1756.69 12.186014,46.889169,1754.64 12.185672,46.889197,1752.84 12.185351,46.889222,1751.15 12.185179,46.889223,1750.25 12.18497,46.889203,1749.15 12.184723,46.889149,1746.98 12.183844,46.888937,1739.17 12.183381,46.888814,1735.02 12.183252,46.88878,1733.87 12.183148,46.888764,1732.98 12.183016,46.888764,1731.64 12.182892,46.888784,1730.36 12.182565,46.888884,1726.73 12.182443,46.888923,1725.36 12.182337,46.888941,1724.49 12.182216,46.88895,1723.41 12.181919,46.888947,1720.27 12.181773,46.888944,1718.73 12.181669,46.88894,1717.62 12.181514,46.888922,1716.23 12.181369,46.888898,1714.91 12.181231,46.888862,1713.6 12.180961,46.888752,1710.82 12.18088,46.888704,1709.87 12.180835,46.888678,1709.36 12.180759,46.888636,1708.49 12.179957,46.888185,1699.28 12.179386,46.888032,1694.02 12.178822,46.887952,1689.48 12.178343,46.887906,1685.67 12.177876,46.887892,1682 12.177491,46.887925,1678.94 12.177132,46.887947,1676.11 12.176702,46.887911,1674.84 12.176231,46.887825,1673.41 12.175885,46.887735,1672.77 12.175664,46.887665,1672.33 12.175394,46.887547,1671.99 12.174806,46.887248,1671.2 12.17462,46.887105,1670.81 12.174568,46.887007,1671.06 12.174538,46.886934,1671.19 12.17449,46.886856,1671.5 12.17427,46.886732,1671.88 12.173842,46.886576,1673.64 12.1732,46.886347,1674.77 12.172684,46.88617,1675.66 12.172201,46.886038,1676.47 12.171905,46.885972,1676.3 12.171591,46.885884,1676.11 12.171338,46.885776,1675.94 12.171046,46.88562,1675.73 12.170846,46.885499,1675.58 12.170488,46.885262,1675.31 12.170305,46.885111,1675.15 12.170201,46.88498,1675.03 12.170127,46.884772,1674.86 12.170091,46.884708,1674.8 12.170033,46.884611,1674.72 12.169899,46.884457,1674.57 12.16976,46.884358,1674.46 12.169256,46.884133,1674.13 12.169107,46.884023,1674.01 12.168993,46.883896,1673.85 12.168974,46.883792,1673.56 12.168949,46.883684,1673.26 12.168887,46.88361,1673.02 12.168818,46.883556,1672.82 12.168678,46.883462,1672.45 12.168391,46.883367,1671.84 12.168192,46.883277,1671.39 12.167998,46.883166,1670.91 12.167784,46.882994,1670.28 12.167534,46.882689,1668.73 12.16726,46.882332,1666.94 12.167093,46.88215,1665.99 12.166813,46.881874,1663.88 12.166709,46.881784,1663.22 12.166521,46.881702,1662.33 12.166417,46.881669,1661.84 12.166241,46.881644,1661.06 12.16612,46.881637,1660.59 12.165982,46.88164,1660.06 12.165838,46.881649,1659.33 12.165644,46.881704,1658.51 12.165069,46.882019,1655.86 12.163664,46.882814,1649.3 12.162832,46.883279,1647.76 12.162357,46.883448,1647.42 12.162016,46.88351,1647.19 12.161713,46.883547,1647 12.16136,46.883568,1646.78 12.161029,46.883578,1646.59 12.160673,46.883594,1646.61 12.160328,46.883597,1646.64 12.159968,46.883625,1646.67 12.159852,46.883653,1646.68 12.159636,46.883747,1646.7 12.159457,46.88379,1646.71 12.159212,46.883824,1646.73 12.158572,46.883902,1646.78 12.158414,46.883906,1646.66 12.158238,46.883893,1646.52 12.158078,46.883837,1646.34 12.157905,46.883796,1646.15 12.157786,46.883782,1646.03 12.157674,46.883796,1645.92 12.157507,46.883834,1645.74 12.157332,46.883927,1645.52 12.157217,46.883986,1645.38 12.15715,46.88402,1645.29 12.156972,46.884058,1645.11 12.15676,46.884078,1644.81 12.156346,46.884073,1644.22 12.156001,46.884069,1643.73 12.15562,46.884053,1643.19 12.15522,46.884008,1642.22 12.154598,46.883921,1640.69 12.153541,46.883778,1638.05 12.153168,46.883724,1636.82 12.152827,46.883674,1635.57 12.152341,46.883594,1633.78 12.151748,46.883453,1631.54 12.151011,46.883255,1628.71 12.150308,46.883065,1624.75 12.149563,46.882897,1620.65 12.14876,46.882748,1616 12.147879,46.88261,1610.95 12.147098,46.882458,1606.41 12.146368,46.882269,1601.89 12.14576,46.882061,1598.12 12.144605,46.881607,1590.73 12.144225,46.881467,1588.34 12.143668,46.881304,1584.86 12.143212,46.881133,1581.88 12.142741,46.880909,1578.35 12.14235,46.880643,1575.16 12.142102,46.880443,1572.87 12.141733,46.880192,1569.21 12.141373,46.879939,1565.86 12.141047,46.879727,1562.62 12.139338,46.878823,1547.08 12.138788,46.878423,1541.33 12.138471,46.878171,1537.85 12.13816,46.877876,1534.05 12.137602,46.877236,1527.09 12.13724,46.876634,1521.6 12.136911,46.875964,1515.64 12.13686,46.87585,1514.69 12.136821,46.875766,1514 12.136677,46.875445,1511.38 12.136505,46.875062,1509.17 12.136183,46.874577,1504.12 12.135302,46.873701,1495.4 12.134862,46.873431,1492.01 12.134372,46.873168,1488.44 12.134071,46.873049,1485.97 12.133551,46.872897,1481.96 12.133075,46.872852,1478.1 12.132556,46.872827,1473.92 12.132086,46.872874,1470.11 12.131644,46.872972,1466.39 12.129722,46.873645,1444.42 12.128353,46.874137,1428.28 12.126662,46.874743,1411.48 12.126152,46.874901,1407.26 12.125427,46.87504,1401.57 12.124925,46.875077,1397.76 12.123916,46.874973,1390.26 12.123325,46.874799,1385.72 12.122935,46.87463,1382.45 12.122483,46.874341,1378.08 12.121595,46.873575,1367.72 12.120915,46.873185,1361.21 12.119733,46.87275,1351.75 12.119106,46.872465,1346.8 12.118609,46.87216,1342.4 12.117983,46.871598,1335.91 12.117547,46.871099,1331.06 12.117169,46.870367,1324.58 12.116832,46.869908,1319.76 12.116617,46.869707,1317.25 12.116122,46.86936,1312.38 12.11548,46.869066,1307.35 12.115014,46.868832,1303.59 12.114737,46.868668,1301.21 12.114374,46.868385,1298 12.114015,46.868013,1294.45 12.113684,46.867617,1290.82 12.113226,46.867189,1286.6 12.113088,46.86708,1286.19 12.112645,46.866826,1283.04 12.111144,46.866146,1275 12.110112,46.865487,1268.84 12.109319,46.864838,1263.8 12.108956,46.864492,1261.46 12.10862,46.864123,1259.38 12.107954,46.863192,1254.05 12.107575,46.86263,1251.49 12.107174,46.862176,1249.29 12.10674,46.861789,1247.67 12.106198,46.861386,1245.85 12.10576,46.861065,1244.26 12.105292,46.860695,1243.14 12.104435,46.860063,1240.51 12.103927,46.859665,1239.06 12.103565,46.85941,1238.24 12.103068,46.859104,1237.19 12.100834,46.857903,1233.21 12.099267,46.856946,1230.34 12.098467,46.856331,1228.56 12.097783,46.855457,1226.58 12.097464,46.854901,1225.67 12.097221,46.854267,1224.68 12.097013,46.853351,1224.82 12.096942,46.852848,1224.92 12.096747,46.851168,1226.74 12.096464,46.848742,1225.25 12.096285,46.847212,1220.17 12.096219,46.846718,1218.21 12.096036,46.845889,1212.86 12.095631,46.844762,1204.73 12.095024,46.843619,1195.49 12.094089,46.842238,1185.04 12.093547,46.841479,1180.13 12.0925,46.84049,1175.35 12.091534,46.839788,1171.64 12.090938,46.839453,1169.5 12.089867,46.838951,1166.18 12.089424,46.838787,1165.43 12.087705,46.83812,1160.68 12.08725,46.837877,1159.21 12.087132,46.8378,1158.8 12.087025,46.837723,1158.4 12.086504,46.837173,1155.96 12.086336,46.836847,1154.68 12.086253,46.836537,1153.54 12.086213,46.836309,1151.88 12.086185,46.836058,1151.09 12.086158,46.835689,1149.61 12.08609,46.834962,1145.77 12.085967,46.834448,1143.4 12.085673,46.833903,1140.43 12.085053,46.833179,1135.94 12.084777,46.832752,1133.34 12.08461,46.832248,1130.09 12.084561,46.831853,1127.73 12.084546,46.831363,1124.82 12.084495,46.830924,1122.19 12.084398,46.830602,1120.31 12.084274,46.830345,1118.76 12.083959,46.829912,1115.78 12.08378,46.829652,1114.01 12.083642,46.829328,1111.93 12.083531,46.828669,1107.6 12.083495,46.828107,1104.53 12.083428,46.827857,1103.5 12.083323,46.827513,1101.05 12.082975,46.826703,1097.64 12.082791,46.826236,1095.68 12.082702,46.825908,1094.34 12.082602,46.825462,1093.39 12.082531,46.824699,1091.77 12.08255,46.823974,1091.48 12.082584,46.823073,1091.12 12.082568,46.822678,1090.96 12.082476,46.822347,1091.13 12.082256,46.82193,1091.45 12.0821,46.821719,1091.6 12.08184,46.821463,1091.79 12.081529,46.821205,1092 12.077468,46.81884,1093.16 12.076549,46.818258,1093.19 12.076265,46.818027,1093.2 12.075952,46.817726,1093.2 12.075696,46.817367,1093.21 12.075472,46.817006,1093.19 12.075338,46.816669,1093.17 12.075208,46.816063,1093.13 12.075116,46.815602,1093.1 12.075038,46.815314,1093.09 12.0748,46.81478,1093.05 12.074593,46.81449,1093.04 12.074067,46.81395,1093 12.073737,46.813695,1092.98 12.073516,46.813581,1092.97 12.072943,46.813285,1092.94 12.072537,46.81313,1092.92 12.071856,46.812913,1092.89 12.071456,46.812789,1092.87 12.071106,46.812622,1092.86 12.070829,46.812486,1092.84 12.070666,46.812392,1092.83 12.070366,46.812155,1092.82 12.06985,46.811714,1092.78 12.069719,46.811602,1092.78 12.069436,46.811361,1092.76 12.069013,46.811121,1092.74 12.067756,46.810526,1092.68 12.067198,46.810181,1092.65 12.066885,46.809885,1092.62 12.066625,46.809531,1092.6 12.066369,46.808968,1092.57 12.066055,46.807349,1092.47 12.065803,46.806046,1092.4 12.065619,46.805428,1092.36 12.065389,46.804966,1092.33 12.065072,46.804558,1092.31 12.064805,46.804299,1092.29 12.06468,46.804177,1092.27 12.064227,46.803854,1092.22 12.063555,46.803444,1092.14 12.061713,46.80232,1091.11 12.061272,46.801974,1090.69 12.06096,46.801637,1090.1 12.060694,46.801265,1088.7 12.060114,46.800295,1085.17 12.059821,46.799895,1083.66 12.059228,46.799223,1080.59 12.058555,46.798569,1077.79 12.057289,46.79737,1072.6 12.056873,46.796819,1071.09 12.056638,46.796328,1070.35 12.056535,46.795995,1069.85 12.056491,46.795166,1069.07 12.056512,46.794331,1069.82 12.056525,46.793966,1070.14 12.056524,46.793723,1070.31 12.05647,46.79322,1070.91 12.05638,46.792912,1071.29 12.056156,46.792427,1071.9 12.055554,46.791274,1072.56 12.054815,46.789912,1071.42 12.054664,46.789677,1071.36 12.054494,46.789461,1071.04 12.054239,46.789127,1070.5 12.053565,46.788396,1069.15 12.053023,46.787926,1067.59 12.050289,46.785801,1058.27 12.048978,46.78469,1049.91 12.04874,46.784475,1048.33 12.046819,46.782448,1029.62 12.046326,46.781981,1029.16 12.044979,46.780832,1023.03 12.043849,46.78004,1019.5 12.043395,46.779689,1017.16 12.04308,46.779287,1015.52 12.04288,46.778859,1013.91 12.042846,46.778591,1013.09 12.042915,46.778043,1011.91 12.043275,46.777436,1010.5 12.043474,46.777249,1010.01 12.043748,46.777004,1009.48 12.044159,46.776693,1008.68 12.044581,46.776323,1007.79 12.044748,46.776163,1007.42 12.044582,46.775996,1007.13 12.044459,46.77586,1006.89 12.043911,46.775083,1005.03 12.043648,46.774749,1004.1 12.043306,46.774285,1002.11 12.043306,46.774285,1001.5 12.043045,46.773962,1001.61 12.042647,46.773558,1001.7 12.041482,46.77263,1001.7 12.041204,46.772782,1001.34 12.040807,46.772999,1000.83 12.04056,46.773105,1000.53 12.040304,46.77316,1000.26 12.040036,46.77321,999.98 12.03963,46.773256,999.71 12.039377,46.773282,999.54 12.039183,46.773295,999.41 12.038946,46.773298,999.25 12.038796,46.773294,999.25 12.038597,46.773256,999.26 12.038407,46.773204,999.26 12.037636,46.772889,999.28 12.037406,46.772815,999.29 12.037116,46.772759,999.29 12.036497,46.772711,999.77 12.036047,46.772686,1000.12 12.035584,46.77266,1000.47 12.034831,46.7726,1001.17 12.034521,46.772577,1001.49 12.034374,46.77257,1001.58 12.034003,46.772556,1001.78 12.03381,46.772556,1001.84 12.033824,46.772479,1001.87 12.033841,46.772365,1001.93 12.033846,46.772321,1001.95 12.033847,46.772247,1001.98 12.033842,46.772159,1002.02 12.033818,46.772068,1002.07 12.033758,46.771954,1002.12 12.033707,46.771877,1002.16 12.033654,46.771824,1002.19 12.033571,46.771764,1002.23 12.03348,46.771712,1002.27 12.03348,46.771712,1001.59 12.033362,46.771646,1001.87 12.032661,46.771273,1003.45 12.032476,46.771189,1003.85 12.032252,46.771147,1004.48 12.032087,46.771146,1005.22 12.03158,46.771214,1007.53 12.031315,46.771225,1008.72 12.03109,46.771178,1009.78 12.030897,46.771079,1010.86 12.030211,46.770197,1017.18 12.030135,46.770031,1018.14 12.030132,46.769947,1018.61 12.030184,46.769798,1019.46 12.030246,46.769725,1019.93 12.030514,46.769408,1021.96 12.030557,46.769352,1022.31 12.030573,46.769331,1022.44 12.030728,46.769069,1024.01 12.030806,46.768853,1025.25 12.031159,46.767301,1028.99 12.031196,46.767188,1029.23 12.031362,46.76688,1029.96 12.031472,46.766722,1030.39 12.031628,46.766496,1030.99 12.031717,46.766353,1031.37 12.031789,46.766132,1031.92 12.031843,46.765431,1033.63 12.031925,46.765222,1034.21 12.03207,46.765052,1035.12 12.032254,46.764847,1036.22 12.032303,46.764716,1036.94 12.032304,46.764588,1037.43 12.032295,46.764533,1037.68 12.032087,46.764132,1039.63 12.03199,46.763943,1040.54 12.031956,46.763841,1041.02 12.031924,46.763708,1041.47 12.031885,46.763427,1042.42 12.031875,46.76337,1042.45 12.031878,46.763253,1042.51 12.03188,46.76302,1042.64 12.031867,46.762918,1042.69 12.031821,46.762709,1042.8 12.031751,46.762506,1042.91 12.031707,46.762415,1042.96 12.031687,46.762367,1042.99 12.031668,46.762318,1043.02 12.031648,46.762261,1043.05 12.031561,46.762024,1043.18 12.031446,46.761594,1043.41 12.031431,46.761543,1043.43 12.031421,46.761521,1043.45 12.031392,46.761492,1043.14 12.031742,46.761481,1043.39 12.031834,46.761497,1043.46 12.032028,46.761535,1043.6 12.032442,46.761616,1043.98 12.032657,46.761613,1044.21 12.032967,46.761482,1044.65 12.033169,46.761346,1045.07 12.033538,46.761161,1046.11 12.034182,46.760973,1047.69 12.035012,46.760811,1049.28 12.035851,46.760712,1050.85 12.036334,46.760564,1052.1 12.036532,46.760361,1052.93 12.036648,46.760097,1053.88 12.036821,46.7598,1054.98 12.036939,46.759576,1056 12.037347,46.759016,1058.86 12.038122,46.758258,1063.09 12.038602,46.757847,1065.61 12.039054,46.757606,1067.72 12.039171,46.757553,1068.23 12.039247,46.757535,1068.53 12.039507,46.757609,1069.56 12.039563,46.757704,1070.9 12.039594,46.757898,1071.14 12.039604,46.758061,1071.67 12.039838,46.758301,1073.65 12.040099,46.758471,1075.15 12.040329,46.758478,1076.15 12.040547,46.758434,1077.15 12.041022,46.758352,1078.36 12.041546,46.758239,1079.73 12.042144,46.758155,1081.66 12.042646,46.758139,1083.27 12.043609,46.758121,1085.81 12.044354,46.758092,1085.93 12.045188,46.758025,1083.67 12.045435,46.757879,1083.26 12.045581,46.757677,1082.86 12.045691,46.757431,1082.4 12.045718,46.75735,1082 12.045755,46.757218,1082.58 12.045911,46.75712,1085.47 12.046197,46.757188,1088.35 12.04642,46.757297,1090.75 12.046641,46.757364,1091.96 12.046879,46.757389,1093.16 12.047121,46.757389,1093.64 12.047444,46.757377,1094.12 12.048033,46.757365,1094.6 12.048518,46.75729,1093.88 12.048916,46.757199,1093.27 12.049283,46.757072,1093.43 12.049484,46.75699,1093.52 12.04957,46.756912,1094.01 12.049608,46.756682,1095.08 12.049631,46.756556,1095.54 12.049787,46.756469,1096.04 12.051143,46.756007,1096.52 12.05137,46.755914,1097 12.051575,46.755798,1098.86 12.051656,46.755661,1100.37 12.051874,46.755402,1103.73 12.05215,46.755093,1107.59 12.052475,46.754871,1110.94 12.052855,46.75465,1114.31 12.053371,46.754388,1117.67 12.053523,46.754311,1118.72 12.053908,46.754169,1121.16 12.05423,46.754143,1122.96 12.054793,46.754181,1125.36 12.055884,46.754322,1129.04 12.056219,46.754364,1130.17 12.057176,46.754474,1133.86 12.057976,46.754479,1136.9 12.058571,46.754412,1140.26 12.059545,46.754329,1144.59 12.06008,46.754297,1146.13 12.061457,46.754179,1150.12 12.061696,46.754131,1151.81 12.062022,46.754036,1154.2 12.062732,46.753731,1158.05 12.063443,46.753559,1161.89 12.06375,46.753438,1165.26 12.064091,46.753213,1169.82 12.064276,46.753127,1171.98 12.064422,46.753042,1173.43 12.064643,46.753023,1174.39 12.064818,46.753099,1176.59 12.065061,46.753462,1181.37 12.065431,46.75387,1186.85 12.065714,46.754115,1190.73 12.06588,46.754164,1193.16 12.066021,46.754115,1195 12.066132,46.753991,1197.46 12.066234,46.753822,1199.38 12.066378,46.753714,1200.83 12.066586,46.753686,1202.27 12.066863,46.753836,1205.6 12.067103,46.753902,1208.03 12.067451,46.753928,1210.44 12.067728,46.753953,1213.08 12.068108,46.75396,1216.69 12.068392,46.754002,1218.55 12.068666,46.754098,1220.53 12.069509,46.754202,1226.78 12.07007,46.754272,1229.66 12.070399,46.754304,1231.8 12.070964,46.754329,1235.43 12.071326,46.754369,1236.39 12.071696,46.754436,1237.45 12.071946,46.754568,1238.32 12.072084,46.754695,1238.32 12.072402,46.755105,1239.76 12.072462,46.755225,1240.02 12.072486,46.755431,1240.46 12.072426,46.755527,1240.72 12.072281,46.755621,1241.2 12.072032,46.755732,1241.68 12.071775,46.755927,1242.46 12.071737,46.756063,1242.87 12.071822,46.756178,1243.57 12.071936,46.756225,1244.06 12.072118,46.756229,1246.01 12.072356,46.756132,1247.93 12.072683,46.756011,1249.37 12.072982,46.755963,1250.33 12.07377,46.755896,1253.7 12.074401,46.755942,1257.54 12.074691,46.755978,1257.54 12.075263,46.756014,1257.06 12.076264,46.75629,1253.7 12.076806,46.756397,1252.25 12.077414,46.756419,1251.77 12.077657,46.756431,1252.7 12.078028,46.756511,1254.18 12.078186,46.756529,1254.36 12.078449,46.756535,1254.66 12.078879,46.756501,1258.02 12.079492,46.756453,1259.46 12.0799,46.756384,1258.98 12.080371,46.756254,1258 12.080568,46.756159,1257.54 12.080726,46.755934,1257.05 12.080888,46.75579,1256.58 12.081151,46.755693,1256.94 12.081429,46.755632,1257.44 12.081883,46.755337,1258.5 12.082054,46.755228,1258.98 12.08221,46.755093,1260.22 12.082349,46.754999,1261.15 12.082588,46.754948,1262.35 12.08288,46.754904,1263.75 12.0831,46.754858,1264.81 12.083252,46.754773,1265.71 12.083909,46.754584,1266.19 12.084727,46.754454,1270.04 12.085156,46.754294,1270.04 12.085831,46.75406,1266.77 12.086351,46.753879,1262.05 12.08655,46.753815,1260.59 12.086753,46.753819,1259 12.087116,46.753863,1256.38 12.087607,46.753868,1252.6 12.08796,46.753849,1249.76 12.088382,46.753676,1245.99 12.08856,46.753469,1242.18 12.088642,46.753412,1241.2 12.08877,46.753364,1239.96 12.088992,46.753358,1238.07 12.089159,46.753412,1236.5 12.089269,46.753502,1235.57 12.08934,46.753605,1234.55 12.089508,46.753677,1233.41 12.089782,46.753661,1231.81 12.090043,46.753644,1229.91 12.090378,46.753761,1228.04 12.09059,46.753814,1226 12.090882,46.753775,1223.3 12.091143,46.753646,1219.51 12.09138,46.753446,1216.19 12.091639,46.753282,1213.83 12.091813,46.753223,1213.32 12.091982,46.753205,1212.88 12.092129,46.75326,1212.46 12.092176,46.753393,1212.01 12.092198,46.75355,1210.12 12.092296,46.75366,1209.63 12.092443,46.75371,1209.21 12.092659,46.753704,1208.74 12.092799,46.753633,1207.33 12.093001,46.753511,1203.52 12.093155,46.753452,1202.17 12.093343,46.753425,1200.68 12.093657,46.753421,1199.28 12.093826,46.753394,1198.04 12.094301,46.753453,1194.56 12.094618,46.753498,1192.43 12.094782,46.753498,1191.26 12.095003,46.75347,1187.92 12.095108,46.75349,1186.02 12.095105,46.753544,1184.59 12.094946,46.75362,1181.24 12.09463,46.753714,1177.93 12.094211,46.75382,1176.87 12.094057,46.753883,1176.45 12.093974,46.753916,1176.25 12.09397,46.753961,1176.11 12.094051,46.753995,1175.58 12.094286,46.753989,1174.24 12.094886,46.753955,1169.99 12.095356,46.753928,1165.72 12.095662,46.753898,1162.4 12.095884,46.753779,1161.48 12.096264,46.753539,1161.07 12.096458,46.753395,1160.62 12.096599,46.75322,1159.34 12.096664,46.752988,1157.82 12.096711,46.752888,1157.57 12.096866,46.752861,1157.32 12.097084,46.753004,1156.94 12.097291,46.7533,1155.56 12.09755,46.753599,1151.78 12.097932,46.753859,1149.73 12.098301,46.754015,1148.07 12.099125,46.754227,1143.85 12.099679,46.754306,1140.09 12.100235,46.754399,1136.31 12.100847,46.754576,1132.56 12.101193,46.754666,1131.16 12.10143,46.754691,1129.7 12.101626,46.75469,1128.51 12.101947,46.754612,1126.46 12.102404,46.754353,1123.65 12.102488,46.754246,1122.24 12.102746,46.753895,1117.51 12.102831,46.753773,1116.09 12.103046,46.753422,1113.76 12.103257,46.75321,1113.33 12.10352,46.753001,1112.87 12.103839,46.752853,1112.47 12.104206,46.752744,1112.01 12.104536,46.75269,1111.61 12.105362,46.752577,1107.66 12.105634,46.752538,1106.03 12.105613,46.752369,1106.02 12.105619,46.752269,1105.81 12.105702,46.752118,1105.49 12.105885,46.752005,1105.15 12.10615,46.751884,1103.75 12.106528,46.751807,1102.02 12.106881,46.751784,1100.48 12.107085,46.751775,1100.02 12.107091,46.75169,1100.04 12.107271,46.751707,1099.53 12.107634,46.751768,1099.55 12.107752,46.751815,1099.55 12.108166,46.75202,1099.58 12.108328,46.752046,1099.84 12.10849,46.752028,1100.09 12.108917,46.751931,1099.15 12.110142,46.751616,1099.71 12.110437,46.751524,1101.16 12.111118,46.75133,1101.52 12.111688,46.751157,1101.8 12.112388,46.750936,1102.25 12.113354,46.750532,1102.72 12.114569,46.749913,1103.36 12.114939,46.749712,1104.52 12.115381,46.749513,1105.82 12.115928,46.749323,1105.85 12.116179,46.749239,1105.87 12.116349,46.749138,1106.85 12.116663,46.748936,1107.83 12.116849,46.748815,1108.33 12.11704,46.748702,1108.97 12.117329,46.748553,1109.9 12.117571,46.748391,1110.77 12.117734,46.748206,1112.72 12.117862,46.74809,1114.24 12.117976,46.748012,1115.39 12.118287,46.747826,1117.57 12.118558,46.747578,1118.57 12.118654,46.747452,1119.24 12.118745,46.747261,1120.4 12.118794,46.747105,1121.49 12.11885,46.746886,1123.44 12.118957,46.746665,1125.37 12.119018,46.746531,1125.85 12.119038,46.746359,1126.79 12.119133,46.746063,1128.77 12.119359,46.745788,1130.25 12.119473,46.745675,1130.85 12.119691,46.745574,1131.65 12.11987,46.745527,1132.21 12.120071,46.745476,1132.67 12.120427,46.745411,1133.42 12.120805,46.745312,1134.24 12.121441,46.745116,1135.67 12.121789,46.744981,1137.13 12.122126,46.744831,1138.6 12.122403,46.744675,1138.62 12.122879,46.744376,1141.55 12.123499,46.74398,1142.53 12.124189,46.743602,1143.57 12.124785,46.74323,1144.27 12.125456,46.742773,1145.11 12.125874,46.742501,1148.01 12.126249,46.74233,1149.02 12.126661,46.742172,1150.48 12.126826,46.742081,1150.98 12.126929,46.742034,1150.5 12.127049,46.741977,1150.3 12.127461,46.741735,1149.58 12.127771,46.74158,1149.6 12.128024,46.741452,1149.62 12.128231,46.741298,1149.64 12.128403,46.741108,1149.66 12.128492,46.740959,1149.66 12.128598,46.740865,1149.2 12.129053,46.740481,1148.27 12.129205,46.740354,1147.32 12.129334,46.74025,1147.33 12.129543,46.740086,1148.24 12.130006,46.73978,1149.8 12.13017,46.739685,1150.29 12.130513,46.739497,1151.27 12.13068,46.739389,1151.29 12.131046,46.739178,1152.28 12.131247,46.739057,1153.25 12.131364,46.738994,1153.73 12.131589,46.738918,1153.75 12.131839,46.738844,1153.77 12.132118,46.738745,1153.78 12.132708,46.738493,1155.26 12.133235,46.738291,1155.3 12.133381,46.73826,1155.19 12.133592,46.73826,1155 12.133846,46.738257,1154.85 12.13386,46.738261,1155 12.133882,46.738306,1155 12.133863,46.738362,1155 12.133785,46.738447,1155 12.133694,46.738526,1155 12.133616,46.738636,1155 12.1336,46.738726,1155 12.133627,46.738837,1155 12.133675,46.738949,1155 12.133766,46.739028,1155 12.133876,46.739081,1155 12.133994,46.739122,1155 12.134179,46.739146,1155 12.134633,46.739199,1155 12.134947,46.739232,1155 12.135223,46.739265,1155 12.135381,46.739276,1155 12.135555,46.739287,1155.19 12.135692,46.739274,1155.34 12.135802,46.739239,1155.63 12.135872,46.739155,1155.98 12.135893,46.739048,1156.36 12.135928,46.738899,1156.9 12.135993,46.738794,1157.3 12.136103,46.738669,1157.82 12.136218,46.738568,1158.28 12.136323,46.738471,1158.71 12.136382,46.738364,1159.11 12.136427,46.738278,1159.44 12.136475,46.738208,1159.71 12.136548,46.738129,1160.04 12.136601,46.738039,1160.39 12.13661,46.737962,1160.66 12.13662,46.737846,1161.08 12.136628,46.737783,1161.3 12.136663,46.737749,1161.45 12.136749,46.73771,1161.7 12.136889,46.737669,1162.07 12.136972,46.73766,1162.28 12.137125,46.737681,1162.66 12.137315,46.737712,1163.13 12.137489,46.737752,1163.58 12.137733,46.737796,1164.2 12.1379,46.737824,1164.62 12.138053,46.737848,1164.79 12.138242,46.737881,1165 12.138437,46.737918,1165 12.138469,46.737946,1165 12.138479,46.737979,1165 12.138533,46.737991,1165.41 12.139796,46.738209,1162.49 12.141152,46.738444,1159.56 12.142176,46.738553,1156.17 12.142659,46.738589,1155.26 12.143743,46.738606,1153.23 12.143983,46.73862,1153.22 12.144177,46.738642,1152.92 12.144584,46.73877,1152.24 12.144895,46.738879,1151.75 12.145077,46.73891,1151.86 12.145329,46.738912,1152.01 12.14569,46.738868,1152.21 12.147425,46.738487,1153.11 12.149923,46.737838,1153.51 12.150506,46.737723,1153.5 12.150831,46.737694,1153.26 12.152605,46.737629,1151.99 12.153014,46.737586,1151.44 12.154025,46.737362,1150.03 12.156015,46.736898,1148.53 12.156287,46.736855,1148.92 12.157082,46.736801,1149.93 12.1575,46.73682,1149.44 12.157926,46.736895,1149.91 12.158236,46.736934,1150.58 12.15858,46.736951,1151.33 12.159254,46.736944,1151.75 12.160766,46.736881,1152.7 12.162131,46.736839,1154.11 12.162689,46.736815,1152.64 12.162826,46.736861,1151.68 12.162848,46.736905,1151.68 12.162828,46.737169,1151.67 12.162778,46.737708,1150.2 12.16276,46.737916,1149.71 12.162767,46.738149,1149.22 12.162946,46.738178,1149.7 12.163386,46.738197,1150.16 12.164806,46.738037,1152.04 12.165081,46.738007,1152.03 12.165377,46.738005,1151.76 12.165606,46.738045,1151.54 12.165849,46.738123,1152.01 12.166063,46.738144,1152.19 12.166378,46.73814,1152.47 12.166665,46.738098,1152.68 12.166989,46.738084,1152.91 12.167711,46.738132,1153.39 12.168182,46.738238,1153.87 12.168653,46.738228,1153.85 12.168914,46.738205,1154.05 12.169251,46.738152,1154.31 12.170278,46.737865,1154.76 12.170831,46.737694,1155.7 12.171474,46.737537,1156.64 12.172078,46.737478,1157.61 12.172409,46.73743,1158.15 12.172635,46.737377,1158.53 12.172818,46.737264,1158.85 12.173109,46.737134,1159.29 12.173466,46.736976,1159.84 12.173879,46.736829,1160.4 12.174438,46.736701,1160.97 12.175281,46.73657,1161.81 12.175943,46.736473,1162.69 12.176783,46.736452,1163.68 12.178221,46.736475,1166.04 12.179146,46.736453,1168.42 12.180675,46.736197,1168.85 12.182649,46.736093,1168.79 12.18451,46.736,1172.1 12.185273,46.735935,1173.52 12.186525,46.735825,1174.85 12.187916,46.735725,1176.33 12.188491,46.735658,1176.81 12.188935,46.735585,1177.18 12.189547,46.735439,1177.72 12.192001,46.734821,1180.04 12.193806,46.734245,1182.39 12.195271,46.733707,1185.22 12.196663,46.733131,1188.05 12.197471,46.7328,1188.02 12.198669,46.732624,1188.94 12.1997,46.732349,1189.88 12.199936,46.73225,1189.87 12.200103,46.731998,1189.86 12.200162,46.731907,1189.86 12.200222,46.731807,1191.29 12.200274,46.73175,1191.21 12.200455,46.731716,1191.21 12.202134,46.731361,1193.64 12.203008,46.731202,1195.58 12.203847,46.731023,1196.58 12.204611,46.73083,1196.93 12.204851,46.730761,1197.04 12.205158,46.730743,1197.58 12.205679,46.730764,1198.49 12.20603,46.730821,1199.46 12.207117,46.730945,1203.32 12.207902,46.731033,1205.73 12.208332,46.731081,1207.37 12.208668,46.73108,1208.62 12.209077,46.731036,1210.08 12.2094,46.730958,1211.04 12.209725,46.730841,1212.49 12.210344,46.730552,1213.32 12.210835,46.730373,1213.94 12.211133,46.73031,1214.36 12.212286,46.730267,1215.88 12.212921,46.730196,1216.58 12.214036,46.729981,1217.84 12.216442,46.729523,1220.27 12.217469,46.729355,1221.24 12.218719,46.729145,1221.74 12.220268,46.728893,1222.23 12.220785,46.728795,1222.32 12.221148,46.728746,1222.39 12.221699,46.728735,1222.51 12.222018,46.72877,1222.57 12.222316,46.728835,1222.64 12.222706,46.728977,1222.62 12.223561,46.729394,1222.6 12.224043,46.729635,1223.15 12.224385,46.729794,1223.53 12.225468,46.730295,1226.86 12.226345,46.730704,1228.75 12.226753,46.730833,1228.74 12.227086,46.730911,1228.73 12.22752,46.730964,1228.72 12.227746,46.730968,1228.71 12.227949,46.730952,1228.7 12.228306,46.730924,1228.7 12.228653,46.730857,1228.69 12.229493,46.730576,1225.78 12.230974,46.730085,1222.86 12.231932,46.72977,1220.9 12.233213,46.729339,1217.5 12.235175,46.7287,1214.08 12.236718,46.728189,1210.19 12.237097,46.728088,1209.86 12.237611,46.72798,1209.36 12.237944,46.727931,1209.04 12.238428,46.727871,1208.58 12.238802,46.727819,1208.22 12.239249,46.727728,1206.98 12.239624,46.727614,1205.9 12.2399,46.727492,1205.03 12.240244,46.727316,1203.89 12.240528,46.727144,1203.38 12.240808,46.726962,1203.07 12.241114,46.72678,1202.75 12.241516,46.726623,1202.62 12.241884,46.726527,1202.41 12.242175,46.726482,1202.26 12.242481,46.726476,1202.09 12.243614,46.726496,1201.19 12.244601,46.72652,1200.41 12.245387,46.726547,1200.05 12.246261,46.726577,1199.65 12.246956,46.726585,1199.33 12.247728,46.726553,1199.31 12.248294,46.726501,1199.29 12.248941,46.726462,1199.28 12.249371,46.726457,1199.27 12.249799,46.726476,1199.25 12.250401,46.726516,1199.04 12.250894,46.726551,1198.86 12.251383,46.726587,1198.68 12.251964,46.726648,1198.47 12.252334,46.726702,1198.33 12.252636,46.726777,1198.22 12.253101,46.726914,1197.25 12.254383,46.727389,1194.33 12.254827,46.727555,1193.47 12.255285,46.727708,1192.6 12.255666,46.727825,1191.88 12.256371,46.728002,1190.27 12.256866,46.728136,1189.12 12.257098,46.728233,1188.54 12.257297,46.728339,1187.99 12.257873,46.728678,1187.49 12.25815,46.728834,1187.48 12.258436,46.728953,1187.48 12.258704,46.729002,1187.47 12.258939,46.729016,1187.46 12.259134,46.729008,1187.46 12.259497,46.728956,1187.29 12.260172,46.728877,1186.95 12.260584,46.728834,1186.46 12.260961,46.728813,1186.23 12.261211,46.728827,1186.08 12.261515,46.72887,1185.89 12.261795,46.728948,1185.7 12.262143,46.729081,1185.46 12.262487,46.729206,1185.45 12.264174,46.72984,1185.4 12.264662,46.729979,1185.38 12.265141,46.730098,1185.37 12.266407,46.730376,1185.6 12.266963,46.730523,1185.39 12.267446,46.730694,1185.2 12.268095,46.730943,1184.53 12.268913,46.731246,1183.32 12.26947,46.731469,1182.48 12.269839,46.731703,1182.1 12.270083,46.731859,1181.85 12.270394,46.732076,1181.49 12.270547,46.732235,1181.28 12.270745,46.732447,1180.99 12.270936,46.732613,1180.96 12.27111,46.732738,1180.93 12.271313,46.732844,1180.9 12.272127,46.733202,1181.17 12.272692,46.733435,1181.71 12.273236,46.733632,1182.22 12.274024,46.733856,1183.11 12.274498,46.733962,1183.63 12.275615,46.734148,1183.6 12.276267,46.734251,1183.47 12.27673,46.734355,1183.38 12.277287,46.734508,1183.27 12.277752,46.73465,1183.18 12.27841,46.734857,1183.71 12.279151,46.735062,1184.29 12.279704,46.735149,1185.06 12.280117,46.735184,1185.62 12.280488,46.735194,1186.12 12.280878,46.73522,1186.65 12.28128,46.735301,1187.21 12.281565,46.735392,1187.84 12.281766,46.735474,1188.24 12.282113,46.735651,1189.18 12.282461,46.735852,1190.14 12.282896,46.736052,1190.57 12.283234,46.736159,1190.87 12.283456,46.736204,1191.07 12.283805,46.736236,1190.92 12.284141,46.736226,1190.79 12.28441,46.736185,1190.68 12.28472,46.736077,1190.55 12.285185,46.735828,1190.06 12.28549,46.735694,1188.91 12.285741,46.735604,1188.01 12.286203,46.735503,1186.47 12.286589,46.735458,1185.22 12.286893,46.735421,1184.12 12.287153,46.735359,1183.13 12.287438,46.735265,1182.29 12.287711,46.735153,1181.44 12.288017,46.73497,1180.36 12.289086,46.734374,1177.45 12.289665,46.734096,1176.29 12.290255,46.73387,1176.32 12.290781,46.733688,1176.34 12.291445,46.733467,1176.37 12.291768,46.73339,1175.29 12.292082,46.733336,1174.26 12.292483,46.733264,1173.4 12.293281,46.733142,1172.77 12.293668,46.733061,1172.46 12.293854,46.732999,1172.55 12.294059,46.732919,1172.65 12.294276,46.732827,1172.75 12.294453,46.732779,1172.83 12.294579,46.732751,1172.89 12.294868,46.732709,1173.05 12.295283,46.732659,1173.6 12.295682,46.732589,1174.14 12.295956,46.732534,1174.87 12.296272,46.73245,1175.74 12.29659,46.732356,1175.57 12.296848,46.73229,1174.25 12.297121,46.732257,1173.53 12.297489,46.732226,1172.56 12.297792,46.732211,1171.77 12.298124,46.732185,1171.18 12.298355,46.732161,1170.76 12.298597,46.732093,1170.3 12.298821,46.732012,1169.85 12.299076,46.731908,1169.47 12.299227,46.731866,1169.25 12.299363,46.731835,1169.07 12.299564,46.731806,1168.94 12.299834,46.731772,1168.76 12.300135,46.731725,1168.56 12.300384,46.731677,1168.66 12.300649,46.731566,1168.78 12.300863,46.731422,1168.89 12.301028,46.731289,1169.25 12.301188,46.731183,1169.56 12.301383,46.731099,1169.88 12.301657,46.73103,1170.89 12.301954,46.730963,1171.99 12.302458,46.730854,1174.5 12.302755,46.730796,1176.02 12.303102,46.730748,1177.8 12.303616,46.73069,1179.19 12.303933,46.730629,1179.2 12.304343,46.730546,1178.83 12.30465,46.730476,1178.54 12.305038,46.730404,1178.19 12.305411,46.730353,1177.86 12.305883,46.730314,1177.44 12.306513,46.730289,1176.89 12.306923,46.730289,1176.43 12.307328,46.730284,1175.87 12.307648,46.730268,1175.43 12.307944,46.730241,1175.03 12.308333,46.730185,1173.35 12.308767,46.730109,1171.7 12.309252,46.730023,1167.87 12.309671,46.729957,1163.63 12.310018,46.72992,1162.37 12.310347,46.729884,1162.68 12.311174,46.729815,1164.42 12.312022,46.729783,1165.63 12.312389,46.729777,1165.65 12.312945,46.729779,1165.69 12.313407,46.729786,1165.3 12.31379,46.729784,1164.99 12.314178,46.729773,1164.67 12.314667,46.729738,1164.26 12.31517,46.729674,1162.03 12.315728,46.729593,1159.54 12.316207,46.729514,1156.67 12.316525,46.729462,1154.4 12.316784,46.729423,1152.55 12.31707,46.729387,1151.96 12.317324,46.729358,1152.15 12.317588,46.729343,1152.35 12.31782,46.729345,1153.16 12.318053,46.729354,1153.97 12.318323,46.729378,1154.91 12.31866,46.729431,1154.92 12.318929,46.729495,1155.11 12.31954,46.729703,1155.56 12.320119,46.729906,1155.95 12.321277,46.73033,1154.56 12.322013,46.730583,1153.28 12.322533,46.730745,1153.27 12.323049,46.730881,1153.84 12.323974,46.731138,1154.85 12.324198,46.731205,1155.24 12.324639,46.731357,1153.65 12.32506,46.731504,1153.01 12.325517,46.731689,1152.29 12.325889,46.73184,1151.7 12.326137,46.731934,1151.32 12.326408,46.732025,1150.47 12.326843,46.732125,1149.17 12.327156,46.732175,1148.26 12.327578,46.732225,1147.05 12.328676,46.732351,1145.72 12.328926,46.732366,1145.62 12.32925,46.732372,1146.11 12.329783,46.732361,1146.92 12.330179,46.732372,1147.51 12.330567,46.732402,1147.89 12.330982,46.732435,1147.73 12.331756,46.732565,1147.94 12.332253,46.732677,1148.16 12.332636,46.732733,1148.41 12.333046,46.732802,1148.6 12.333409,46.732841,1148.71 12.333817,46.732879,1148.52 12.334264,46.73292,1148.32 12.335367,46.732992,1147.82 12.336031,46.733021,1146.86 12.336501,46.733003,1146.18 12.337031,46.732987,1145.42 12.337462,46.732975,1144.8 12.338002,46.733036,1144.07 12.338378,46.733083,1143.59 12.338722,46.733141,1143.14 12.339084,46.733166,1142.67 12.339377,46.733139,1142.15 12.339669,46.733099,1141.74 12.3401,46.733096,1141.07 12.340378,46.733142,1140.62 12.340855,46.733236,1140.67 12.341238,46.733297,1141.33 12.341527,46.733306,1141.81 12.341899,46.733295,1141.49 12.34227,46.733262,1141.18 12.342608,46.733216,1140.89 12.342942,46.733215,1140.73 12.343274,46.7333,1140.44 12.343496,46.733402,1139.6 12.343728,46.733552,1138.61 12.34412,46.733748,1138.63 12.344697,46.733974,1138.65 12.345036,46.734113,1138.66 12.345345,46.734248,1138.67 12.345694,46.734429,1138.67 12.346016,46.734619,1139.18 12.34636,46.73478,1139.62 12.346632,46.734885,1139.36 12.346951,46.734975,1139.07 12.347339,46.735058,1138.74 12.347922,46.735162,1138.24 12.348688,46.735331,1137.79 12.349162,46.735475,1137.51 12.350208,46.735829,1136.88 12.351973,46.73647,1137.71 12.352353,46.736596,1137.81 12.352687,46.736694,1137.9 12.353363,46.73683,1138.08 12.354019,46.736957,1137.91 12.354798,46.737071,1137.7 12.355376,46.737151,1137.56 12.355984,46.737252,1137.4 12.356468,46.737346,1137.37 12.357037,46.737451,1137.32 12.357596,46.737534,1137.28 12.358222,46.737612,1137.24 12.358483,46.737647,1137.22 12.358771,46.737701,1137.19 12.358992,46.737774,1136.87 12.359301,46.7379,1136.38 12.359717,46.738124,1135.51 12.359963,46.738245,1135.45 12.36056,46.73847,1135.32 12.361216,46.738696,1135.66 12.361723,46.738852,1135.91 12.362058,46.738928,1135.67 12.362661,46.738987,1135.26 12.363268,46.739016,1134.83 12.363773,46.739037,1134.55 12.365004,46.739091,1132.51 12.365381,46.739107,1131.88 12.365751,46.739114,1131.27 12.366076,46.739116,1130.65 12.366395,46.739145,1130.04 12.366773,46.739226,1129.29 12.367087,46.739324,1128.63 12.367417,46.739481,1127.48 12.367861,46.739716,1126.26 12.368311,46.739957,1124.96 12.368563,46.740066,1124 12.368787,46.740141,1123.48 12.369059,46.740243,1122.83 12.369312,46.740312,1122.52 12.369607,46.740369,1122.16 12.370165,46.740456,1121.49 12.371016,46.740608,1121.67 12.371694,46.740669,1121.8 12.372251,46.74068,1121.91 12.373197,46.740629,1121.32 12.374406,46.740487,1120.55 12.375633,46.740333,1119.89 12.376434,46.740259,1119.46 12.3771,46.740235,1119.52 12.377738,46.740265,1119.58 12.378591,46.740322,1120.23 12.379378,46.740407,1121.44 12.380074,46.740502,1122.52 12.38086,46.740606,1123.74 12.38123,46.740658,1123.68 12.381952,46.740723,1123.57 12.382572,46.740742,1123.48 12.383375,46.740718,1123.12 12.383892,46.740729,1122.88 12.384158,46.740729,1122.76 12.38464,46.740789,1122.54 12.385025,46.740856,1122.36 12.385407,46.740983,1122.16 12.385748,46.741123,1122.06 12.38601,46.741282,1121.96 12.386392,46.741611,1121.66 12.386679,46.741935,1121.4 12.38682,46.742099,1121.26 12.387082,46.742297,1121.07 12.387568,46.742511,1120.66 12.388236,46.742771,1120.12 12.388811,46.742926,1119.7 12.390242,46.743216,1116.39 12.390813,46.743307,1115.45 12.391588,46.743441,1112.6 12.392469,46.743633,1108.79 12.393123,46.743818,1104.49 12.393491,46.743982,1102.87 12.393644,46.744082,1102.09 12.393783,46.744228,1101.16 12.393965,46.744435,1100.73 12.39488,46.745424,1099.36 12.395039,46.745535,1099.1 12.395324,46.74565,1098.74 12.395595,46.745688,1098.43 12.396964,46.745728,1097.54 12.397867,46.745735,1096.95 12.398407,46.745733,1096.6 12.398821,46.745781,1096.35 12.399451,46.745867,1096.33 12.399868,46.745922,1096.32 12.400221,46.74593,1096.31 12.40107,46.745868,1096.29 12.402111,46.745814,1096.29 12.403456,46.745815,1096.29 12.406114,46.745874,1093.98 12.407696,46.745919,1090.68 12.408733,46.745993,1088.3 12.409598,46.746062,1087.85 12.410422,46.746116,1087.43 12.410979,46.746152,1087.14 12.41157,46.74622,1086.83 12.412153,46.74634,1086.52 12.414429,46.746905,1082.69 12.41466,46.746968,1082.3 12.41485,46.74684,1082.01 12.414938,46.746346,1081.24 12.414944,46.746123,1080.9 12.415181,46.74609,1080.9 12.41535,46.7461,1080.91 12.41565,46.746118,1080.92 12.41645,46.746309,1080.95 12.416765,46.746386,1080.97 12.416861,46.74654,1080.81 12.417291,46.746598,1080.53 12.417522,46.746673,1080.37 12.417662,46.746736,1080.26 12.417811,46.746781,1080.16 12.417951,46.746822,1080
          </coordinates>
        </LineString>
      </MultiGeometry>
    </Placemark>
  </Folder>
</Document>
</kml>