<?xml version="1.0" encoding="UTF-8"?>
<kml xmlns="http://www.opengis.net/kml/2.2">
  <Document>
    <name>Port de Soller - Sa Calobra - Port de Pollença</name>
    <Placemark>
      <name>Port de Soller - Sa Calobra - Port de Pollença</name>
      <LineString>
        <tessellate>1</tessellate>
        <coordinates>
2.6966,39.79339,5.2 2.6966,39.79339,5.2 2.6966,39.79339,5.2 2.69647,39.79316,7.3 2.69634,39.79297,8.2 2.69635,39.79296,8.4 2.69622,39.79277,8.1 2.696,39.79249,4.9 2.69569,39.79211,10.5 2.69526,39.79167,14.6 2.6948,39.79113,11.6 2.69475,39.79106,11.6 2.69471,39.79098,11.8 2.69468,39.79089,12.1 2.69467,39.79078,12.1 2.69467,39.79059,11.0 2.69471,39.79024,9.3 2.69479,39.78988,7.8 2.69483,39.78975,7.2 2.69493,39.78951,6.2 2.69523,39.78887,5.2 2.69553,39.78822,5.3 2.69565,39.78791,6.3 2.69586,39.78725,7.7 2.69603,39.78697,9.5 2.69634,39.78665,10.3 2.69671,39.78633,11.1 2.6973,39.78585,12.8 2.69789,39.78537,16.7 2.69821,39.78507,13.9 2.69828,39.78498,12.4 2.69878,39.78423,17.2 2.69928,39.78347,16.8 2.6995,39.78312,19.5 2.69966,39.78285,19.8 2.69976,39.78272,19.2 2.69987,39.7826,18.2 2.7,39.78238,15.7 2.70016,39.78213,14.6 2.70053,39.78155,8.4 2.7009,39.78099,7.3 2.70107,39.78075,7.0 2.70126,39.78054,7.5 2.70135,39.78047,7.7 2.70157,39.78029,7.7 2.70162,39.78033,7.7 2.70165,39.78033,7.7 2.70173,39.78034,7.8 2.70214,39.78032,7.7 2.70225,39.78032,7.7 2.70233,39.7803,7.7 2.70254,39.78025,7.6 2.70313,39.78018,7.6 2.70325,39.78013,7.4 2.70355,39.77987,7.5 2.70372,39.77974,7.9 2.70403,39.77957,8.4 2.7043,39.77934,9.0 2.70444,39.77906,9.4 2.70458,39.77864,9.8 2.70511,39.77919,10.0 2.70563,39.77974,10.5 2.70615,39.78029,13.7 2.70667,39.78084,17.1 2.70691,39.7811,20.8 2.70705,39.78122,22.1 2.70719,39.78128,23.3 2.70747,39.78134,25.9 2.7081,39.78141,31.5 2.70884,39.7815,34.4 2.70893,39.7815,34.9 2.70903,39.78148,35.9 2.70942,39.78135,39.7 2.71006,39.78109,42.1 2.71069,39.78084,41.4 2.71083,39.78081,41.1 2.71096,39.7808,41.2 2.71108,39.78082,41.3 2.71115,39.78086,41.5 2.71125,39.78093,42.1 2.71182,39.78139,46.6 2.71187,39.78146,47.3 2.71191,39.78155,48.1 2.71189,39.78165,48.7 2.71186,39.78174,50.6 2.71179,39.78182,52.3 2.71172,39.78187,53.3 2.71093,39.78228,55.6 2.71079,39.78239,55.7 2.71072,39.78251,56.4 2.71068,39.78264,57.2 2.71071,39.78279,59.4 2.71075,39.78301,62.8 2.71076,39.7832,65.4 2.71073,39.78332,66.0 2.71058,39.7837,60.9 2.71056,39.78377,60.2 2.71056,39.78383,60.1 2.71058,39.78389,60.4 2.71061,39.78395,60.9 2.71068,39.784,62.3 2.71077,39.78404,64.2 2.71086,39.78406,66.0 2.71097,39.78405,68.2 2.71108,39.78399,70.6 2.71117,39.78391,72.8 2.71119,39.78384,73.6 2.7112,39.78377,74.2 2.71115,39.78322,73.7 2.71118,39.78308,72.0 2.71122,39.78298,71.0 2.71133,39.78286,70.9 2.71151,39.78276,71.9 2.71166,39.78271,73.2 2.71183,39.78268,73.8 2.71197,39.78269,74.9 2.71215,39.78273,77.1 2.71261,39.78287,83.6 2.71343,39.78313,92.6 2.71364,39.78314,95.1 2.71378,39.78313,96.2 2.71393,39.78308,96.4 2.71408,39.783,96.0 2.71467,39.78262,94.1 2.71478,39.78256,93.9 2.71499,39.78251,95.2 2.71513,39.78253,96.4 2.71525,39.78258,98.3 2.71544,39.78269,102.1 2.71571,39.78284,107.4 2.71584,39.7829,109.7 2.71592,39.78292,111.3 2.71606,39.78292,113.2 2.71619,39.7829,114.6 2.71632,39.78286,115.6 2.71642,39.78277,115.3 2.71646,39.78267,114.1 2.71648,39.78229,108.9 2.71653,39.78218,108.7 2.71691,39.78166,112.6 2.71704,39.7815,112.8 2.71719,39.78138,114.4 2.71784,39.78096,121.9 2.71803,39.78077,124.6 2.71817,39.78062,128.8 2.71824,39.78052,131.0 2.71827,39.78044,132.2 2.71828,39.78036,132.8 2.71826,39.78028,132.6 2.71822,39.7802,131.9 2.71807,39.77996,128.7 2.71803,39.77987,128.3 2.71797,39.77962,128.8 2.71795,39.7795,129.3 2.71795,39.77936,130.6 2.71797,39.77924,132.1 2.71802,39.77914,133.5 2.71817,39.77898,134.4 2.71838,39.77881,134.9 2.71851,39.77873,134.3 2.71864,39.7787,134.6 2.71906,39.7787,137.3 2.71983,39.7787,140.9 2.72,39.77873,142.1 2.72009,39.77879,143.3 2.72014,39.77886,144.7 2.7202,39.77898,147.0 2.72028,39.7792,151.4 2.72034,39.77926,152.8 2.72044,39.77934,154.8 2.72056,39.7794,156.7 2.72071,39.77943,158.1 2.72081,39.77943,158.5 2.72093,39.7794,159.3 2.72108,39.77932,159.4 2.72126,39.77914,157.6 2.72146,39.77897,157.0 2.72162,39.77888,157.5 2.72176,39.77882,157.8 2.72195,39.77878,158.7 2.7223,39.77874,161.0 2.72243,39.77875,162.4 2.72255,39.77878,163.3 2.72265,39.77884,163.8 2.72285,39.77898,165.2 2.72303,39.77916,167.4 2.72322,39.77935,170.3 2.72351,39.77982,178.2 2.72382,39.78035,188.7 2.72397,39.78041,189.2 2.72413,39.78041,188.1 2.72445,39.78033,184.9 2.72474,39.78034,184.8 2.725,39.7804,186.4 2.72528,39.78061,188.6 2.72539,39.78076,191.6 2.7257,39.78109,200.1 2.72584,39.78121,204.0 2.72602,39.78132,207.7 2.72629,39.78138,208.1 2.72657,39.78135,204.2 2.7273,39.78121,203.8 2.728,39.78112,205.6 2.72868,39.78109,207.5 2.72891,39.78113,209.2 2.72907,39.78123,212.8 2.72926,39.78135,216.8 2.72946,39.7814,218.6 2.73014,39.78141,219.5 2.7305,39.78145,220.7 2.73076,39.78153,223.4 2.73097,39.78165,226.8 2.7311,39.78189,230.1 2.7311,39.78204,232.4 2.73103,39.78227,236.3 2.73096,39.78244,239.3 2.73066,39.78283,243.7 2.73035,39.78322,248.2 2.73029,39.78333,249.2 2.73026,39.7834,250.6 2.73025,39.78348,252.0 2.73026,39.78355,253.0 2.73033,39.78366,254.0 2.73043,39.78374,254.2 2.7306,39.78381,253.6 2.73073,39.78383,252.6 2.73084,39.78382,251.4 2.73093,39.78379,251.8 2.73107,39.78371,251.8 2.73134,39.7835,250.3 2.73145,39.78347,250.8 2.73158,39.78346,251.9 2.7317,39.78347,253.0 2.7318,39.78351,254.1 2.73221,39.7838,259.5 2.73237,39.78389,260.6 2.73269,39.78399,261.4 2.7334,39.78419,262.8 2.73353,39.78424,262.5 2.73365,39.7843,262.5 2.73378,39.78439,263.1 2.73393,39.78459,266.1 2.73404,39.7848,269.7 2.73411,39.78497,272.9 2.73417,39.78504,274.3 2.73423,39.78509,275.5 2.73431,39.78513,276.2 2.73441,39.78515,276.1 2.73454,39.78517,275.8 2.73522,39.78518,271.9 2.73532,39.78519,271.9 2.73543,39.78522,272.6 2.73555,39.78526,273.5 2.73617,39.78554,278.8 2.73679,39.78581,283.7 2.73728,39.78604,287.2 2.7374,39.7861,287.8 2.7375,39.78618,288.9 2.73763,39.78631,289.5 2.73769,39.78642,290.9 2.73808,39.78716,298.2 2.73832,39.78766,301.0 2.73834,39.78775,301.6 2.73833,39.78783,302.6 2.73829,39.78789,304.0 2.73824,39.78794,305.3 2.73818,39.78797,306.6 2.7381,39.78799,308.1 2.73801,39.78799,309.5 2.73793,39.78797,310.7 2.73784,39.78792,311.8 2.7378,39.78787,312.2 2.73773,39.78779,312.9 2.73752,39.78742,314.1 2.73736,39.78715,311.4 2.73728,39.78707,311.0 2.73721,39.78702,311.0 2.73713,39.78699,311.5 2.73699,39.78696,312.8 2.73599,39.78684,321.2 2.73517,39.78676,328.0 2.73451,39.78672,333.2 2.73428,39.78672,335.4 2.73382,39.78674,338.5 2.73298,39.78679,343.3 2.73215,39.78684,345.8 2.73205,39.78686,346.5 2.73198,39.78689,347.9 2.73186,39.78695,350.8 2.73164,39.78709,357.9 2.73156,39.78713,360.3 2.73148,39.78715,361.5 2.73137,39.78716,362.1 2.73113,39.78714,361.3 2.73086,39.78711,359.9 2.73021,39.78701,358.0 2.73008,39.787,358.2 2.72989,39.78701,359.8 2.72971,39.78703,361.9 2.72927,39.78712,368.0 2.72913,39.78713,369.4 2.72895,39.7871,371.2 2.72878,39.78698,370.3 2.72854,39.78674,368.7 2.7279,39.78607,372.0 2.72754,39.78578,374.3 2.72728,39.7857,373.6 2.72705,39.78568,374.3 2.72683,39.78571,376.7 2.72651,39.78581,379.3 2.72621,39.7861,382.3 2.72609,39.78632,386.3 2.72609,39.78655,391.6 2.72625,39.78696,393.8 2.72653,39.78749,394.2 2.72656,39.78762,393.9 2.72658,39.78795,392.6 2.72661,39.78871,392.8 2.72664,39.78948,396.7 2.72665,39.78971,398.2 2.72664,39.78986,399.0 2.72659,39.78995,399.3 2.7265,39.79003,399.9 2.7264,39.79008,400.5 2.72617,39.79013,400.6 2.72578,39.7902,400.1 2.72538,39.79028,397.8 2.72528,39.79032,397.5 2.72519,39.79038,397.6 2.72515,39.79044,398.1 2.72512,39.79052,399.0 2.72513,39.7906,400.4 2.72517,39.79066,401.9 2.72522,39.79071,403.4 2.72535,39.79077,406.3 2.72546,39.79079,408.4 2.72573,39.79076,411.8 2.72629,39.79068,413.7 2.72653,39.7907,415.3 2.72704,39.79079,421.4 2.72719,39.79081,423.0 2.72734,39.7908,424.2 2.72741,39.79079,424.7 2.72753,39.79075,425.6 2.72759,39.7907,426.2 2.72765,39.7906,426.6 2.7279,39.78989,429.9 2.72794,39.78971,430.2 2.72798,39.78923,428.6 2.72802,39.78912,428.5 2.72813,39.78902,429.3 2.7283,39.78895,431.8 2.72876,39.7889,437.0 2.7294,39.78884,442.1 2.73004,39.78878,444.9 2.73017,39.7888,444.7 2.73028,39.78883,445.1 2.7304,39.78888,446.1 2.73129,39.7894,457.5 2.7316,39.78957,459.9 2.73246,39.78993,458.0 2.73261,39.79004,456.0 2.73268,39.79012,454.1 2.73269,39.79027,453.6 2.73266,39.79034,454.2 2.73262,39.7904,455.1 2.73255,39.79046,456.7 2.73246,39.79053,458.9 2.732,39.79081,473.7 2.73182,39.79094,479.0 2.73169,39.79106,481.9 2.73161,39.79118,481.8 2.73156,39.79129,481.2 2.73154,39.79139,480.4 2.73158,39.79164,477.3 2.73174,39.79197,481.0 2.73189,39.79232,486.5 2.73194,39.79241,488.0 2.73201,39.7925,489.3 2.73212,39.79256,489.9 2.73224,39.79259,489.6 2.73237,39.79258,488.0 2.73251,39.79254,485.7 2.73291,39.79218,483.3 2.73308,39.79205,481.4 2.73325,39.79198,481.3 2.73348,39.79195,482.0 2.73446,39.79191,485.2 2.73543,39.79188,493.7 2.7364,39.79184,503.4 2.73738,39.7918,502.1 2.73758,39.79177,501.8 2.73769,39.79175,501.7 2.73819,39.7916,501.0 2.73834,39.79156,498.7 2.73845,39.79157,499.6 2.7388,39.79163,504.4 2.73965,39.79181,516.8 2.74057,39.79198,521.7 2.74088,39.79209,525.1 2.74148,39.79233,529.5 2.74207,39.79256,533.1 2.74229,39.79263,532.3 2.74248,39.79266,530.7 2.74276,39.79264,529.5 2.74347,39.79252,528.2 2.74418,39.79239,531.9 2.74445,39.79239,532.8 2.7447,39.79241,534.3 2.74487,39.79245,536.2 2.74504,39.79253,537.5 2.74529,39.7927,534.4 2.74585,39.79337,525.0 2.74644,39.79411,526.1 2.74681,39.79452,529.4 2.7472,39.79502,534.4 2.74732,39.7951,535.2 2.74746,39.79516,535.6 2.74757,39.79517,536.1 2.7477,39.79515,536.7 2.74794,39.79505,536.9 2.7486,39.79465,536.0 2.74885,39.79453,537.6 2.74939,39.79435,542.5 2.74994,39.79416,546.8 2.75036,39.79403,544.8 2.75057,39.794,545.1 2.75074,39.794,546.6 2.75092,39.79403,549.1 2.75157,39.79424,559.2 2.75222,39.79444,563.1 2.75269,39.79458,563.5 2.75304,39.79474,563.6 2.75371,39.7952,572.3 2.75385,39.79527,574.1 2.75459,39.79552,577.6 2.7554,39.79581,579.4 2.75572,39.79598,581.1 2.75641,39.79638,587.7 2.75652,39.79643,588.1 2.75742,39.79663,587.5 2.75832,39.79683,590.3 2.75845,39.79684,590.9 2.75854,39.79683,591.2 2.7594,39.79656,596.5 2.76026,39.7963,608.1 2.76057,39.79619,612.6 2.76069,39.7961,613.1 2.76125,39.79556,611.5 2.76135,39.7955,611.6 2.7616,39.79544,614.6 2.76218,39.79531,616.4 2.76243,39.79529,618.2 2.76265,39.79529,619.2 2.76289,39.79532,621.0 2.76351,39.79543,626.6 2.76377,39.79545,628.2 2.76464,39.79539,630.9 2.76501,39.79538,633.1 2.76523,39.7954,634.7 2.76586,39.79549,639.5 2.76649,39.79558,642.6 2.76668,39.79556,642.9 2.76677,39.79555,643.7 2.76689,39.79551,644.5 2.76717,39.79543,646.7 2.76729,39.7954,647.8 2.76742,39.79539,649.2 2.76752,39.7954,650.5 2.76761,39.79542,651.7 2.76769,39.79546,653.1 2.76775,39.79553,654.6 2.76778,39.7956,655.8 2.76779,39.79568,656.9 2.76778,39.79573,657.4 2.76773,39.79581,657.8 2.76769,39.79584,657.7 2.76718,39.79608,659.1 2.76666,39.79631,660.2 2.76656,39.79638,662.6 2.76652,39.79645,664.8 2.76649,39.79654,667.6 2.76651,39.79661,669.5 2.76655,39.7967,672.1 2.76662,39.79676,673.7 2.76671,39.7968,675.3 2.7668,39.79681,676.6 2.76697,39.79679,677.8 2.76711,39.79672,677.0 2.76752,39.79628,668.8 2.76759,39.79621,667.9 2.76774,39.79615,668.6 2.76781,39.79613,669.1 2.76807,39.79612,673.0 2.76911,39.79613,682.4 2.77015,39.79615,685.9 2.77042,39.79613,687.7 2.77058,39.79611,688.8 2.7708,39.79605,689.8 2.77104,39.79594,691.8 2.77122,39.79581,693.2 2.77136,39.79565,696.4 2.77145,39.79548,698.9 2.77154,39.79525,702.0 2.77154,39.79504,703.4 2.77147,39.79483,705.0 2.77132,39.79458,706.0 2.77086,39.79399,707.2 2.7704,39.7934,711.8 2.7703,39.79325,713.0 2.77027,39.79316,713.3 2.77027,39.79308,713.8 2.7703,39.793,714.6 2.77037,39.79291,716.0 2.77048,39.79285,717.8 2.77064,39.79281,720.2 2.77079,39.79283,721.9 2.7709,39.79286,723.2 2.77107,39.79299,724.7 2.77163,39.79347,728.3 2.77211,39.79384,734.2 2.77236,39.79404,736.9 2.77248,39.79419,737.2 2.77291,39.79473,736.6 2.77303,39.79481,737.1 2.77311,39.79485,737.6 2.77319,39.79486,738.6 2.77328,39.79488,739.6 2.77339,39.79488,741.5 2.77369,39.79486,747.4 2.77395,39.79483,752.9 2.77414,39.79482,756.6 2.77421,39.79484,757.5 2.77428,39.79487,758.1 2.77434,39.79491,758.5 2.77438,39.79496,758.2 2.77441,39.79502,758.0 2.77449,39.79555,759.3 2.77457,39.79608,763.7 2.77458,39.79632,766.8 2.77457,39.7964,767.5 2.7745,39.79659,767.9 2.77429,39.79691,770.1 2.77409,39.79718,773.4 2.77391,39.79735,775.2 2.77384,39.7974,775.5 2.77346,39.79758,774.8 2.77304,39.79774,771.3 2.77299,39.79778,771.5 2.77294,39.79783,772.0 2.7729,39.7979,773.4 2.77289,39.79798,775.7 2.77291,39.79807,779.0 2.773,39.79815,783.6 2.77307,39.79819,786.4 2.77316,39.79822,789.4 2.7733,39.79823,792.9 2.77339,39.79822,794.5 2.77347,39.79818,794.9 2.77352,39.79813,794.2 2.77379,39.7978,788.2 2.77385,39.79775,787.5 2.77391,39.79773,787.9 2.774,39.79771,788.8 2.77435,39.79768,795.0 2.77455,39.79764,798.1 2.77479,39.79757,801.0 2.77488,39.79752,801.1 2.77496,39.79746,801.1 2.7751,39.79731,801.0 2.77535,39.79693,798.6 2.7755,39.79676,798.7 2.77558,39.79671,799.8 2.77583,39.79656,803.7 2.77615,39.79638,811.8 2.77624,39.79632,813.5 2.77632,39.79625,814.4 2.77639,39.79616,814.3 2.77644,39.79609,814.0 2.7767,39.79567,812.5 2.77717,39.7952,820.5 2.7772,39.79515,820.8 2.77723,39.79507,820.8 2.77724,39.79502,820.6 2.77723,39.79494,820.9 2.77718,39.79474,821.9 2.77706,39.79445,822.2 2.77703,39.79434,822.6 2.77694,39.79418,822.1 2.77648,39.79367,829.7 2.77639,39.79358,831.1 2.77623,39.79347,831.7 2.77564,39.79315,828.4 2.77559,39.7931,828.4 2.77556,39.79304,829.0 2.77554,39.79297,830.1 2.77552,39.79256,838.5 2.77549,39.79235,843.1 2.77543,39.79218,845.5 2.77507,39.79144,851.2 2.77488,39.79112,855.0 2.77456,39.79069,856.7 2.77447,39.79054,860.7 2.77444,39.79043,861.3 2.77446,39.79036,861.7 2.77455,39.7903,862.2 2.7755,39.7898,867.3 2.77644,39.78931,872.4 2.77739,39.78882,877.5 2.77834,39.78833,882.5 2.77846,39.78827,883.2 2.77858,39.78823,883.8 2.77866,39.78822,882.2 2.77872,39.78823,881.3 2.7788,39.78825,880.0 2.77886,39.78828,879.1 2.77892,39.78833,878.3 2.77936,39.78886,886.0 2.77951,39.78896,885.5 2.77995,39.78914,878.1 2.78066,39.78942,877.2 2.78138,39.7897,875.8 2.78209,39.78998,867.4 2.78271,39.79025,868.4 2.78334,39.79052,867.3 2.78359,39.79065,866.8 2.78375,39.79075,864.9 2.78455,39.79126,865.7 2.78536,39.79177,854.3 2.78587,39.79208,852.1 2.78625,39.79234,849.1 2.78643,39.79252,844.6 2.78703,39.79322,847.8 2.78712,39.79328,845.8 2.78757,39.79347,840.0 2.78811,39.79373,839.3 2.78866,39.794,835.7 2.78879,39.79409,835.2 2.78928,39.79453,835.4 2.78978,39.79498,832.8 2.78988,39.79504,832.2 2.78997,39.79507,831.2 2.79009,39.79507,830.9 2.79018,39.79505,830.8 2.79026,39.79501,830.4 2.79031,39.79496,830.6 2.79037,39.79488,831.1 2.79038,39.79477,831.5 2.79027,39.79416,831.2 2.79016,39.79354,831.2 2.79015,39.7934,831.4 2.7902,39.79327,834.0 2.79046,39.79294,841.8 2.79064,39.79274,842.4 2.79078,39.7926,840.7 2.79127,39.79223,834.7 2.79132,39.79214,831.9 2.79145,39.79175,818.8 2.79149,39.7917,817.2 2.79157,39.79166,816.2 2.79169,39.79164,816.5 2.79195,39.79167,819.5 2.79251,39.79177,827.5 2.79351,39.79198,826.3 2.7941,39.79204,827.7 2.79471,39.79207,825.7 2.79542,39.79209,822.9 2.79614,39.79211,821.1 2.79631,39.7921,820.3 2.79646,39.79207,818.9 2.79659,39.79198,815.5 2.79662,39.79187,811.7 2.7966,39.79175,807.5 2.79653,39.79164,804.1 2.79583,39.79128,801.8 2.79563,39.79114,798.5 2.79543,39.79095,793.2 2.79527,39.79071,788.0 2.79505,39.7901,785.3 2.79489,39.78981,780.8 2.79468,39.78952,774.0 2.79462,39.78938,772.0 2.79463,39.78923,771.8 2.7947,39.7891,771.8 2.79483,39.78896,771.5 2.79496,39.7889,772.6 2.79508,39.78886,772.8 2.79594,39.78869,772.7 2.79681,39.78851,768.6 2.79703,39.78846,768.1 2.79713,39.78842,767.5 2.79718,39.78839,767.0 2.79721,39.78835,766.3 2.79722,39.78824,765.5 2.7972,39.7882,765.3 2.7968,39.78771,761.5 2.79678,39.78765,761.1 2.79679,39.78756,760.7 2.79685,39.78748,760.8 2.79698,39.78735,762.1 2.79746,39.78692,766.4 2.79752,39.78689,766.6 2.79763,39.78687,766.4 2.79772,39.78687,766.2 2.79777,39.78689,765.9 2.79821,39.78708,761.7 2.79832,39.78712,760.5 2.79844,39.78715,759.6 2.79881,39.78719,757.7 2.79902,39.78725,755.5 2.79916,39.78732,753.0 2.79963,39.78765,751.3 2.79992,39.78782,750.9 2.80001,39.78789,750.2 2.80017,39.78807,748.0 2.80041,39.78837,743.2 2.80051,39.78848,741.9 2.80089,39.78882,739.3 2.80128,39.78916,740.3 2.8013,39.78922,739.3 2.80131,39.7893,737.7 2.8013,39.78947,733.7 2.80127,39.78976,726.7 2.80128,39.78985,724.9 2.80131,39.78992,723.8 2.80137,39.78999,723.2 2.80189,39.79026,725.3 2.8025,39.79061,722.4 2.80268,39.79073,722.3 2.80278,39.79087,720.7 2.80283,39.79095,720.1 2.80284,39.79108,717.9 2.80278,39.79142,711.0 2.80278,39.79152,709.3 2.8028,39.7916,708.1 2.80289,39.79168,707.8 2.80308,39.79179,707.7 2.80397,39.79215,709.5 2.80419,39.79235,706.9 2.80434,39.79255,702.3 2.80441,39.79268,699.2 2.80445,39.79275,697.5 2.80457,39.79281,696.4 2.80471,39.79284,696.2 2.80493,39.79286,696.6 2.80513,39.79283,696.4 2.80538,39.79274,696.3 2.80559,39.79271,695.0 2.80575,39.79271,693.5 2.80667,39.79284,682.3 2.80694,39.79292,682.1 2.80707,39.79301,680.6 2.80731,39.79319,677.1 2.80796,39.79374,671.0 2.808,39.7938,670.4 2.8081,39.79403,667.8 2.80822,39.79441,663.8 2.80834,39.79463,661.9 2.80866,39.79516,657.3 2.80877,39.79528,656.4 2.80895,39.79542,655.4 2.80945,39.79573,652.6 2.80991,39.79605,649.1 2.81037,39.79636,644.0 2.81053,39.79652,641.3 2.81059,39.79661,639.9 2.81068,39.79682,637.2 2.81071,39.79699,635.1 2.81079,39.79746,629.5 2.8108,39.79765,627.9 2.81078,39.79779,626.9 2.81072,39.79794,625.8 2.81026,39.79872,624.9 2.81019,39.79883,624.8 2.81012,39.799,624.6 2.81012,39.7991,624.6 2.81018,39.79924,624.8 2.81054,39.79961,623.4 2.8109,39.79999,620.6 2.8111,39.80026,621.6 2.81128,39.80054,622.5 2.81142,39.8007,622.4 2.81185,39.80116,623.5 2.81224,39.80153,624.2 2.8126,39.80183,625.5 2.81302,39.80216,625.1 2.81364,39.80264,624.3 2.81433,39.80311,623.3 2.81502,39.80358,624.5 2.81544,39.80382,626.4 2.81573,39.80401,625.5 2.81608,39.80428,627.2 2.81649,39.80463,629.2 2.81669,39.80481,627.2 2.81688,39.80502,628.5 2.81707,39.80527,635.0 2.81724,39.80547,636.0 2.81745,39.80566,630.9 2.8177,39.80585,628.0 2.81839,39.80632,626.9 2.81853,39.80642,626.6 2.81866,39.80653,626.1 2.81905,39.80693,627.9 2.81939,39.8073,628.8 2.81973,39.80768,626.0 2.82021,39.80818,625.8 2.82069,39.80868,628.1 2.8208,39.80877,626.8 2.82122,39.80909,624.5 2.82136,39.80921,623.2 2.82148,39.80936,624.3 2.82168,39.80968,626.2 2.82176,39.80979,626.9 2.82188,39.80992,626.5 2.82245,39.81051,628.1 2.82258,39.81066,629.7 2.82264,39.81075,631.3 2.82267,39.81081,631.3 2.82269,39.81087,631.3 2.82268,39.81093,631.3 2.82212,39.81155,631.6 2.82156,39.81216,631.9 2.821,39.81277,632.2 2.82088,39.81286,632.2 2.82078,39.81289,632.3 2.82064,39.81291,629.4 2.81982,39.8129,619.7 2.81909,39.81291,617.9 2.81892,39.81294,617.5 2.8188,39.81301,616.2 2.81872,39.81309,614.7 2.81868,39.81321,612.3 2.8187,39.81334,609.4 2.81881,39.81345,607.4 2.81903,39.81355,604.5 2.81919,39.81359,602.7 2.81939,39.81359,601.8 2.82012,39.81358,600.1 2.82047,39.81362,601.6 2.82063,39.81367,601.1 2.82144,39.81407,592.9 2.82179,39.81421,592.4 2.8222,39.81441,595.9 2.82243,39.81456,594.0 2.8229,39.81507,583.4 2.82337,39.81559,572.1 2.82354,39.81575,567.4 2.82376,39.8159,565.5 2.82405,39.81605,567.2 2.82417,39.81609,568.3 2.82414,39.81615,567.0 2.8241,39.81619,565.8 2.82404,39.81621,564.6 2.82397,39.81622,563.3 2.82392,39.8162,562.8 2.8238,39.81615,561.8 2.8236,39.81601,561.3 2.82346,39.8159,561.4 2.82284,39.81534,574.1 2.8227,39.81522,574.8 2.8226,39.81515,574.0 2.82256,39.81514,573.8 2.82251,39.81514,573.5 2.82247,39.81515,573.3 2.82244,39.81516,573.2 2.82226,39.81528,571.9 2.82204,39.81545,570.3 2.82201,39.8155,570.1 2.82196,39.81559,569.9 2.82196,39.8157,569.1 2.82197,39.81574,568.6 2.82212,39.81598,564.0 2.82213,39.81602,563.4 2.82214,39.81607,562.7 2.82212,39.81612,562.6 2.82207,39.81623,562.4 2.82175,39.81664,564.6 2.82167,39.81672,564.7 2.82099,39.8173,567.0 2.82092,39.81735,567.0 2.82075,39.81743,567.6 2.82064,39.81746,568.2 2.8205,39.81749,569.2 2.81959,39.81761,577.3 2.81944,39.81764,578.0 2.81931,39.81769,578.0 2.81855,39.81798,583.6 2.8178,39.81827,589.7 2.81753,39.81836,592.6 2.81692,39.8185,600.3 2.8163,39.81864,606.1 2.81611,39.81867,608.2 2.81532,39.81873,618.9 2.81526,39.81875,619.3 2.81518,39.81881,618.8 2.81516,39.81884,618.2 2.81515,39.81893,615.6 2.81517,39.81908,610.8 2.81524,39.81934,610.3 2.81528,39.81942,611.1 2.81538,39.81955,611.6 2.81554,39.81968,610.8 2.81565,39.81975,609.8 2.81601,39.81994,604.9 2.81608,39.82,604.1 2.8161,39.82004,603.6 2.8161,39.82009,603.6 2.81609,39.82016,603.9 2.81603,39.82023,605.3 2.81525,39.82085,625.6 2.81517,39.82096,628.6 2.81513,39.82107,630.6 2.81512,39.82121,632.1 2.81512,39.82128,632.7 2.81528,39.82174,635.0 2.81529,39.82178,636.2 2.81528,39.82182,637.9 2.81526,39.82184,639.1 2.81522,39.82186,640.8 2.81518,39.82187,642.1 2.81514,39.82186,642.8 2.81507,39.82182,643.0 2.81499,39.82158,638.7 2.81494,39.82151,640.0 2.81473,39.82129,645.8 2.81464,39.82115,647.5 2.81458,39.82099,647.6 2.81458,39.82091,646.6 2.81461,39.82073,643.5 2.81461,39.82068,643.0 2.81458,39.8206,642.9 2.81455,39.82057,643.4 2.81451,39.82055,644.3 2.81443,39.82053,646.3 2.81438,39.82054,647.8 2.81433,39.82056,649.5 2.8143,39.82058,650.7 2.81428,39.82061,651.7 2.81427,39.82069,653.3 2.81436,39.82099,655.1 2.81438,39.82108,655.7 2.81441,39.82143,659.7 2.81445,39.82154,659.7 2.81454,39.82173,659.7 2.81457,39.82183,661.6 2.81456,39.82193,665.1 2.81453,39.82213,672.3 2.81453,39.82217,673.5 2.81455,39.82222,674.4 2.81458,39.82226,674.6 2.81466,39.8223,673.3 2.81473,39.82232,671.8 2.81497,39.82236,665.7 2.81504,39.82238,664.5 2.8151,39.82241,664.0 2.8152,39.82249,664.4 2.81548,39.82274,664.0 2.8158,39.82309,666.5 2.81584,39.82318,668.2 2.81585,39.82323,669.5 2.81586,39.82328,670.7 2.81584,39.8234,673.2 2.81579,39.82358,675.0 2.81576,39.82366,675.9 2.81567,39.82381,677.9 2.81558,39.82393,679.6 2.81551,39.824,680.7 2.81525,39.82419,684.3 2.81507,39.82438,687.9 2.81472,39.82478,693.0 2.81468,39.82485,693.5 2.81468,39.82489,693.7 2.8147,39.82494,693.8 2.81475,39.825,693.9 2.81483,39.82502,694.0 2.81494,39.82502,693.6 2.81533,39.82496,692.5 2.81544,39.82497,692.6 2.81554,39.825,693.0 2.81558,39.82502,693.5 2.81573,39.82514,696.8 2.81583,39.82518,698.0 2.81601,39.82522,698.4 2.81615,39.82522,697.9 2.81634,39.82521,697.0 2.81639,39.82521,696.8 2.81644,39.82523,697.2 2.81653,39.82527,697.9 2.81663,39.82533,699.2 2.81691,39.82555,700.4 2.817,39.82563,700.8 2.81707,39.82572,701.8 2.81719,39.82588,703.4 2.81731,39.82607,705.6 2.81735,39.82622,708.6 2.81736,39.82647,714.5 2.81737,39.82653,715.8 2.81739,39.82658,716.7 2.81744,39.82668,718.1 2.81751,39.82677,717.8 2.81756,39.82681,717.1 2.81776,39.82693,714.9 2.81785,39.82701,714.9 2.81794,39.82711,715.8 2.81797,39.82717,716.8 2.81801,39.82728,719.0 2.81802,39.82741,722.2 2.81799,39.82754,724.4 2.81779,39.82787,722.8 2.81766,39.82805,720.6 2.81734,39.82845,714.5 2.81727,39.82853,713.3 2.81722,39.82865,711.8 2.8172,39.82875,710.7 2.81721,39.82892,709.7 2.81721,39.82913,708.2 2.8172,39.8292,707.7 2.81717,39.82937,707.2 2.81713,39.82948,705.9 2.81679,39.83023,691.2 2.81675,39.83034,689.6 2.81656,39.831,679.8 2.81636,39.83166,665.8 2.81633,39.83173,664.3 2.81626,39.8318,662.4 2.81601,39.83199,658.8 2.8159,39.83206,657.3 2.81579,39.83216,655.6 2.81576,39.8322,655.0 2.81572,39.83227,654.0 2.81572,39.83234,654.7 2.81574,39.8324,655.9 2.81577,39.83243,657.3 2.81582,39.83248,659.4 2.81588,39.83251,659.5 2.81595,39.83252,658.7 2.81599,39.83251,658.3 2.81607,39.83249,657.5 2.81612,39.83245,657.1 2.81615,39.83239,657.2 2.81616,39.83233,657.5 2.81614,39.83225,658.1 2.81609,39.83215,658.5 2.816,39.83205,658.3 2.81589,39.83196,657.3 2.81582,39.83189,655.7 2.81579,39.83183,653.8 2.81576,39.83175,651.6 2.81576,39.83162,650.8 2.8158,39.83149,652.2 2.81603,39.83088,658.8 2.81606,39.83078,660.5 2.81605,39.83059,661.8 2.81604,39.83053,662.0 2.81596,39.83035,660.9 2.81595,39.83033,660.7 2.81591,39.83029,659.8 2.81582,39.83028,656.9 2.81575,39.8303,654.2 2.81554,39.83039,645.7 2.81544,39.83042,641.8 2.81534,39.83043,638.1 2.8152,39.83041,633.6 2.81516,39.8304,632.4 2.81511,39.83034,631.7 2.8151,39.83024,633.1 2.81524,39.82964,650.9 2.81525,39.82955,653.4 2.81524,39.82949,654.7 2.81519,39.82944,654.7 2.81515,39.82942,654.3 2.8148,39.82932,652.8 2.81461,39.82922,655.9 2.81456,39.82921,656.3 2.81447,39.8292,656.6 2.81439,39.82922,655.7 2.81436,39.82925,654.3 2.81424,39.82942,646.0 2.81418,39.82948,642.7 2.81403,39.82958,641.8 2.81357,39.82983,642.0 2.81351,39.82988,640.9 2.8135,39.82992,639.0 2.81351,39.82994,637.6 2.81354,39.82997,635.2 2.81357,39.82998,633.8 2.81364,39.82996,633.0 2.81376,39.82991,632.5 2.81443,39.82964,637.8 2.81448,39.82963,638.8 2.81456,39.82963,639.7 2.8146,39.82964,639.7 2.81463,39.82966,639.3 2.81466,39.8297,638.2 2.81467,39.82974,636.9 2.81466,39.8298,634.5 2.81461,39.82985,631.8 2.81452,39.82988,629.1 2.8142,39.82994,620.6 2.8141,39.82997,620.2 2.81391,39.83005,621.8 2.81383,39.8301,621.6 2.81365,39.83024,619.4 2.81361,39.83029,617.8 2.81358,39.83035,615.4 2.81358,39.83037,614.4 2.81361,39.83041,612.0 2.81365,39.83043,610.4 2.8137,39.83042,610.1 2.81375,39.83039,610.7 2.81395,39.83022,614.1 2.81398,39.8302,614.2 2.81406,39.83019,612.9 2.8141,39.83019,612.0 2.81417,39.83021,610.0 2.8142,39.83023,610.1 2.81422,39.83027,609.3 2.81422,39.83033,607.3 2.81421,39.83036,606.1 2.8141,39.83053,600.0 2.81408,39.83059,598.1 2.81411,39.83069,594.3 2.81416,39.8308,590.2 2.81435,39.83105,588.7 2.81442,39.83111,589.9 2.81482,39.83137,603.2 2.81488,39.83143,605.4 2.81489,39.83148,605.1 2.81488,39.83156,603.3 2.81463,39.83195,592.2 2.81456,39.83207,589.9 2.81452,39.83216,588.9 2.81447,39.83235,588.9 2.8144,39.83247,585.9 2.81433,39.8326,584.8 2.81424,39.8327,582.3 2.81412,39.83279,579.0 2.81398,39.83289,577.8 2.81379,39.83299,575.0 2.81367,39.83305,573.3 2.81287,39.83329,560.3 2.81208,39.83353,558.3 2.81199,39.83354,557.3 2.81195,39.83354,556.6 2.81189,39.83351,553.6 2.81187,39.83346,550.1 2.81189,39.83342,547.9 2.81193,39.83338,546.1 2.81205,39.83333,544.8 2.81262,39.83314,547.4 2.81318,39.83295,552.6 2.81329,39.83291,553.2 2.81336,39.83286,552.7 2.81349,39.83275,552.5 2.81361,39.8326,550.3 2.81371,39.83243,549.8 2.81382,39.83213,553.3 2.81385,39.83202,553.7 2.81388,39.83186,553.8 2.81387,39.83177,553.1 2.81383,39.8317,552.1 2.8138,39.83168,551.4 2.81377,39.83166,551.2 2.81369,39.83165,550.2 2.81364,39.83165,549.4 2.8136,39.83167,547.8 2.81343,39.83179,543.8 2.81329,39.83185,540.9 2.8132,39.83188,540.3 2.81309,39.8319,539.7 2.81285,39.83193,538.2 2.81247,39.83196,535.4 2.8124,39.83199,533.4 2.81238,39.83201,532.4 2.81237,39.83205,531.0 2.81239,39.8321,529.7 2.81241,39.83213,529.0 2.81244,39.83215,528.9 2.81253,39.83216,529.9 2.81278,39.83212,533.3 2.81288,39.83214,533.7 2.81295,39.83217,533.8 2.81298,39.83221,533.3 2.81301,39.83228,532.3 2.81301,39.83232,531.5 2.81299,39.83243,529.2 2.81295,39.83254,528.9 2.81291,39.83258,529.9 2.81285,39.83263,531.0 2.81279,39.83266,531.1 2.81274,39.83268,531.0 2.8127,39.83269,530.6 2.81261,39.83269,528.8 2.81256,39.83267,526.9 2.8125,39.83264,524.6 2.81218,39.83237,516.9 2.81211,39.83232,517.4 2.81204,39.8323,516.8 2.81174,39.83223,514.0 2.81156,39.83219,511.7 2.81107,39.83214,501.0 2.81101,39.83213,499.7 2.81093,39.83211,498.0 2.81086,39.83205,497.4 2.8108,39.83196,496.9 2.81058,39.83139,503.6 2.81052,39.83128,505.5 2.81033,39.83107,506.2 2.8102,39.83096,505.6 2.8101,39.83091,503.6 2.81,39.83089,500.4 2.80988,39.83089,496.9 2.80965,39.83091,489.1 2.80956,39.83092,485.9 2.80854,39.83075,477.1 2.80841,39.83073,477.1 2.80821,39.83067,481.0 2.8079,39.83054,491.7 2.80781,39.83051,493.9 2.80737,39.83043,496.1 2.80733,39.83043,495.3 2.80729,39.83044,493.3 2.80727,39.83045,491.8 2.80725,39.83047,489.3 2.80725,39.83049,487.1 2.80725,39.83052,483.9 2.80729,39.83055,481.5 2.80782,39.83065,478.1 2.80802,39.83071,473.9 2.8083,39.83081,466.2 2.80834,39.83084,463.7 2.80835,39.83087,462.0 2.80834,39.8309,460.0 2.80829,39.83093,457.5 2.80821,39.83092,457.0 2.80802,39.83083,460.2 2.80778,39.83079,461.6 2.80745,39.83075,461.9 2.80721,39.83074,460.0 2.80711,39.83073,459.8 2.80702,39.83072,459.6 2.80654,39.83059,463.1 2.80646,39.83056,463.3 2.80633,39.83049,464.6 2.80626,39.83048,463.0 2.80621,39.8305,460.0 2.80619,39.83054,456.8 2.8062,39.83057,455.1 2.80624,39.83061,453.5 2.80639,39.83068,452.2 2.80672,39.83079,449.4 2.8068,39.83084,445.9 2.80682,39.83086,445.0 2.80684,39.8309,442.9 2.80684,39.83092,441.7 2.80681,39.83097,438.7 2.80679,39.83099,437.4 2.80676,39.831,436.6 2.80669,39.83101,435.4 2.80659,39.831,435.1 2.80627,39.83091,435.8 2.80619,39.83088,435.9 2.80615,39.83086,436.0 2.80607,39.83076,440.1 2.80596,39.83053,450.4 2.80588,39.83045,452.0 2.8053,39.83003,446.1 2.80517,39.82995,446.9 2.80507,39.8299,448.3 2.80461,39.82975,448.5 2.8036,39.82939,439.9 2.80332,39.8293,434.4 2.80311,39.82922,440.2 2.80305,39.82921,441.2 2.803,39.82923,440.6 2.80297,39.82927,438.9 2.80297,39.82929,437.9 2.80299,39.82933,435.7 2.80303,39.82935,434.4 2.80324,39.8294,430.0 2.8033,39.82942,428.5 2.80389,39.82966,431.5 2.80447,39.82991,427.7 2.80461,39.82999,423.7 2.80467,39.83003,423.7 2.80474,39.83011,423.8 2.80517,39.83063,424.0 2.80521,39.83069,423.3 2.80522,39.83076,421.6 2.80522,39.83081,420.2 2.80519,39.83088,419.0 2.80514,39.83094,418.3 2.80506,39.83099,417.4 2.80498,39.83101,416.2 2.80487,39.83104,413.6 2.80475,39.83105,410.6 2.8045,39.83106,404.3 2.80445,39.83108,403.1 2.80438,39.83111,401.5 2.80434,39.83116,400.9 2.80416,39.83151,398.6 2.80409,39.83169,397.0 2.80396,39.83223,394.5 2.80383,39.83277,385.2 2.80381,39.83291,382.2 2.80382,39.83303,380.7 2.80386,39.83317,379.9 2.80416,39.83356,382.3 2.80421,39.83366,380.6 2.80421,39.83371,379.7 2.80419,39.83382,378.1 2.8041,39.83401,374.8 2.80406,39.83406,373.8 2.80401,39.8341,373.0 2.80394,39.83415,372.1 2.80376,39.83421,370.7 2.80363,39.83425,370.1 2.80301,39.83435,362.3 2.80294,39.83437,360.7 2.80288,39.83439,359.3 2.80284,39.83442,358.6 2.80281,39.83446,358.1 2.80255,39.83509,355.8 2.80254,39.83516,355.3 2.80256,39.83541,354.5 2.80259,39.8355,354.3 2.80266,39.83559,353.9 2.80272,39.83563,353.6 2.80279,39.83567,353.1 2.80285,39.83569,352.7 2.80328,39.83576,349.7 2.80334,39.83576,349.3 2.8034,39.83575,348.0 2.80347,39.83573,346.9 2.80351,39.83569,347.2 2.804,39.83523,350.2 2.80407,39.83516,350.9 2.80412,39.83509,352.0 2.80438,39.83467,355.6 2.80444,39.83462,355.2 2.80455,39.83456,353.8 2.80533,39.83422,346.6 2.80612,39.83389,346.6 2.80619,39.83387,346.9 2.80628,39.83387,346.5 2.80636,39.83389,345.7 2.80642,39.83391,345.1 2.80652,39.83401,342.8 2.80666,39.83427,338.7 2.80678,39.83452,339.3 2.80682,39.83469,338.8 2.80682,39.83477,337.9 2.80669,39.83558,326.1 2.80656,39.8364,316.2 2.80656,39.83649,315.5 2.80657,39.83656,315.2 2.80667,39.83711,315.0 2.80667,39.83722,314.5 2.80661,39.83734,312.2 2.80637,39.83766,306.2 2.80634,39.83773,306.0 2.80615,39.83816,303.7 2.80596,39.8386,301.1 2.80578,39.83888,297.1 2.80566,39.83905,295.6 2.80559,39.83922,294.5 2.80547,39.83974,289.8 2.80535,39.84025,282.8 2.80534,39.84035,281.5 2.80535,39.8405,280.2 2.80541,39.84074,279.3 2.80543,39.84092,279.1 2.80542,39.84107,279.3 2.8054,39.84117,279.0 2.80536,39.84127,277.9 2.80504,39.8419,268.3 2.80497,39.842,267.0 2.80483,39.84216,266.0 2.80468,39.8423,264.2 2.80443,39.8425,260.1 2.80398,39.84283,253.6 2.80392,39.84291,253.0 2.80367,39.84336,247.6 2.80365,39.84342,246.8 2.80365,39.84347,246.3 2.80366,39.84352,245.8 2.80369,39.84355,245.7 2.80373,39.84358,245.7 2.80379,39.8436,245.9 2.80384,39.84361,246.1 2.80406,39.84363,247.4 2.80415,39.84365,247.7 2.80421,39.84367,248.1 2.80432,39.84376,248.5 2.80435,39.84382,248.2 2.80438,39.84391,247.5 2.80441,39.84406,246.1 2.80444,39.84424,245.1 2.8045,39.8449,244.1 2.80449,39.84499,243.7 2.80447,39.84507,242.3 2.80442,39.84516,240.2 2.80435,39.84523,238.0 2.80429,39.84527,236.4 2.8042,39.84531,234.3 2.80411,39.84534,233.0 2.80401,39.84535,232.3 2.80307,39.84531,229.2 2.80299,39.84531,229.2 2.8029,39.84532,229.0 2.80273,39.84536,228.4 2.80265,39.84541,227.6 2.80243,39.84556,224.5 2.8023,39.84563,221.8 2.80222,39.84565,220.5 2.80197,39.84566,217.3 2.80184,39.84565,215.9 2.80161,39.8456,214.3 2.80138,39.84552,212.2 2.80128,39.84548,211.3 2.80045,39.84515,203.7 2.8004,39.84511,203.7 2.80028,39.84499,204.7 2.80025,39.84497,204.5 2.80021,39.84496,203.7 2.80017,39.84496,202.7 2.80012,39.84497,201.1 2.80005,39.84501,197.9 2.80003,39.84505,195.7 2.80002,39.84509,193.8 2.80003,39.84513,192.4 2.80006,39.84518,191.2 2.80013,39.84527,189.7 2.80015,39.8453,189.1 2.80017,39.84534,188.2 2.80013,39.84542,183.7 2.80009,39.84544,181.6 2.80004,39.84545,179.5 2.79999,39.84545,177.5 2.79995,39.84544,175.6 2.7999,39.84541,173.9 2.79974,39.8453,169.4 2.79965,39.8452,168.7 2.79949,39.84496,170.5 2.7994,39.84452,183.7 2.79929,39.84423,190.8 2.79924,39.84413,192.1 2.79919,39.84409,190.8 2.79909,39.84395,187.4 2.79897,39.84383,181.5 2.79892,39.84376,179.5 2.79888,39.84368,178.5 2.7988,39.84342,178.6 2.79878,39.84321,180.1 2.79881,39.84296,181.9 2.79884,39.84281,183.0 2.79884,39.8427,183.8 2.79876,39.84233,178.5 2.79876,39.84223,178.7 2.79882,39.84201,183.9 2.79883,39.84194,184.9 2.7988,39.84124,180.0 2.7988,39.84116,179.4 2.79883,39.84104,181.3 2.79893,39.84084,189.8 2.79896,39.84073,188.8 2.79898,39.84043,179.3 2.79908,39.8398,165.3 2.79911,39.83954,160.9 2.79916,39.83898,155.3 2.79914,39.83882,156.0 2.79901,39.83826,159.5 2.79892,39.83809,159.3 2.79886,39.83804,159.3 2.79874,39.83801,159.2 2.79863,39.83799,159.1 2.79854,39.83798,159.1 2.79836,39.83798,159.0 2.79822,39.83801,157.7 2.79815,39.83803,157.0 2.79804,39.83811,153.4 2.7979,39.83823,148.0 2.79787,39.83826,146.6 2.7978,39.83829,145.4 2.79766,39.83832,144.7 2.7975,39.83838,143.4 2.79733,39.83848,143.5 2.79713,39.83865,141.6 2.79691,39.83888,137.8 2.79668,39.83918,131.3 2.79632,39.83962,126.3 2.79626,39.83968,125.7 2.79618,39.83973,125.9 2.7958,39.83992,128.0 2.79574,39.83997,127.9 2.7955,39.84028,129.1 2.79546,39.84036,128.9 2.79544,39.84042,128.5 2.79543,39.84048,127.7 2.79544,39.84085,121.1 2.79535,39.84123,119.2 2.79529,39.84141,119.0 2.79527,39.84153,118.2 2.79528,39.84169,116.0 2.79531,39.84186,113.2 2.79533,39.84199,111.2 2.79533,39.84217,109.3 2.79535,39.84227,107.7 2.79537,39.84234,106.4 2.79542,39.84239,104.5 2.79548,39.84244,102.3 2.79565,39.84253,96.8 2.79572,39.84257,94.7 2.79577,39.84262,93.0 2.79581,39.84267,91.6 2.79584,39.84273,90.6 2.79586,39.84278,90.2 2.79585,39.84282,90.0 2.79583,39.84286,89.9 2.79575,39.8429,91.7 2.79548,39.84296,98.1 2.79542,39.84299,99.3 2.79537,39.84302,100.3 2.79531,39.8431,101.0 2.79527,39.84323,100.8 2.79527,39.84333,99.9 2.79533,39.8439,90.2 2.79532,39.84396,89.6 2.7953,39.84402,89.2 2.79527,39.84407,89.3 2.79522,39.84413,89.7 2.79514,39.84418,91.1 2.79504,39.84423,92.9 2.79495,39.84427,93.2 2.7943,39.84442,92.0 2.79421,39.84444,91.9 2.79414,39.84448,91.8 2.79407,39.84452,92.0 2.79406,39.84454,91.9 2.79404,39.8446,91.6 2.79405,39.84463,91.2 2.79409,39.84468,90.3 2.79416,39.84473,89.0 2.7947,39.84487,84.2 2.79515,39.84503,79.9 2.79537,39.84509,80.1 2.79552,39.84513,80.2 2.79567,39.84515,79.8 2.79618,39.8452,75.8 2.79638,39.84524,74.0 2.79651,39.84529,73.0 2.79661,39.84536,72.3 2.79673,39.84546,72.1 2.79678,39.84552,72.3 2.7969,39.8457,71.8 2.79695,39.84579,71.2 2.797,39.84594,71.1 2.79705,39.84635,72.1 2.7971,39.84657,71.5 2.79716,39.84675,71.1 2.79724,39.84691,70.8 2.7974,39.84709,67.6 2.79753,39.84719,64.7 2.79774,39.84738,62.7 2.79795,39.84761,59.9 2.7985,39.84796,54.3 2.79868,39.84807,55.8 2.79902,39.84852,53.2 2.79936,39.84898,51.1 2.7994,39.84907,50.3 2.79944,39.84918,49.1 2.79946,39.84933,46.8 2.79949,39.84944,45.1 2.79955,39.84955,43.3 2.79986,39.85005,31.1 2.79991,39.85015,28.5 2.79994,39.85033,26.8 2.79994,39.85035,26.6 2.79998,39.85038,26.3 2.79993,39.85041,25.8 2.7999,39.85041,25.6 2.7998,39.85041,24.9 2.79971,39.85043,24.3 2.79971,39.85049,24.2 2.7997,39.85051,24.2 2.79971,39.85049,24.1 2.79971,39.85043,24.1 2.7998,39.85041,24.0 2.7999,39.85041,23.9 2.79998,39.85041,24.2 2.80002,39.85039,24.3 2.79994,39.85035,24.7 2.79993,39.85036,24.7 2.79989,39.85037,24.9 2.7998,39.85038,25.2 2.79968,39.85039,25.6 2.79962,39.85042,25.9 2.79953,39.85049,26.4 2.79939,39.85069,25.2 2.79923,39.85097,25.3 2.79917,39.85102,26.3 2.79912,39.85103,30.2 2.79908,39.85101,33.6 2.79907,39.85098,34.4 2.79908,39.85094,33.5 2.79915,39.85081,28.5 2.7992,39.85066,28.8 2.79923,39.85044,31.3 2.79921,39.85021,34.8 2.79912,39.84978,41.7 2.799,39.84931,48.1 2.79895,39.8492,49.5 2.79891,39.84914,50.5 2.79873,39.84897,53.9 2.79866,39.84883,55.0 2.79862,39.84866,55.7 2.79859,39.84858,56.0 2.79842,39.84834,56.7 2.79813,39.84801,60.4 2.79798,39.84779,61.9 2.79796,39.84775,61.9 2.79795,39.84761,59.9 2.79774,39.84738,62.7 2.79753,39.84719,64.7 2.7974,39.84709,67.6 2.79724,39.84691,70.8 2.79716,39.84675,71.1 2.7971,39.84657,71.5 2.79705,39.84635,72.1 2.797,39.84594,71.1 2.79695,39.84579,71.2 2.7969,39.8457,71.8 2.79678,39.84552,72.3 2.79673,39.84546,72.1 2.79661,39.84536,72.3 2.79651,39.84529,73.0 2.79638,39.84524,74.0 2.79618,39.8452,75.8 2.79567,39.84515,79.8 2.79552,39.84513,80.2 2.79537,39.84509,80.1 2.79515,39.84503,79.9 2.7947,39.84487,84.2 2.79416,39.84473,89.0 2.79409,39.84468,90.3 2.79405,39.84463,91.2 2.79404,39.8446,91.6 2.79406,39.84454,91.9 2.79407,39.84452,92.0 2.79414,39.84448,91.8 2.79421,39.84444,91.9 2.7943,39.84442,92.0 2.79495,39.84427,93.2 2.79504,39.84423,92.9 2.79514,39.84418,91.1 2.79522,39.84413,89.7 2.79527,39.84407,89.3 2.7953,39.84402,89.2 2.79532,39.84396,89.6 2.79533,39.8439,90.2 2.79527,39.84333,99.9 2.79527,39.84323,100.8 2.79531,39.8431,101.0 2.79537,39.84302,100.3 2.79542,39.84299,99.3 2.79548,39.84296,98.1 2.79575,39.8429,91.7 2.79583,39.84286,89.9 2.79585,39.84282,90.0 2.79586,39.84278,90.2 2.79584,39.84273,90.6 2.79581,39.84267,91.6 2.79577,39.84262,93.0 2.79572,39.84257,94.7 2.79565,39.84253,96.8 2.79548,39.84244,102.3 2.79542,39.84239,104.5 2.79537,39.84234,106.4 2.79535,39.84227,107.7 2.79533,39.84217,109.3 2.79533,39.84199,111.2 2.79531,39.84186,113.2 2.79528,39.84169,116.0 2.79527,39.84153,118.2 2.79529,39.84141,119.0 2.79535,39.84123,119.2 2.79544,39.84085,121.1 2.79543,39.84048,127.7 2.79544,39.84042,128.5 2.79546,39.84036,128.9 2.7955,39.84028,129.1 2.79574,39.83997,127.9 2.7958,39.83992,128.0 2.79618,39.83973,125.9 2.79626,39.83968,125.7 2.79632,39.83962,126.3 2.79668,39.83918,131.3 2.79691,39.83888,137.8 2.79713,39.83865,141.6 2.79733,39.83848,143.5 2.7975,39.83838,143.4 2.79766,39.83832,144.7 2.7978,39.83829,145.4 2.79787,39.83826,146.6 2.7979,39.83823,148.0 2.79804,39.83811,153.4 2.79815,39.83803,157.0 2.79822,39.83801,157.7 2.79836,39.83798,159.0 2.79854,39.83798,159.1 2.79863,39.83799,159.1 2.79874,39.83801,159.2 2.79886,39.83804,159.3 2.79892,39.83809,159.3 2.79901,39.83826,159.5 2.79914,39.83882,156.0 2.79916,39.83898,155.3 2.79911,39.83954,160.9 2.79908,39.8398,165.3 2.79898,39.84043,179.3 2.79896,39.84073,188.8 2.79893,39.84084,189.8 2.79883,39.84104,181.3 2.7988,39.84116,179.4 2.7988,39.84124,180.0 2.79883,39.84194,184.9 2.79882,39.84201,183.9 2.79876,39.84223,178.7 2.79876,39.84233,178.5 2.79884,39.8427,183.8 2.79884,39.84281,183.0 2.79881,39.84296,181.9 2.79878,39.84321,180.1 2.7988,39.84342,178.6 2.79888,39.84368,178.5 2.79892,39.84376,179.5 2.79897,39.84383,181.5 2.79909,39.84395,187.4 2.79919,39.84409,190.8 2.79924,39.84413,192.1 2.79929,39.84423,190.8 2.7994,39.84452,183.7 2.79949,39.84496,170.5 2.79965,39.8452,168.7 2.79974,39.8453,169.4 2.7999,39.84541,173.9 2.79995,39.84544,175.6 2.79999,39.84545,177.5 2.80004,39.84545,179.5 2.80009,39.84544,181.6 2.80013,39.84542,183.7 2.80017,39.84534,188.2 2.80015,39.8453,189.1 2.80013,39.84527,189.7 2.80006,39.84518,191.2 2.80003,39.84513,192.4 2.80002,39.84509,193.8 2.80003,39.84505,195.7 2.80005,39.84501,197.9 2.80012,39.84497,201.1 2.80017,39.84496,202.7 2.80021,39.84496,203.7 2.80025,39.84497,204.5 2.80028,39.84499,204.7 2.8004,39.84511,203.7 2.80045,39.84515,203.7 2.80128,39.84548,211.3 2.80138,39.84552,212.2 2.80161,39.8456,214.3 2.80184,39.84565,215.9 2.80197,39.84566,217.3 2.80222,39.84565,220.5 2.8023,39.84563,221.8 2.80243,39.84556,224.5 2.80265,39.84541,227.6 2.80273,39.84536,228.4 2.8029,39.84532,229.0 2.80299,39.84531,229.2 2.80307,39.84531,229.2 2.80401,39.84535,232.3 2.80411,39.84534,233.0 2.8042,39.84531,234.3 2.80429,39.84527,236.4 2.80435,39.84523,238.0 2.80442,39.84516,240.2 2.80447,39.84507,242.3 2.80449,39.84499,243.7 2.8045,39.8449,244.1 2.80444,39.84424,245.1 2.80441,39.84406,246.1 2.80438,39.84391,247.5 2.80435,39.84382,248.2 2.80432,39.84376,248.5 2.80421,39.84367,248.1 2.80415,39.84365,247.7 2.80406,39.84363,247.4 2.80384,39.84361,246.1 2.80379,39.8436,245.9 2.80373,39.84358,245.7 2.80369,39.84355,245.7 2.80366,39.84352,245.8 2.80365,39.84347,246.3 2.80365,39.84342,246.8 2.80367,39.84336,247.6 2.80392,39.84291,253.0 2.80398,39.84283,253.6 2.80443,39.8425,260.1 2.80468,39.8423,264.2 2.80483,39.84216,266.0 2.80497,39.842,267.0 2.80504,39.8419,268.3 2.80536,39.84127,277.9 2.8054,39.84117,279.0 2.80542,39.84107,279.3 2.80543,39.84092,279.1 2.80541,39.84074,279.3 2.80535,39.8405,280.2 2.80534,39.84035,281.5 2.80535,39.84025,282.8 2.80547,39.83974,289.8 2.80559,39.83922,294.5 2.80566,39.83905,295.6 2.80578,39.83888,297.1 2.80596,39.8386,301.1 2.80615,39.83816,303.7 2.80634,39.83773,306.0 2.80637,39.83766,306.2 2.80661,39.83734,312.2 2.80667,39.83722,314.5 2.80667,39.83711,315.0 2.80657,39.83656,315.2 2.80656,39.83649,315.5 2.80656,39.8364,316.2 2.80669,39.83558,326.1 2.80682,39.83477,337.9 2.80682,39.83469,338.8 2.80678,39.83452,339.3 2.80666,39.83427,338.7 2.80652,39.83401,342.8 2.80642,39.83391,345.1 2.80636,39.83389,345.7 2.80628,39.83387,346.5 2.80619,39.83387,346.9 2.80612,39.83389,346.6 2.80533,39.83422,346.6 2.80455,39.83456,353.8 2.80444,39.83462,355.2 2.80438,39.83467,355.6 2.80412,39.83509,352.0 2.80407,39.83516,350.9 2.804,39.83523,350.2 2.80351,39.83569,347.2 2.80347,39.83573,346.9 2.8034,39.83575,348.0 2.80334,39.83576,349.3 2.80328,39.83576,349.7 2.80285,39.83569,352.7 2.80279,39.83567,353.1 2.80272,39.83563,353.6 2.80266,39.83559,353.9 2.80259,39.8355,354.3 2.80256,39.83541,354.5 2.80254,39.83516,355.3 2.80255,39.83509,355.8 2.80281,39.83446,358.1 2.80284,39.83442,358.6 2.80288,39.83439,359.3 2.80294,39.83437,360.7 2.80301,39.83435,362.3 2.80363,39.83425,370.1 2.80376,39.83421,370.7 2.80394,39.83415,372.1 2.80401,39.8341,373.0 2.80406,39.83406,373.8 2.8041,39.83401,374.8 2.80419,39.83382,378.1 2.80421,39.83371,379.7 2.80421,39.83366,380.6 2.80416,39.83356,382.3 2.80386,39.83317,379.9 2.80382,39.83303,380.7 2.80381,39.83291,382.2 2.80383,39.83277,385.2 2.80396,39.83223,394.5 2.80409,39.83169,397.0 2.80416,39.83151,398.6 2.80434,39.83116,400.9 2.80438,39.83111,401.5 2.80445,39.83108,403.1 2.8045,39.83106,404.3 2.80475,39.83105,410.6 2.80487,39.83104,413.6 2.80498,39.83101,416.2 2.80506,39.83099,417.4 2.80514,39.83094,418.3 2.80519,39.83088,419.0 2.80522,39.83081,420.2 2.80522,39.83076,421.6 2.80521,39.83069,423.3 2.80517,39.83063,424.0 2.80474,39.83011,423.8 2.80467,39.83003,423.7 2.80461,39.82999,423.7 2.80447,39.82991,427.7 2.80389,39.82966,431.5 2.8033,39.82942,428.5 2.80324,39.8294,430.0 2.80303,39.82935,434.4 2.80299,39.82933,435.7 2.80297,39.82929,437.9 2.80297,39.82927,438.9 2.803,39.82923,440.6 2.80305,39.82921,441.2 2.80311,39.82922,440.2 2.80332,39.8293,434.4 2.8036,39.82939,439.9 2.80461,39.82975,448.5 2.80507,39.8299,448.3 2.80517,39.82995,446.9 2.8053,39.83003,446.1 2.80588,39.83045,452.0 2.80596,39.83053,450.4 2.80607,39.83076,440.1 2.80615,39.83086,436.0 2.80619,39.83088,435.9 2.80627,39.83091,435.8 2.80659,39.831,435.1 2.80669,39.83101,435.4 2.80676,39.831,436.6 2.80679,39.83099,437.4 2.80681,39.83097,438.7 2.80684,39.83092,441.7 2.80684,39.8309,442.9 2.80682,39.83086,445.0 2.8068,39.83084,445.9 2.80672,39.83079,449.4 2.80639,39.83068,452.2 2.80624,39.83061,453.5 2.8062,39.83057,455.1 2.80619,39.83054,456.8 2.80621,39.8305,460.0 2.80626,39.83048,463.0 2.80633,39.83049,464.6 2.80646,39.83056,463.3 2.80654,39.83059,463.1 2.80702,39.83072,459.6 2.80711,39.83073,459.8 2.80721,39.83074,460.0 2.80745,39.83075,461.9 2.80778,39.83079,461.6 2.80802,39.83083,460.2 2.80821,39.83092,457.0 2.80829,39.83093,457.5 2.80834,39.8309,460.0 2.80835,39.83087,462.0 2.80834,39.83084,463.7 2.8083,39.83081,466.2 2.80802,39.83071,473.9 2.80782,39.83065,478.1 2.80729,39.83055,481.5 2.80725,39.83052,483.9 2.80725,39.83049,487.1 2.80725,39.83047,489.3 2.80727,39.83045,491.8 2.80729,39.83044,493.3 2.80733,39.83043,495.3 2.80737,39.83043,496.1 2.80781,39.83051,493.9 2.8079,39.83054,491.7 2.80821,39.83067,481.0 2.80841,39.83073,477.1 2.80854,39.83075,477.1 2.80956,39.83092,485.9 2.80965,39.83091,489.1 2.80988,39.83089,496.9 2.81,39.83089,500.4 2.8101,39.83091,503.6 2.8102,39.83096,505.6 2.81033,39.83107,506.2 2.81052,39.83128,505.5 2.81058,39.83139,503.6 2.8108,39.83196,496.9 2.81086,39.83205,497.4 2.81093,39.83211,498.0 2.81101,39.83213,499.7 2.81107,39.83214,501.0 2.81156,39.83219,511.7 2.81174,39.83223,514.0 2.81204,39.8323,516.8 2.81211,39.83232,517.4 2.81218,39.83237,516.9 2.8125,39.83264,524.6 2.81256,39.83267,526.9 2.81261,39.83269,528.8 2.8127,39.83269,530.6 2.81274,39.83268,531.0 2.81279,39.83266,531.1 2.81285,39.83263,531.0 2.81291,39.83258,529.9 2.81295,39.83254,528.9 2.81299,39.83243,529.2 2.81301,39.83232,531.5 2.81301,39.83228,532.3 2.81298,39.83221,533.3 2.81295,39.83217,533.8 2.81288,39.83214,533.7 2.81278,39.83212,533.3 2.81253,39.83216,529.9 2.81244,39.83215,528.9 2.81241,39.83213,529.0 2.81239,39.8321,529.7 2.81237,39.83205,531.0 2.81238,39.83201,532.4 2.8124,39.83199,533.4 2.81247,39.83196,535.4 2.81285,39.83193,538.2 2.81309,39.8319,539.7 2.8132,39.83188,540.3 2.81329,39.83185,540.9 2.81343,39.83179,543.8 2.8136,39.83167,547.8 2.81364,39.83165,549.4 2.81369,39.83165,550.2 2.81377,39.83166,551.2 2.8138,39.83168,551.4 2.81383,39.8317,552.1 2.81387,39.83177,553.1 2.81388,39.83186,553.8 2.81385,39.83202,553.7 2.81382,39.83213,553.3 2.81371,39.83243,549.8 2.81361,39.8326,550.3 2.81349,39.83275,552.5 2.81336,39.83286,552.7 2.81329,39.83291,553.2 2.81318,39.83295,552.6 2.81262,39.83314,547.4 2.81205,39.83333,544.8 2.81193,39.83338,546.1 2.81189,39.83342,547.9 2.81187,39.83346,550.1 2.81189,39.83351,553.6 2.81195,39.83354,556.6 2.81199,39.83354,557.3 2.81208,39.83353,558.3 2.81287,39.83329,560.3 2.81367,39.83305,573.3 2.81379,39.83299,575.0 2.81398,39.83289,577.8 2.81412,39.83279,579.0 2.81424,39.8327,582.3 2.81433,39.8326,584.8 2.8144,39.83247,585.9 2.81447,39.83235,588.9 2.81452,39.83216,588.9 2.81456,39.83207,589.9 2.81463,39.83195,592.2 2.81488,39.83156,603.3 2.81489,39.83148,605.1 2.81488,39.83143,605.4 2.81482,39.83137,603.2 2.81442,39.83111,589.9 2.81435,39.83105,588.7 2.81416,39.8308,590.2 2.81411,39.83069,594.3 2.81408,39.83059,598.1 2.8141,39.83053,600.0 2.81421,39.83036,606.1 2.81422,39.83033,607.3 2.81422,39.83027,609.3 2.8142,39.83023,610.1 2.81417,39.83021,610.0 2.8141,39.83019,612.0 2.81406,39.83019,612.9 2.81398,39.8302,614.2 2.81395,39.83022,614.1 2.81375,39.83039,610.7 2.8137,39.83042,610.1 2.81365,39.83043,610.4 2.81361,39.83041,612.0 2.81358,39.83037,614.4 2.81358,39.83035,615.4 2.81361,39.83029,617.8 2.81365,39.83024,619.4 2.81383,39.8301,621.6 2.81391,39.83005,621.8 2.8141,39.82997,620.2 2.8142,39.82994,620.6 2.81452,39.82988,629.1 2.81461,39.82985,631.8 2.81466,39.8298,634.5 2.81467,39.82974,636.9 2.81466,39.8297,638.2 2.81463,39.82966,639.3 2.8146,39.82964,639.7 2.81456,39.82963,639.7 2.81448,39.82963,638.8 2.81443,39.82964,637.8 2.81376,39.82991,632.5 2.81364,39.82996,633.0 2.81357,39.82998,633.8 2.81354,39.82997,635.2 2.81351,39.82994,637.6 2.8135,39.82992,639.0 2.81351,39.82988,640.9 2.81357,39.82983,642.0 2.81403,39.82958,641.8 2.81418,39.82948,642.7 2.81424,39.82942,646.0 2.81436,39.82925,654.3 2.81439,39.82922,655.7 2.81447,39.8292,656.6 2.81456,39.82921,656.3 2.81461,39.82922,655.9 2.8148,39.82932,652.8 2.81515,39.82942,654.3 2.81519,39.82944,654.7 2.81524,39.82949,654.7 2.81525,39.82955,653.4 2.81524,39.82964,650.9 2.8151,39.83024,633.1 2.81511,39.83034,631.7 2.81516,39.8304,632.4 2.8152,39.83041,633.6 2.81534,39.83043,638.1 2.81544,39.83042,641.8 2.81554,39.83039,645.7 2.81575,39.8303,654.2 2.81582,39.83028,656.9 2.81591,39.83029,659.8 2.81595,39.83033,660.7 2.81596,39.83035,660.9 2.81604,39.83053,662.0 2.81605,39.83059,661.8 2.81606,39.83078,660.5 2.81603,39.83088,658.8 2.8158,39.83149,652.2 2.81576,39.83162,650.8 2.81576,39.83175,651.6 2.81579,39.83183,653.8 2.81582,39.83189,655.7 2.81589,39.83196,657.3 2.816,39.83205,658.3 2.81609,39.83215,658.5 2.81614,39.83225,658.1 2.81616,39.83233,657.5 2.81615,39.83239,657.2 2.81612,39.83245,657.1 2.81607,39.83249,657.5 2.81599,39.83251,658.3 2.81595,39.83252,658.7 2.81588,39.83251,659.5 2.81582,39.83248,659.4 2.81577,39.83243,657.3 2.81574,39.8324,655.9 2.81572,39.83234,654.7 2.81572,39.83227,654.0 2.81576,39.8322,655.0 2.81579,39.83216,655.6 2.8159,39.83206,657.3 2.81601,39.83199,658.8 2.81626,39.8318,662.4 2.81633,39.83173,664.3 2.81636,39.83166,665.8 2.81656,39.831,679.8 2.81675,39.83034,689.6 2.81679,39.83023,691.2 2.81713,39.82948,705.9 2.81717,39.82937,707.2 2.8172,39.8292,707.7 2.81721,39.82913,708.2 2.81721,39.82892,709.7 2.8172,39.82875,710.7 2.81722,39.82865,711.8 2.81727,39.82853,713.3 2.81734,39.82845,714.5 2.81766,39.82805,720.6 2.81779,39.82787,722.8 2.81799,39.82754,724.4 2.81802,39.82741,722.2 2.81801,39.82728,719.0 2.81797,39.82717,716.8 2.81794,39.82711,715.8 2.81785,39.82701,714.9 2.81776,39.82693,714.9 2.81756,39.82681,717.1 2.81751,39.82677,717.8 2.81744,39.82668,718.1 2.81739,39.82658,716.7 2.81737,39.82653,715.8 2.81736,39.82647,714.5 2.81735,39.82622,708.6 2.81731,39.82607,705.6 2.81719,39.82588,703.4 2.81707,39.82572,701.8 2.817,39.82563,700.8 2.81691,39.82555,700.4 2.81663,39.82533,699.2 2.81653,39.82527,697.9 2.81644,39.82523,697.2 2.81639,39.82521,696.8 2.81634,39.82521,697.0 2.81615,39.82522,697.9 2.81601,39.82522,698.4 2.81583,39.82518,698.0 2.81573,39.82514,696.8 2.81558,39.82502,693.5 2.81554,39.825,693.0 2.81544,39.82497,692.6 2.81533,39.82496,692.5 2.81494,39.82502,693.6 2.81483,39.82502,694.0 2.81475,39.825,693.9 2.8147,39.82494,693.8 2.81468,39.82489,693.7 2.81468,39.82485,693.5 2.81472,39.82478,693.0 2.81507,39.82438,687.9 2.81525,39.82419,684.3 2.81551,39.824,680.7 2.81558,39.82393,679.6 2.81567,39.82381,677.9 2.81576,39.82366,675.9 2.81579,39.82358,675.0 2.81584,39.8234,673.2 2.81586,39.82328,670.7 2.81585,39.82323,669.5 2.81584,39.82318,668.2 2.8158,39.82309,666.5 2.81548,39.82274,664.0 2.8152,39.82249,664.4 2.8151,39.82241,664.0 2.81504,39.82238,664.5 2.81497,39.82236,665.7 2.81473,39.82232,671.8 2.81466,39.8223,673.3 2.81458,39.82226,674.6 2.81455,39.82222,674.4 2.81453,39.82217,673.5 2.81453,39.82213,672.3 2.81456,39.82193,665.1 2.81457,39.82183,661.6 2.81454,39.82173,659.7 2.81445,39.82154,659.7 2.81441,39.82143,659.7 2.81438,39.82108,655.7 2.81436,39.82099,655.1 2.81427,39.82069,653.3 2.81428,39.82061,651.7 2.8143,39.82058,650.7 2.81433,39.82056,649.5 2.81438,39.82054,647.8 2.81443,39.82053,646.3 2.81451,39.82055,644.3 2.81455,39.82057,643.4 2.81458,39.8206,642.9 2.81461,39.82068,643.0 2.81461,39.82073,643.5 2.81458,39.82091,646.6 2.81458,39.82099,647.6 2.81464,39.82115,647.5 2.81473,39.82129,645.8 2.81494,39.82151,640.0 2.81499,39.82158,638.7 2.81507,39.82182,643.0 2.81514,39.82186,642.8 2.81518,39.82187,642.1 2.81522,39.82186,640.8 2.81526,39.82184,639.1 2.81528,39.82182,637.9 2.81529,39.82178,636.2 2.81528,39.82174,635.0 2.81512,39.82128,632.7 2.81512,39.82121,632.1 2.81513,39.82107,630.6 2.81517,39.82096,628.6 2.81525,39.82085,625.6 2.81603,39.82023,605.3 2.81609,39.82016,603.9 2.8161,39.82009,603.6 2.8161,39.82004,603.6 2.81608,39.82,604.1 2.81601,39.81994,604.9 2.81565,39.81975,609.8 2.81554,39.81968,610.8 2.81538,39.81955,611.6 2.81528,39.81942,611.1 2.81524,39.81934,610.3 2.81517,39.81908,610.8 2.81515,39.81893,615.6 2.81516,39.81884,618.2 2.81518,39.81881,618.8 2.81526,39.81875,619.3 2.81532,39.81873,618.9 2.81611,39.81867,608.2 2.8163,39.81864,606.1 2.81692,39.8185,600.3 2.81753,39.81836,592.6 2.8178,39.81827,589.7 2.81855,39.81798,583.6 2.81931,39.81769,578.0 2.81944,39.81764,578.0 2.81959,39.81761,577.3 2.8205,39.81749,569.2 2.82064,39.81746,568.2 2.82075,39.81743,567.6 2.82092,39.81735,567.0 2.82099,39.8173,567.0 2.82167,39.81672,564.7 2.82175,39.81664,564.6 2.82207,39.81623,562.4 2.82212,39.81612,562.6 2.82214,39.81607,562.7 2.82213,39.81602,563.4 2.82212,39.81598,564.0 2.82197,39.81574,568.6 2.82196,39.8157,569.1 2.82196,39.81559,569.9 2.82201,39.8155,570.1 2.82204,39.81545,570.3 2.82226,39.81528,571.9 2.82244,39.81516,573.2 2.82247,39.81515,573.3 2.82251,39.81514,573.5 2.82256,39.81514,573.8 2.8226,39.81515,574.0 2.8227,39.81522,574.8 2.82284,39.81534,574.1 2.82346,39.8159,561.4 2.8236,39.81601,561.3 2.82385,39.81613,562.9 2.82389,39.81614,563.3 2.82395,39.81614,564.2 2.82398,39.81613,564.9 2.824,39.81611,565.5 2.82405,39.81605,567.2 2.82417,39.81609,568.3 2.82438,39.81611,565.9 2.82453,39.81609,564.5 2.82463,39.81605,563.8 2.82477,39.81596,562.7 2.82514,39.81559,565.3 2.82524,39.81547,566.6 2.82547,39.8151,568.3 2.82553,39.81503,568.7 2.8256,39.81497,569.0 2.82574,39.8149,569.6 2.82585,39.81487,570.0 2.82596,39.81487,570.3 2.82608,39.81489,570.8 2.82625,39.81496,571.4 2.82652,39.81509,572.5 2.82675,39.81522,570.8 2.82699,39.81537,570.3 2.82712,39.81548,565.9 2.8274,39.81577,545.6 2.82752,39.81585,540.6 2.82762,39.81591,539.4 2.82775,39.81595,539.3 2.82797,39.81599,540.3 2.82828,39.81602,542.8 2.82901,39.81613,544.2 2.82974,39.81623,546.2 2.8298,39.81628,545.5 2.82983,39.81636,543.9 2.82986,39.81644,542.4 2.82986,39.81653,540.5 2.82983,39.81662,538.2 2.82974,39.81675,538.3 2.82933,39.81715,541.0 2.82892,39.81756,536.5 2.82876,39.81772,531.7 2.82873,39.81781,530.8 2.82873,39.81791,530.7 2.82876,39.81797,531.5 2.82881,39.81805,532.7 2.82894,39.8182,535.8 2.82904,39.81826,538.2 2.82913,39.81829,540.3 2.82957,39.81837,549.1 2.82975,39.81842,552.6 2.82984,39.81845,554.3 2.82988,39.81852,554.9 2.82989,39.81859,554.9 2.82981,39.81876,552.7 2.82958,39.81896,547.6 2.82951,39.81903,546.0 2.82951,39.81911,545.8 2.82953,39.81917,546.0 2.82965,39.81931,548.5 2.82987,39.8195,552.5 2.83001,39.81965,554.5 2.83006,39.8198,554.8 2.83008,39.82,554.7 2.83005,39.82017,556.1 2.83001,39.82032,557.2 2.82995,39.82049,558.2 2.82985,39.82063,558.7 2.82976,39.82069,558.5 2.82961,39.82077,558.0 2.82946,39.82082,557.3 2.82912,39.82091,557.0 2.82895,39.82096,555.3 2.82884,39.82103,555.5 2.82878,39.82109,556.4 2.82867,39.82124,559.3 2.82837,39.82158,564.0 2.82825,39.82166,564.2 2.82814,39.82169,563.1 2.82803,39.82169,560.9 2.8278,39.82166,555.6 2.82773,39.82167,554.5 2.82768,39.82172,554.6 2.82765,39.82178,555.2 2.82759,39.82207,559.4 2.82751,39.82225,560.1 2.8274,39.82244,560.6 2.82734,39.82256,560.1 2.82731,39.82265,559.3 2.82731,39.82277,559.1 2.82734,39.82289,559.7 2.82738,39.82301,560.5 2.82753,39.82326,564.1 2.82773,39.8235,567.2 2.82844,39.82411,570.1 2.82909,39.82475,569.5 2.82919,39.82488,568.7 2.8293,39.82514,567.8 2.82937,39.82524,569.5 2.8295,39.82549,571.6 2.82956,39.82572,571.0 2.8296,39.8259,570.2 2.82965,39.82608,569.5 2.82971,39.82621,570.1 2.82993,39.82653,574.7 2.83,39.82661,576.6 2.8306,39.82711,579.9 2.83129,39.8276,579.3 2.83153,39.82775,578.1 2.83167,39.82779,579.3 2.83176,39.82781,580.7 2.83241,39.82789,594.2 2.83316,39.8281,600.7 2.83337,39.82819,599.0 2.83369,39.82835,594.9 2.83392,39.8284,597.0 2.83414,39.82844,599.0 2.83423,39.82844,599.9 2.83437,39.82843,601.6 2.83525,39.82821,622.1 2.83556,39.82817,622.0 2.8359,39.82816,620.0 2.83616,39.82818,620.3 2.83641,39.82827,617.8 2.83654,39.82833,616.6 2.83679,39.82848,606.2 2.83692,39.82858,597.9 2.83703,39.82862,594.4 2.83717,39.82864,592.4 2.83731,39.82865,591.1 2.83742,39.82863,592.6 2.83765,39.82857,594.4 2.83802,39.82845,595.8 2.83809,39.8284,598.0 2.83816,39.82831,601.8 2.83838,39.82786,605.3 2.83862,39.8275,607.1 2.83882,39.8272,605.2 2.83888,39.82706,605.6 2.83908,39.82631,613.9 2.83914,39.82612,616.5 2.83917,39.82606,617.2 2.83922,39.82599,618.3 2.83936,39.82589,620.2 2.83952,39.82584,621.3 2.83978,39.82581,622.7 2.84086,39.82578,631.0 2.8411,39.8258,633.2 2.84149,39.82586,636.0 2.84152,39.8259,635.4 2.84153,39.82594,634.5 2.84151,39.826,632.7 2.84142,39.82609,629.1 2.84135,39.82622,624.7 2.84133,39.82628,622.8 2.84134,39.82633,621.6 2.84139,39.82638,621.1 2.8415,39.82643,621.8 2.84186,39.82656,624.1 2.84196,39.82658,624.8 2.84212,39.82657,627.1 2.84306,39.82651,636.1 2.844,39.82645,639.6 2.84483,39.82633,639.5 2.84544,39.82621,639.4 2.84605,39.82609,639.8 2.84619,39.82608,639.5 2.84646,39.8261,637.6 2.84721,39.82618,636.7 2.84731,39.82616,637.4 2.84742,39.82614,638.1 2.84756,39.82609,638.6 2.84765,39.82604,638.7 2.84772,39.82598,638.9 2.8478,39.82588,639.4 2.84798,39.82562,645.3 2.84806,39.82557,646.3 2.84865,39.82535,647.1 2.84923,39.82513,645.5 2.85009,39.82492,644.4 2.85023,39.82487,643.9 2.85031,39.82482,644.3 2.85095,39.82437,645.6 2.85123,39.82414,644.2 2.85154,39.82387,643.1 2.85171,39.82359,646.3 2.85178,39.82352,646.7 2.85187,39.82344,646.9 2.85203,39.82333,646.2 2.85214,39.82328,645.4 2.85224,39.82325,644.1 2.85239,39.82323,641.4 2.85257,39.82322,638.2 2.85269,39.82319,637.2 2.85279,39.82315,636.7 2.85302,39.82305,636.0 2.85332,39.82289,636.0 2.85369,39.82265,641.2 2.85389,39.82252,644.4 2.85398,39.82249,645.0 2.85407,39.82248,645.1 2.85416,39.82249,644.4 2.85438,39.82254,641.8 2.85456,39.82254,640.9 2.85473,39.82252,640.7 2.85547,39.82237,646.1 2.85561,39.82238,646.3 2.85571,39.82239,646.4 2.85583,39.82243,645.4 2.85591,39.82249,645.4 2.856,39.8226,646.1 2.85605,39.82273,645.7 2.85616,39.82303,645.0 2.85635,39.82348,644.4 2.85641,39.82359,644.3 2.85647,39.82366,644.8 2.85656,39.82374,646.0 2.85669,39.82382,648.1 2.85701,39.82397,649.7 2.85741,39.82412,650.6 2.85751,39.82414,651.0 2.85774,39.82415,653.5 2.85782,39.82416,654.1 2.85792,39.8242,654.4 2.85806,39.82428,654.7 2.85865,39.82465,653.2 2.85879,39.82472,652.2 2.85891,39.82477,651.4 2.85904,39.8248,651.0 2.85914,39.82479,651.5 2.85922,39.82477,651.5 2.86005,39.82438,654.5 2.86098,39.82393,652.1 2.86105,39.82387,652.5 2.86107,39.82382,653.6 2.86109,39.82372,656.4 2.861,39.82345,666.9 2.86099,39.82337,669.6 2.86102,39.82331,670.9 2.86109,39.82327,670.8 2.8612,39.82324,669.6 2.86136,39.82325,666.0 2.86152,39.82327,662.1 2.86174,39.82333,657.1 2.86183,39.82334,656.8 2.86191,39.82335,656.4 2.86195,39.82334,656.8 2.86199,39.82332,657.4 2.86212,39.8232,660.9 2.8622,39.82315,662.2 2.86229,39.82311,663.2 2.86239,39.82309,663.4 2.86253,39.82308,663.3 2.86278,39.82309,662.6 2.8629,39.82308,662.5 2.86297,39.82306,662.8 2.86306,39.82302,663.3 2.86398,39.82248,665.8 2.86449,39.82215,669.8 2.86467,39.82205,671.0 2.86489,39.82201,670.6 2.86501,39.82201,670.0 2.86518,39.82205,670.2 2.86545,39.8222,668.3 2.86554,39.82222,668.3 2.86564,39.82222,668.8 2.8657,39.8222,669.5 2.8658,39.82215,671.2 2.8664,39.82172,677.0 2.86651,39.82164,678.0 2.86665,39.82158,678.2 2.86678,39.82154,678.5 2.86694,39.82152,678.1 2.86713,39.82153,677.0 2.86726,39.82155,675.8 2.86743,39.82158,674.3 2.86773,39.82169,674.0 2.86791,39.82173,675.3 2.86869,39.82186,679.4 2.86878,39.82187,679.6 2.86895,39.82186,680.2 2.86925,39.82183,680.9 2.86943,39.8218,680.8 2.86978,39.82172,680.4 2.86989,39.82168,680.3 2.87005,39.82161,680.5 2.87039,39.82143,681.1 2.87118,39.82111,680.3 2.87207,39.82075,677.1 2.87272,39.82044,677.6 2.87289,39.8204,678.3 2.87309,39.82039,678.5 2.87325,39.8204,678.3 2.87382,39.8205,677.6 2.87428,39.82064,674.5 2.87436,39.82065,673.5 2.87446,39.82061,673.2 2.87492,39.82023,676.1 2.87501,39.82021,675.6 2.87545,39.82015,670.2 2.87563,39.82012,668.1 2.87575,39.82008,667.3 2.876,39.81997,666.3 2.87622,39.81984,664.8 2.87629,39.81977,664.4 2.8764,39.81951,664.5 2.87644,39.81932,664.9 2.87649,39.81905,666.0 2.87651,39.81881,668.5 2.87653,39.81872,668.9 2.87657,39.81861,668.7 2.87665,39.8185,666.9 2.87684,39.81834,661.9 2.87698,39.81827,657.7 2.87707,39.81824,654.9 2.87716,39.81819,652.2 2.8772,39.81814,651.4 2.87723,39.81809,650.8 2.87731,39.81765,652.6 2.8773,39.8176,653.5 2.87726,39.81752,655.6 2.87721,39.81745,658.2 2.87717,39.81736,660.9 2.87715,39.81729,662.6 2.87716,39.81718,664.1 2.87718,39.8171,664.8 2.87722,39.81704,664.6 2.87728,39.81699,663.8 2.87737,39.81696,661.9 2.87749,39.81695,658.8 2.87766,39.81694,654.7 2.87785,39.81696,649.5 2.87815,39.81707,639.9 2.8782,39.81707,638.6 2.87826,39.81706,637.3 2.87831,39.817,637.2 2.87832,39.81696,637.7 2.87817,39.81665,647.5 2.87817,39.81653,650.5 2.87819,39.81645,651.9 2.87824,39.81633,653.2 2.87833,39.81619,653.4 2.87844,39.81607,652.6 2.87851,39.81601,651.9 2.87862,39.81596,649.7 2.87884,39.81588,645.2 2.87914,39.81574,644.4 2.87926,39.8157,645.2 2.87945,39.81568,644.0 2.8797,39.81571,638.8 2.87985,39.81575,634.5 2.88013,39.81578,629.7 2.88053,39.8158,624.7 2.88065,39.81579,624.0 2.88074,39.81576,624.6 2.88081,39.81572,625.9 2.88105,39.81554,632.2 2.88131,39.81541,635.6 2.88149,39.81537,635.5 2.88162,39.81535,634.9 2.88176,39.81536,633.1 2.88233,39.8155,622.5 2.88241,39.81551,621.5 2.8827,39.8155,620.4 2.88294,39.8155,619.2 2.88366,39.81542,618.0 2.88431,39.81542,613.5 2.88471,39.81534,614.1 2.88478,39.81533,614.0 2.88488,39.81532,613.8 2.88498,39.81534,612.5 2.88505,39.81537,611.2 2.88553,39.81564,600.5 2.88563,39.81567,599.3 2.88593,39.81573,597.3 2.88606,39.81578,596.2 2.88641,39.81596,593.7 2.88653,39.81599,593.9 2.8866,39.81598,594.7 2.88669,39.81595,595.5 2.88697,39.81579,595.3 2.88733,39.8156,594.4 2.88759,39.8155,592.0 2.88781,39.81543,589.2 2.88794,39.81538,587.6 2.88803,39.81531,586.8 2.88819,39.81518,585.1 2.88852,39.81474,583.5 2.88885,39.8143,581.5 2.88912,39.81393,580.8 2.88947,39.81334,587.4 2.88952,39.8132,587.8 2.88955,39.81308,588.0 2.88963,39.8127,588.3 2.88973,39.81229,585.7 2.88981,39.81193,581.9 2.88982,39.81176,580.5 2.88979,39.8117,580.5 2.88967,39.81156,582.8 2.88965,39.81152,582.8 2.88962,39.81136,583.0 2.88963,39.81116,583.3 2.88965,39.81111,583.4 2.8897,39.81108,583.5 2.88975,39.81107,583.5 2.88986,39.8111,583.7 2.89042,39.8113,578.6 2.89054,39.81132,577.8 2.89064,39.81131,577.5 2.89073,39.8113,577.2 2.89098,39.81121,577.3 2.89124,39.81114,576.6 2.89153,39.81109,575.1 2.89261,39.81101,570.3 2.89277,39.81097,569.5 2.89291,39.81092,568.5 2.89372,39.81057,565.9 2.89452,39.81022,559.5 2.89499,39.80999,552.2 2.89506,39.80991,550.5 2.89512,39.80981,549.0 2.89515,39.80972,548.3 2.8951,39.80927,551.3 2.89511,39.80921,551.2 2.89514,39.80915,550.6 2.8952,39.80906,550.4 2.89538,39.8089,547.9 2.89583,39.80857,541.4 2.89595,39.80848,539.9 2.896,39.80844,539.4 2.89608,39.80827,540.6 2.89614,39.80809,541.9 2.89625,39.80785,542.9 2.8963,39.80778,542.7 2.89643,39.80767,541.2 2.8965,39.80763,540.0 2.89656,39.80757,539.5 2.89677,39.80724,539.3 2.89681,39.80721,538.6 2.89687,39.80722,536.7 2.89692,39.80727,534.5 2.89692,39.80731,533.9 2.89674,39.80774,531.2 2.89662,39.80813,527.3 2.89663,39.80821,525.4 2.89669,39.80826,522.6 2.89677,39.80826,519.7 2.89689,39.80819,516.9 2.89698,39.80812,515.3 2.89703,39.80803,515.7 2.89704,39.80754,527.2 2.8971,39.80743,527.4 2.89751,39.8068,520.6 2.89757,39.80675,518.6 2.89761,39.80676,516.9 2.89765,39.80677,515.2 2.89768,39.80684,513.6 2.89758,39.80748,513.3 2.89758,39.80759,510.5 2.89763,39.80765,506.9 2.89772,39.80766,503.5 2.89778,39.80762,502.6 2.8978,39.80754,504.3 2.89775,39.80723,508.8 2.89775,39.80705,509.7 2.89779,39.80691,508.9 2.89801,39.80652,504.2 2.89821,39.80612,500.6 2.89824,39.80607,499.5 2.89829,39.80604,496.7 2.89834,39.80604,493.6 2.89837,39.80607,491.4 2.89838,39.80611,490.5 2.89838,39.80615,490.2 2.8982,39.80662,494.1 2.89802,39.80708,499.4 2.89802,39.80714,499.1 2.89804,39.80719,498.2 2.89811,39.80725,495.5 2.89819,39.80725,492.5 2.89824,39.80722,490.8 2.89843,39.80676,483.5 2.89855,39.80637,479.2 2.89877,39.80589,466.3 2.8988,39.80579,464.0 2.89882,39.80568,462.4 2.8988,39.80528,462.7 2.89877,39.80519,464.1 2.89852,39.80491,480.1 2.8985,39.80486,483.4 2.89851,39.8048,485.7 2.89864,39.80463,487.7 2.89887,39.80438,489.7 2.8991,39.80423,487.5 2.89949,39.80402,474.8 2.89982,39.80387,464.6 2.89991,39.8038,463.5 2.89997,39.80372,464.3 2.9,39.80365,466.1 2.90002,39.80356,469.1 2.9001,39.80308,466.6 2.90008,39.80299,463.8 2.90003,39.80295,463.8 2.89983,39.80285,464.2 2.89889,39.80245,464.2 2.89791,39.80201,471.0 2.89778,39.80192,471.3 2.89756,39.80169,469.2 2.89739,39.80144,471.1 2.89729,39.80124,471.6 2.89722,39.80097,470.7 2.8972,39.80066,469.5 2.89723,39.80047,468.9 2.89728,39.80027,467.9 2.89735,39.8001,466.8 2.89769,39.79944,463.2 2.89803,39.79878,456.6 2.89803,39.79864,455.4 2.89802,39.79855,454.7 2.89792,39.79836,454.7 2.89784,39.79826,454.0 2.89768,39.79812,453.4 2.89708,39.79767,454.8 2.89658,39.79726,457.7 2.8965,39.79716,458.1 2.89647,39.79701,456.6 2.89649,39.79688,454.0 2.89659,39.79664,447.1 2.8966,39.79654,445.4 2.89659,39.79641,443.9 2.89638,39.79589,444.1 2.89617,39.79536,434.6 2.89613,39.79529,433.9 2.89573,39.79489,438.0 2.89519,39.79441,442.9 2.89506,39.79427,443.3 2.89499,39.79414,441.9 2.89496,39.79398,440.2 2.89475,39.79315,433.7 2.8947,39.79302,433.9 2.89438,39.79237,442.5 2.89431,39.79215,443.0 2.8943,39.79202,441.3 2.89432,39.79188,438.0 2.89457,39.79125,424.4 2.89459,39.79117,424.0 2.89458,39.79113,424.1 2.89442,39.79082,422.1 2.89415,39.79038,418.2 2.8939,39.79006,412.9 2.89388,39.79001,412.0 2.89391,39.78997,412.1 2.89405,39.78987,413.9 2.89413,39.7898,414.9 2.89418,39.78972,415.3 2.89422,39.7894,414.0 2.8943,39.7892,414.4 2.89431,39.78912,413.5 2.89428,39.78907,411.8 2.89421,39.78905,409.7 2.89416,39.78905,408.5 2.89411,39.78908,407.9 2.89406,39.78914,408.0 2.89399,39.78932,408.2 2.89385,39.78955,407.2 2.89376,39.78975,407.3 2.8937,39.78981,406.7 2.89362,39.78983,405.4 2.89355,39.7898,403.8 2.89354,39.78973,402.8 2.89361,39.78951,401.9 2.89363,39.78939,401.1 2.89365,39.78915,398.9 2.89369,39.78887,393.7 2.8937,39.7888,392.4 2.89367,39.78876,390.8 2.89359,39.78876,388.9 2.89352,39.78879,387.9 2.89346,39.78889,388.7 2.89338,39.78898,388.8 2.89277,39.78955,386.5 2.89256,39.78971,386.9 2.8924,39.78978,386.6 2.89226,39.78981,385.5 2.89174,39.78988,379.8 2.89163,39.78991,379.1 2.89157,39.78997,379.8 2.89146,39.79016,383.3 2.89112,39.79088,392.3 2.89106,39.79099,391.1 2.89099,39.79103,390.5 2.89094,39.79104,390.1 2.89089,39.79102,389.7 2.89082,39.79094,388.8 2.89055,39.79035,383.0 2.89049,39.79028,382.9 2.89019,39.79014,384.8 2.89018,39.79011,384.5 2.89017,39.79008,384.2 2.89019,39.79005,383.5 2.89023,39.79003,382.7 2.89069,39.78993,377.6 2.89078,39.78989,376.7 2.89083,39.78984,376.4 2.89087,39.78975,377.1 2.89095,39.78936,378.7 2.89098,39.78928,378.6 2.89102,39.78921,378.1 2.89111,39.78913,376.4 2.89149,39.78896,368.2 2.8916,39.78888,365.5 2.89174,39.78871,363.3 2.89202,39.78824,357.7 2.89205,39.78815,356.1 2.89204,39.78807,355.0 2.89195,39.78795,354.1 2.89151,39.78748,356.6 2.89148,39.78742,358.7 2.8915,39.78734,359.5 2.89155,39.78727,359.2 2.89197,39.78705,355.0 2.89217,39.78696,353.4 2.89224,39.78694,352.6 2.89232,39.78694,351.3 2.8925,39.78696,348.1 2.89298,39.78707,344.4 2.8931,39.78707,343.5 2.89316,39.78706,343.1 2.89321,39.78703,342.6 2.89329,39.78694,341.6 2.8934,39.78675,339.7 2.89353,39.78657,340.9 2.8936,39.78648,341.9 2.89371,39.78641,342.1 2.89465,39.78597,335.4 2.89476,39.78591,334.0 2.89488,39.78582,331.3 2.89539,39.78525,325.1 2.8959,39.78468,319.0 2.89595,39.7846,318.9 2.89597,39.78442,316.5 2.89597,39.78406,312.0 2.89602,39.78393,312.6 2.89612,39.78374,314.0 2.89621,39.78352,314.8 2.89622,39.78345,314.6 2.8962,39.78338,313.7 2.89597,39.78296,306.6 2.89595,39.78287,305.8 2.89596,39.78278,305.7 2.89605,39.78261,306.9 2.89616,39.78244,307.8 2.89632,39.78218,305.5 2.89642,39.78207,303.9 2.89665,39.78183,298.1 2.89669,39.78178,297.4 2.89672,39.78168,295.4 2.89673,39.78155,291.7 2.8966,39.78151,288.8 2.89657,39.78126,281.9 2.89661,39.78115,278.0 2.89662,39.78105,274.8 2.89675,39.78076,267.9 2.89703,39.78052,268.6 2.89722,39.78031,265.2 2.89738,39.78005,257.3 2.89746,39.77987,252.4 2.89738,39.78005,257.3 2.89722,39.78031,265.2 2.89703,39.78052,268.6 2.89675,39.78076,267.9 2.89662,39.78105,274.8 2.89661,39.78115,278.0 2.89657,39.78126,281.9 2.8966,39.78151,288.8 2.89673,39.78155,291.7 2.89677,39.78122,282.5 2.89681,39.78116,281.9 2.89724,39.78083,284.1 2.89767,39.7805,288.8 2.89773,39.78044,290.2 2.89779,39.78035,290.3 2.89799,39.77998,287.5 2.8983,39.77946,282.1 2.89834,39.77931,276.7 2.89844,39.77884,271.5 2.89867,39.77844,277.3 2.89875,39.77828,278.7 2.89878,39.77819,279.6 2.8988,39.7781,280.0 2.89883,39.77768,279.2 2.89882,39.7775,277.8 2.89878,39.77737,277.2 2.89858,39.77689,269.8 2.89854,39.77684,267.6 2.89849,39.77682,264.6 2.89843,39.77682,261.0 2.89839,39.77685,258.5 2.89837,39.77689,257.2 2.89838,39.77696,257.7 2.89851,39.77727,264.2 2.89857,39.77753,266.3 2.89857,39.77766,267.0 2.89855,39.77778,266.7 2.8984,39.77826,262.6 2.89835,39.77844,262.0 2.89832,39.7785,261.3 2.89825,39.77854,259.0 2.8982,39.77855,257.2 2.89814,39.77853,254.7 2.89811,39.77849,253.2 2.89812,39.77843,253.0 2.89815,39.77833,253.2 2.89831,39.77763,254.8 2.89831,39.77756,254.4 2.89804,39.77701,241.4 2.89795,39.77674,236.4 2.89793,39.77658,233.7 2.89793,39.77645,231.4 2.89795,39.77631,229.9 2.89807,39.77607,231.3 2.89821,39.77586,233.9 2.89828,39.77576,235.7 2.89831,39.77566,235.7 2.89833,39.77549,234.3 2.89836,39.77538,234.4 2.89844,39.77523,236.5 2.89846,39.77513,236.1 2.89844,39.77502,233.5 2.89842,39.775,232.3 2.89836,39.77499,229.2 2.89831,39.775,227.2 2.89828,39.77505,226.7 2.89819,39.77545,228.0 2.89801,39.77585,224.6 2.8979,39.77603,222.7 2.89785,39.77606,220.8 2.89779,39.77606,218.1 2.89775,39.77605,216.0 2.89772,39.77602,214.1 2.8977,39.77599,212.7 2.89771,39.77594,212.3 2.89795,39.77568,220.2 2.898,39.77561,221.7 2.89804,39.77551,222.5 2.89808,39.77517,220.6 2.89808,39.77508,219.7 2.89801,39.77485,215.1 2.89795,39.77447,209.8 2.89793,39.77422,206.9 2.89796,39.77403,205.3 2.89807,39.77369,202.0 2.89836,39.77319,195.0 2.89876,39.77297,198.6 2.89897,39.7729,200.2 2.89937,39.77288,204.5 2.89994,39.77269,199.8 2.9005,39.77261,197.7 2.90095,39.77244,193.8 2.90104,39.7724,193.7 2.90113,39.77232,192.8 2.90162,39.77184,185.7 2.90221,39.77193,189.2 2.90256,39.77206,191.4 2.90294,39.77227,191.6 2.90288,39.77216,190.9 2.90285,39.77192,188.6 2.90342,39.77206,187.6 2.90375,39.77209,186.8 2.90381,39.772,186.0 2.90402,39.77207,185.8 2.90428,39.77219,185.7 2.90444,39.77227,185.4 2.90454,39.77236,185.6 2.90459,39.77249,186.4 2.90465,39.77259,188.0 2.90495,39.77275,189.9 2.90528,39.77289,189.5 2.90562,39.77301,188.4 2.90589,39.77306,186.9 2.90646,39.77311,186.1 2.90684,39.77309,183.9 2.90714,39.77305,181.2 2.90724,39.77305,180.7 2.9076,39.77311,179.3 2.90805,39.77326,176.5 2.90847,39.7733,172.8 2.90874,39.77329,171.4 2.90919,39.77313,166.7 2.9095,39.7731,164.8 2.91032,39.77312,160.1 2.91046,39.77311,158.9 2.91091,39.77267,153.6 2.91171,39.77208,148.4 2.91235,39.77164,143.5 2.91298,39.7712,141.0 2.91362,39.77076,138.4 2.91407,39.77041,138.6 2.91409,39.77038,138.7 2.9141,39.77036,138.7 2.9141,39.77032,138.9 2.91402,39.77018,139.3 2.91398,39.77008,139.6 2.914,39.76994,140.3 2.91411,39.76984,141.4 2.91418,39.76989,141.2 2.9148,39.77028,144.3 2.91546,39.77093,141.7 2.91612,39.77158,140.1 2.91678,39.77224,137.3 2.91733,39.77268,135.2 2.91789,39.77312,133.8 2.91798,39.77318,133.4 2.91826,39.77326,132.5 2.91899,39.77351,131.4 2.91932,39.77362,131.3 2.91987,39.77374,131.1 2.92004,39.77383,130.9 2.92068,39.77421,128.6 2.92096,39.77429,128.0 2.92152,39.77436,127.4 2.92229,39.77444,126.1 2.9224,39.77446,125.9 2.92246,39.7745,125.7 2.92261,39.77465,125.5 2.92297,39.77525,125.1 2.92304,39.77531,125.1 2.92362,39.77557,124.8 2.924,39.77571,124.3 2.9245,39.77582,124.0 2.92521,39.77604,123.1 2.92565,39.77619,122.6 2.92623,39.77649,121.6 2.9266,39.77676,121.2 2.9271,39.77699,120.3 2.92772,39.77719,119.6 2.92834,39.77739,119.9 2.92892,39.77755,120.0 2.9295,39.77771,119.7 2.92966,39.77771,119.6 2.92983,39.77766,119.4 2.93014,39.77755,119.1 2.93089,39.77732,118.2 2.93191,39.77708,115.8 2.93203,39.77707,115.4 2.93271,39.77721,114.1 2.9334,39.77735,113.6 2.93424,39.77757,113.3 2.93458,39.77765,112.6 2.93513,39.77772,112.2 2.93584,39.77773,110.8 2.93654,39.77774,110.4 2.93757,39.7778,108.3 2.93861,39.77779,107.3 2.93955,39.77783,107.9 2.94049,39.77787,109.8 2.94144,39.77791,111.2 2.94238,39.77795,112.4 2.94281,39.77791,113.2 2.94318,39.77781,114.0 2.94355,39.77765,114.7 2.94419,39.77748,116.1 2.9448,39.77733,119.7 2.9454,39.77718,121.5 2.94552,39.77712,121.6 2.94577,39.77675,120.3 2.9459,39.77661,120.1 2.94601,39.77659,120.2 2.94671,39.77673,122.0 2.94697,39.7768,121.0 2.94758,39.77704,119.5 2.94803,39.77725,119.3 2.9484,39.77737,119.2 2.94877,39.77748,119.9 2.9496,39.77756,119.3 2.95042,39.77765,119.0 2.95138,39.77772,119.0 2.95236,39.77785,117.5 2.95335,39.77798,115.1 2.95347,39.77798,114.7 2.95362,39.77797,114.2 2.95423,39.77781,112.2 2.95483,39.77765,110.3 2.95493,39.77764,110.0 2.95505,39.77764,109.7 2.95511,39.77766,109.5 2.95516,39.77771,109.4 2.95545,39.77813,109.7 2.95551,39.77817,109.8 2.95563,39.7782,110.1 2.95574,39.77821,110.3 2.95584,39.7782,110.4 2.95612,39.77808,111.1 2.95667,39.77871,115.9 2.95723,39.77934,116.9 2.95682,39.77953,115.2 2.95671,39.7796,114.5 2.95645,39.77997,112.9 2.95644,39.78003,112.6 2.9565,39.78018,111.4 2.95662,39.78035,110.0 2.95666,39.78045,109.3 2.95668,39.78058,108.7 2.95666,39.7812,103.9 2.95665,39.78181,99.6 2.95664,39.78242,97.4 2.95665,39.78266,96.3 2.95667,39.7828,95.6 2.95672,39.78294,95.3 2.95716,39.78339,93.6 2.95761,39.78385,87.5 2.9577,39.78397,86.0 2.95795,39.78463,78.9 2.9582,39.78529,74.6 2.95845,39.78596,72.0 2.95869,39.78662,72.0 2.9588,39.7868,71.6 2.95893,39.78694,71.4 2.95906,39.78703,71.7 2.95941,39.78721,71.5 2.96026,39.78747,69.4 2.96058,39.78766,66.7 2.96094,39.78797,63.9 2.96131,39.78836,61.1 2.96167,39.78882,57.7 2.96197,39.78944,56.5 2.96215,39.78986,55.9 2.9622,39.79015,55.0 2.96228,39.79035,54.3 2.96243,39.7906,53.2 2.96269,39.79086,52.5 2.96298,39.79123,52.8 2.96319,39.79156,52.4 2.96331,39.79168,52.0 2.96356,39.79183,51.3 2.96375,39.79192,50.7 2.96393,39.79205,50.1 2.96401,39.79221,49.7 2.96409,39.79234,49.4 2.9643,39.79253,49.1 2.96427,39.79255,49.1 2.96422,39.79262,49.0 2.9642,39.79268,48.9 2.96423,39.79275,48.8 2.96489,39.79332,48.1 2.96495,39.79338,48.1 2.96507,39.79359,47.9 2.9651,39.79363,47.9 2.96518,39.79371,47.8 2.96537,39.79384,47.7 2.96558,39.79404,47.8 2.96585,39.79465,49.3 2.96591,39.79484,50.4 2.96593,39.79497,51.0 2.96589,39.79565,54.1 2.96584,39.79633,55.3 2.96586,39.79655,56.3 2.96602,39.79692,59.2 2.9662,39.79723,60.9 2.96651,39.79764,62.8 2.96682,39.79805,66.0 2.96732,39.7986,69.6 2.96788,39.79926,69.6 2.96845,39.79993,73.5 2.96871,39.80031,75.9 2.96896,39.80083,70.6 2.96906,39.80106,70.3 2.96918,39.8015,68.1 2.96934,39.80222,68.5 2.9694,39.80241,68.7 2.9695,39.8026,69.3 2.96959,39.80273,69.8 2.96978,39.80295,70.3 2.96993,39.80322,68.2 2.97011,39.8037,65.8 2.97013,39.80378,65.2 2.97004,39.80414,62.8 2.97003,39.80422,62.3 2.97002,39.80428,61.9 2.97004,39.80435,61.5 2.97011,39.80447,60.7 2.97051,39.80486,60.8 2.97102,39.80535,60.4 2.97152,39.80583,61.0 2.97196,39.80622,61.8 2.9724,39.8066,62.8 2.97249,39.80666,63.0 2.97327,39.80706,63.5 2.97364,39.80728,64.0 2.974,39.80753,64.8 2.97409,39.80762,64.9 2.97426,39.80782,64.9 2.97451,39.80804,64.9 2.975,39.80841,65.1 2.9751,39.80851,65.2 2.97549,39.80902,65.8 2.97566,39.80914,66.0 2.9761,39.80944,66.1 2.97644,39.80958,66.1 2.97676,39.80967,66.2 2.97696,39.80969,66.3 2.97726,39.80971,66.3 2.97805,39.80969,67.2 2.97885,39.80968,69.3 2.97901,39.80971,69.8 2.97917,39.80978,70.3 2.97956,39.80998,70.6 2.98012,39.81025,73.2 2.98049,39.8105,75.1 2.98096,39.81091,77.3 2.98109,39.81102,78.1 2.98122,39.8111,78.4 2.98167,39.81132,78.4 2.98184,39.81139,78.3 2.982,39.81143,77.7 2.98211,39.81148,77.4 2.98221,39.81155,77.1 2.9827,39.81198,78.0 2.98287,39.81219,79.2 2.98298,39.81239,80.3 2.98305,39.81245,80.3 2.98376,39.81276,77.9 2.98458,39.81314,77.6 2.98475,39.81324,77.5 2.98481,39.81331,77.6 2.98489,39.81346,78.0 2.98498,39.8136,78.1 2.98502,39.81365,78.1 2.98512,39.81374,78.3 2.98553,39.81407,79.0 2.98589,39.81434,79.5 2.98661,39.81484,79.6 2.9867,39.81489,79.5 2.98704,39.81506,79.4 2.98721,39.81512,79.3 2.98746,39.81524,79.2 2.98772,39.81538,79.8 2.98811,39.81563,81.0 2.98847,39.81582,81.9 2.98861,39.81589,82.0 2.98877,39.81593,82.1 2.98905,39.81598,82.3 2.98926,39.81603,82.5 2.98947,39.81611,82.6 2.98956,39.81615,82.7 2.98965,39.81619,82.8 2.98978,39.81627,83.0 2.99024,39.81665,83.7 2.99037,39.81673,83.7 2.99082,39.81705,84.8 2.99126,39.81738,86.4 2.99153,39.81751,87.0 2.99163,39.81757,87.3 2.99171,39.81764,87.5 2.99201,39.81784,87.3 2.99224,39.81796,87.2 2.99277,39.81818,87.2 2.99288,39.81821,87.0 2.99297,39.81827,87.0 2.99399,39.81861,85.1 2.99458,39.81875,86.0 2.99517,39.81888,87.6 2.99571,39.81927,87.7 2.99596,39.81948,88.2 2.99664,39.81997,89.0 2.99714,39.82037,89.5 2.99764,39.82077,88.9 2.99819,39.82117,90.6 2.99873,39.82157,94.4 2.99934,39.82208,98.9 2.99989,39.82261,102.0 3.00043,39.82293,104.4 3.00062,39.82307,103.9 3.00095,39.82355,100.9 3.00099,39.82363,100.8 3.00102,39.82373,100.5 3.00133,39.8242,96.8 3.00145,39.82431,96.5 3.00188,39.82454,95.9 3.00195,39.82458,95.8 3.00195,39.82458,95.8 3.00268,39.82509,93.8 3.0034,39.82566,93.4 3.00413,39.82624,93.1 3.00454,39.82655,94.4 3.00472,39.82665,94.9 3.00536,39.82696,94.3 3.00599,39.82726,92.6 3.0061,39.82734,92.3 3.00641,39.82783,91.9 3.00664,39.82817,91.1 3.00707,39.82858,90.4 3.00772,39.82907,89.7 3.0083,39.82928,90.3 3.00888,39.82949,87.6 3.00926,39.82966,85.7 3.00987,39.82997,83.5 3.01053,39.83034,83.5 3.01119,39.83073,83.6 3.01155,39.83108,85.3 3.01169,39.83116,85.7 3.01186,39.83128,85.9 3.01209,39.83158,86.9 3.01235,39.83181,87.4 3.01257,39.83194,87.5 3.01285,39.83205,86.8 3.01349,39.83227,85.0 3.01414,39.83249,82.1 3.01439,39.83267,81.2 3.01485,39.83305,80.1 3.01522,39.83344,78.9 3.01532,39.8335,78.1 3.01609,39.83382,73.1 3.01657,39.83404,70.3 3.01756,39.83428,67.7 3.01764,39.83429,67.7 3.01847,39.83448,67.6 3.01903,39.83474,67.8 3.01938,39.83478,67.7 3.01971,39.83474,67.5 3.01992,39.83474,67.5 3.02046,39.83485,68.1 3.02081,39.83498,68.9 3.02128,39.8351,67.6 3.02167,39.83525,67.3 3.02199,39.83536,67.0 3.02221,39.83539,66.2 3.02263,39.83554,65.8 3.02303,39.83568,64.8 3.02315,39.83579,65.0 3.02351,39.83604,64.9 3.02437,39.83658,63.8 3.02477,39.83685,62.4 3.02486,39.8369,62.0 3.02501,39.83693,61.2 3.02517,39.83702,61.3 3.02528,39.83711,61.5 3.02561,39.83765,62.9 3.02588,39.83778,62.1 3.0266,39.83817,60.4 3.02667,39.83824,60.6 3.02696,39.83895,63.7 3.02699,39.83914,64.5 3.02688,39.83988,66.7 3.02683,39.84,67.0 3.02684,39.84005,67.3 3.02687,39.84008,67.5 3.02701,39.84013,67.7 3.02708,39.84014,67.8 3.02716,39.84013,67.7 3.02746,39.84009,67.4 3.02754,39.8401,67.2 3.02804,39.84037,65.2 3.02813,39.84044,64.9 3.0282,39.84052,64.8 3.02833,39.84078,64.8 3.02838,39.84086,65.2 3.02847,39.84092,65.7 3.02876,39.84104,67.0 3.02922,39.84121,69.8 3.02934,39.84127,71.2 3.02949,39.84136,73.3 3.02953,39.84138,73.9 3.02957,39.84137,74.0 3.02964,39.84135,74.1 3.02998,39.84215,82.5 3.03032,39.84295,84.6 3.0305,39.84339,82.9 3.03069,39.84382,80.9 3.03093,39.84423,78.4 3.03121,39.84458,78.3 3.03154,39.84497,73.2 3.03186,39.84536,70.3 3.03227,39.84581,66.3 3.03284,39.84655,61.5 3.03302,39.84687,59.8 3.03315,39.84719,58.7 3.03324,39.8475,57.8 3.03328,39.84771,57.7 3.03337,39.84838,57.6 3.0334,39.84892,54.9 3.03344,39.84947,52.9 3.03348,39.84992,51.8 3.03354,39.85022,52.1 3.03367,39.85062,52.7 3.03393,39.85109,53.1 3.03418,39.85157,53.3 3.03429,39.85184,53.8 3.03436,39.85209,54.5 3.0344,39.85231,55.2 3.0344,39.85253,56.2 3.03437,39.85267,56.2 3.03431,39.8529,55.9 3.03423,39.8531,55.8 3.0341,39.85331,55.6 3.03389,39.85355,53.8 3.03359,39.85381,50.9 3.03312,39.85426,45.3 3.03253,39.85479,45.6 3.03195,39.85533,46.6 3.03137,39.85586,48.1 3.03105,39.85612,49.5 3.03059,39.85645,52.1 3.02972,39.85699,57.6 3.02983,39.85705,56.7 3.0299,39.85707,56.2 3.03048,39.85726,54.0 3.0307,39.85728,53.5 3.03141,39.85719,51.4 3.03209,39.85718,48.9 3.03277,39.85717,45.9 3.03287,39.85716,45.4 3.03298,39.8571,44.6 3.0332,39.85696,42.7 3.03352,39.85669,39.7 3.03372,39.85653,39.1 3.03435,39.85619,37.7 3.03466,39.8561,37.0 3.03507,39.85603,35.9 3.03553,39.85588,33.5 3.03605,39.85564,32.6 3.03658,39.8554,33.1 3.03731,39.85519,33.1 3.03756,39.85505,33.1 3.03764,39.85498,33.3 3.03777,39.8551,33.2 3.03826,39.85553,32.2 3.03868,39.85583,30.6 3.03912,39.85609,30.4 3.0397,39.85641,30.2 3.04064,39.85684,27.5 3.04083,39.85689,27.0 3.04105,39.85692,26.6 3.04146,39.85696,26.0 3.0417,39.85701,25.8 3.04182,39.85702,25.7 3.04197,39.85701,25.6 3.04202,39.85701,25.6 3.04218,39.85712,25.8 3.04224,39.85713,25.8 3.04232,39.85713,25.8 3.04281,39.857,25.2 3.04289,39.85699,25.2 3.0431,39.85701,25.2 3.04317,39.857,25.2 3.04328,39.85694,25.0 3.04334,39.85692,24.9 3.04382,39.85694,24.2 3.04389,39.85693,24.1 3.04405,39.85689,23.7 3.04412,39.85688,23.6 3.04493,39.85698,23.1 3.04521,39.85703,22.9 3.04536,39.85702,22.9 3.04542,39.85704,22.8 3.04557,39.85715,22.5 3.04569,39.85723,22.1 3.04576,39.85729,21.9 3.04583,39.85734,21.6 3.04606,39.85745,21.2 3.04636,39.85753,21.0 3.04643,39.85756,21.1 3.04661,39.85768,21.2 3.04702,39.8579,21.3 3.04708,39.85795,21.2 3.04715,39.85803,21.1 3.04736,39.85822,20.5 3.04741,39.85825,20.4 3.0475,39.85829,20.1 3.04799,39.8584,20.4 3.04806,39.85843,20.4 3.04823,39.85855,20.2 3.0483,39.85861,20.0 3.04832,39.85866,19.8 3.04837,39.85883,19.1 3.04843,39.8589,18.8 3.04856,39.85898,18.3 3.04886,39.85914,17.4 3.04911,39.85931,17.4 3.04935,39.85945,17.5 3.04945,39.8595,17.5 3.04965,39.85956,17.4 3.04974,39.85958,17.3 3.04988,39.85959,17.4 3.04992,39.85961,17.4 3.04997,39.85963,17.4 3.05005,39.85957,17.5 3.05012,39.85952,17.6 3.05077,39.85902,18.3 3.05142,39.85852,18.8 3.05207,39.85802,18.8 3.05259,39.85762,19.5 3.05311,39.85723,21.7 3.05327,39.85716,22.1 3.05347,39.85711,21.9 3.0539,39.85707,20.8 3.05421,39.857,20.0 3.05445,39.85692,19.4 3.05458,39.85686,19.0 3.05477,39.85675,18.6 3.05536,39.85637,18.5 3.0559,39.85603,18.2 3.05645,39.85568,17.1 3.057,39.85532,16.0 3.05756,39.85495,15.2 3.05819,39.85455,16.0 3.05882,39.85415,16.6 3.05946,39.85375,16.0 3.05995,39.85342,15.1 3.06003,39.85335,14.9 3.06008,39.85325,14.6 3.06016,39.85308,14.3 3.06018,39.85303,14.2 3.06021,39.85301,14.1 3.06028,39.85299,14.0 3.06063,39.85296,13.5 3.06075,39.85294,13.2 3.06185,39.85268,13.4 3.06295,39.85241,11.5 3.06405,39.85214,11.9 3.06515,39.85188,10.9 3.06625,39.85161,10.6 3.06735,39.85134,11.3 3.06845,39.85108,13.3 3.06879,39.85097,13.2 3.06895,39.8509,13.2 3.06966,39.85057,12.6 3.07037,39.85023,12.3 3.07109,39.84989,11.6 3.07123,39.84981,11.3 3.072,39.84925,9.3 3.07277,39.8487,8.9 3.07353,39.84814,9.9 3.07363,39.84808,10.0 3.0743,39.84759,10.9 3.07496,39.84711,11.5 3.07563,39.84662,11.2 3.0763,39.84614,11.0 3.07643,39.84604,11.0 3.07711,39.84555,11.5 3.0778,39.84505,11.9 3.07849,39.84456,12.9 3.07916,39.84394,15.0 3.07991,39.84329,16.9 3.08067,39.84264,19.5 3.08123,39.84213,22.0 3.08127,39.84208,22.3 3.0813,39.84202,22.5 3.08132,39.84195,22.8 3.08131,39.84173,23.7 3.08122,39.84152,24.4 3.08118,39.84145,24.5 3.0811,39.84137,24.7 3.08109,39.84132,24.8 3.0811,39.84125,25.0 3.08113,39.8412,25.1 3.08119,39.84115,25.2 3.08125,39.84112,25.3 3.08134,39.84111,25.3 3.08142,39.84112,25.3 3.0815,39.84114,25.3 3.08156,39.84117,25.2 3.08161,39.84121,25.1 3.08173,39.84135,24.7 3.08183,39.84144,24.3 3.08202,39.84156,23.8 3.08256,39.84175,22.8 3.08309,39.84195,22.2 3.08413,39.84231,25.5 3.08482,39.84253,28.3 3.08551,39.84274,31.0 3.08639,39.84301,29.2 3.08727,39.84328,27.5 3.08816,39.84355,27.5 3.08904,39.84381,28.3 3.08959,39.84398,27.9 3.09014,39.84414,27.8 3.09093,39.84436,28.7 3.09119,39.84442,28.2 3.09169,39.84449,27.8 3.09192,39.84451,27.0 3.09233,39.84452,25.8 3.09247,39.84451,25.4 3.09285,39.84445,23.7 3.09321,39.84434,22.1 3.09334,39.84429,21.5 3.09345,39.84425,21.3 3.09351,39.84424,21.1 3.09358,39.84423,20.9 3.09384,39.84426,20.0 3.09403,39.84426,19.3 3.09443,39.8442,19.3 3.09473,39.8441,20.0 3.09506,39.84398,21.0 3.09555,39.84378,22.3 3.0961,39.84355,21.5 3.09665,39.84329,19.0 3.09718,39.84307,17.6 3.09728,39.843,17.4 3.09749,39.84283,17.0 3.09764,39.84266,16.6 3.09769,39.84257,16.5 3.09781,39.84225,17.5 3.09791,39.84169,19.9 3.09799,39.84147,20.9 3.09813,39.84119,22.0 3.09834,39.84091,22.5 3.0985,39.84071,22.5 3.09903,39.84013,20.8 3.09955,39.83955,17.8 3.10008,39.83897,16.7 3.1006,39.8384,14.9 3.10116,39.83779,11.7 3.10172,39.83718,10.1 3.10191,39.83696,10.5 3.10208,39.83674,10.4 3.10224,39.8365,10.5 3.10243,39.83647,9.8 3.10251,39.83647,9.4 3.1027,39.83652,8.5 3.10278,39.83661,8.0 3.10308,39.83687,7.0 3.10344,39.83703,5.6 3.10381,39.83719,4.1 3.10411,39.83729,2.7 3.10428,39.83729,2.3 3.10432,39.83727,2.3 3.10437,39.83727,2.2 3.10442,39.83728,2.1 3.10448,39.83731,1.9 3.10451,39.83736,1.8 3.10461,39.83744,1.5 3.10495,39.83753,1.1 3.1059,39.83769,0.6 3.10667,39.8378,-0.6 3.10745,39.83791,-1.0 3.10832,39.83803,0.0 3.10918,39.83816,-0.4 3.1101,39.83829,-0.8 3.11102,39.83841,1.0 3.11194,39.83855,5.3 3.11285,39.83869,4.4 3.11344,39.83876,2.8 3.11448,39.8389,1.2 3.11545,39.83904,1.2 3.11643,39.83919,0.3 3.11741,39.83933,1.1 3.11838,39.83947,1.7 3.11936,39.83961,2.7 3.12034,39.83975,2.2 3.12074,39.8398,2.8 3.12093,39.83972,3.2 3.12096,39.83968,3.3 3.12101,39.83966,3.4 3.12106,39.83964,3.5 3.12111,39.83965,3.6 3.12117,39.83966,3.7 3.12122,39.8397,3.9 3.12171,39.8399,5.5 3.12195,39.83998,5.3 3.12232,39.84008,4.4 3.12321,39.84025,2.6 3.12411,39.84042,1.1 3.1246,39.84052,1.5 3.12527,39.84065,3.0 3.12545,39.84069,3.7 3.12548,39.84062,4.0 3.12587,39.84031,6.3 3.12606,39.84047,6.4 3.12611,39.84054,6.4 3.12612,39.84063,6.4 3.12649,39.84062,7.7 3.12661,39.84058,7.9 3.12673,39.84049,7.7 3.12679,39.84039,7.1 3.1268,39.84034,6.8 3.12677,39.84029,6.6 3.1267,39.84024,6.7
        </coordinates>
      </LineString>
    </Placemark>
  </Document>
</kml>
