<?xml version="1.0" encoding="UTF-8"?>
<kml xmlns="http://www.opengis.net/kml/2.2">
  <Document>
    <name>Cap Formentor Loop - Alcudia</name>
    <Placemark>
      <name>Cap Formentor Loop - Alcudia</name>
      <LineString>
        <tessellate>1</tessellate>
        <coordinates>
3.12169,39.83637,6.1 3.12166,39.83636,6.1 3.12144,39.83627,6.4 3.12132,39.8362,6.6 3.12114,39.83608,6.9 3.12099,39.83595,7.0 3.12083,39.83578,7.1 3.12083,39.83578,7.1 3.12085,39.83573,7.1 3.12086,39.83572,7.2 3.12088,39.8357,7.2 3.12089,39.83569,7.2 3.12124,39.83552,7.9 3.12143,39.83542,8.2 3.12177,39.83525,7.6 3.12182,39.83522,7.1 3.12182,39.83522,7.1 3.12184,39.83528,6.9 3.12184,39.83535,6.8 3.12186,39.83542,6.5 3.1219,39.83548,6.1 3.12197,39.83555,5.3 3.12206,39.83565,4.3 3.12212,39.83572,3.7 3.12216,39.83575,3.3 3.12219,39.83578,3.0 3.12223,39.83581,2.6 3.12227,39.83583,2.2 3.12231,39.83587,2.2 3.12236,39.83593,2.3 3.1224,39.83598,2.6 3.12245,39.83604,3.0 3.12252,39.8361,3.5 3.12258,39.83616,4.4 3.1226,39.8362,4.9 3.12262,39.83622,5.2 3.12263,39.83625,5.7 3.12268,39.8363,6.4 3.12269,39.8363,6.4 3.12274,39.83636,7.3 3.12278,39.83639,7.8 3.12305,39.83662,11.6 3.12329,39.83683,12.3 3.12345,39.83697,10.2 3.12358,39.83709,8.1 3.1236,39.83711,7.8 3.12361,39.83712,7.6 3.12383,39.83732,4.3 3.12421,39.83766,1.6 3.12448,39.83792,2.8 3.12464,39.83807,2.7 3.12476,39.83818,2.1 3.12477,39.8382,2.1 3.12527,39.83866,3.0 3.12536,39.83875,3.8 3.12544,39.83882,4.4 3.12571,39.83901,5.8 3.12591,39.83916,6.3 3.1262,39.83938,4.6 3.12621,39.83939,4.6 3.12644,39.83958,4.1 3.12648,39.83961,4.0 3.1266,39.83971,4.2 3.12674,39.83984,4.4 3.1269,39.83997,4.2 3.12691,39.83998,4.1 3.12727,39.8402,3.8 3.12745,39.84031,4.3 3.12749,39.84033,4.4 3.12757,39.84037,4.5 3.1276,39.84039,4.5 3.12774,39.84047,4.4 3.12798,39.84058,3.2 3.12806,39.84062,2.7 3.12837,39.84077,0.4 3.12841,39.84079,0.6 3.1286,39.8409,0.4 3.12865,39.84092,0.5 3.1287,39.84093,0.6 3.12875,39.84094,0.6 3.12881,39.84095,0.7 3.12891,39.84096,0.7 3.12898,39.84097,0.7 3.12915,39.84098,0.7 3.12932,39.84101,0.8 3.12975,39.84109,1.0 3.12981,39.8411,1.0 3.12991,39.84113,1.1 3.13,39.84115,1.1 3.13012,39.84116,1.2 3.13016,39.84117,1.3 3.13037,39.84122,1.6 3.13039,39.84122,1.6 3.13061,39.84127,2.0 3.13064,39.84127,2.0 3.13091,39.84133,2.4 3.13129,39.84141,2.8 3.13156,39.84147,3.1 3.13178,39.84152,3.6 3.13197,39.84153,4.3 3.13198,39.84153,4.3 3.132,39.84154,4.4 3.13225,39.84157,5.4 3.13237,39.84157,5.8 3.13249,39.84157,6.2 3.13259,39.84157,6.2 3.13263,39.84159,6.4 3.13266,39.84161,6.5 3.13268,39.84163,6.7 3.13271,39.84169,7.0 3.13271,39.84169,7.0 3.13269,39.8417,7.0 3.13259,39.84174,7.1 3.13258,39.84175,7.1 3.13257,39.84175,7.1 3.13257,39.84175,7.1 3.13261,39.84182,7.1 3.13264,39.8419,7.1 3.13285,39.84247,6.7 3.13294,39.84273,6.6 3.13301,39.84293,6.6 3.13303,39.84299,6.6 3.13303,39.84299,6.6 3.13278,39.84313,7.0 3.13269,39.84317,7.1 3.1326,39.84322,7.1 3.13251,39.84329,7.0 3.13242,39.84335,7.0 3.13235,39.84343,6.9 3.13228,39.84352,6.8 3.13225,39.84356,6.7 3.13201,39.84399,5.1 3.13201,39.84399,5.1 3.13173,39.84389,4.5 3.13173,39.84389,4.5 3.13165,39.844,3.8 3.13162,39.84407,3.4 3.13157,39.84415,3.0 3.13154,39.8442,3.0 3.1315,39.84425,3.0 3.13144,39.84429,3.1 3.13136,39.84432,3.0 3.13135,39.84435,3.0 3.13134,39.84437,3.1 3.13132,39.84443,3.1 3.13132,39.84446,3.2 3.13132,39.84451,3.3 3.13132,39.84456,3.4 3.13131,39.84461,3.5 3.13131,39.84464,3.5 3.13131,39.84466,3.6 3.13129,39.84472,3.6 3.13126,39.84479,3.7 3.13108,39.84519,3.3 3.13102,39.84532,3.1 3.13095,39.84546,3.0 3.13094,39.84549,3.0 3.13091,39.84557,2.9 3.13088,39.84566,2.9 3.13087,39.84574,3.0 3.13086,39.84582,3.0 3.13087,39.8459,3.0 3.13088,39.84595,3.0 3.13092,39.84602,3.0 3.13092,39.84602,3.0 3.13092,39.84601,3.0 3.13094,39.846,3.1 3.13095,39.846,3.1 3.13096,39.84599,3.1 3.13097,39.84599,3.1 3.13099,39.84598,3.2 3.131,39.84598,3.2 3.13101,39.84598,3.2 3.13103,39.84598,3.3 3.13104,39.84598,3.3 3.13105,39.84598,3.3 3.13107,39.84598,3.4 3.13108,39.84598,3.4 3.13109,39.84599,3.4 3.13111,39.84599,3.5 3.13112,39.84599,3.5 3.13113,39.846,3.5 3.13114,39.846,3.5 3.13116,39.84601,3.6 3.13117,39.84601,3.6 3.13118,39.84602,3.6 3.13119,39.84603,3.6 3.1312,39.84604,3.6 3.13121,39.84606,3.6 3.13122,39.84607,3.6 3.13123,39.84609,3.6 3.13124,39.8461,3.7 3.13124,39.84612,3.6 3.13125,39.84613,3.6 3.13125,39.84615,3.6 3.13125,39.84616,3.6 3.13125,39.84617,3.6 3.13125,39.84618,3.6 3.13124,39.8462,3.5 3.13124,39.84621,3.5 3.13123,39.84622,3.5 3.13122,39.84623,3.5 3.13121,39.84624,3.4 3.1312,39.84625,3.4 3.13119,39.84626,3.3 3.13118,39.84627,3.3 3.13117,39.84627,3.3 3.13116,39.84628,3.2 3.13115,39.84629,3.2 3.13114,39.84629,3.2 3.13112,39.8463,3.1 3.13111,39.8463,3.1 3.13109,39.84631,3.0 3.13108,39.84631,3.0 3.13106,39.84631,3.0 3.13105,39.84631,2.9 3.13103,39.84631,2.9 3.13102,39.84631,2.9 3.131,39.84631,2.8 3.13099,39.84631,2.8 3.13097,39.8463,2.8 3.13096,39.8463,2.7 3.13094,39.8463,2.7 3.13093,39.84629,2.7 3.13092,39.84628,2.7 3.13091,39.84627,2.7 3.1307,39.84649,2.2 3.13067,39.8465,2.2 3.13065,39.84651,2.2 3.13056,39.84658,2.3 3.13045,39.8467,2.5 3.1304,39.84674,2.6 3.1302,39.84694,2.8 3.13011,39.84702,2.9 3.12982,39.84731,3.0 3.12953,39.84759,3.2 3.12916,39.84796,4.7 3.1291,39.84802,5.0 3.12899,39.84812,5.5 3.12898,39.84813,5.5 3.12877,39.84834,6.5 3.12855,39.84856,7.1 3.12817,39.84895,8.4 3.12808,39.84904,8.6 3.12803,39.84909,8.7 3.12794,39.84918,9.0 3.1278,39.84932,9.2 3.12776,39.84936,9.3 3.12768,39.84944,9.5 3.12754,39.84958,9.9 3.1274,39.84972,10.2 3.12727,39.84985,10.5 3.12713,39.84999,11.0 3.12705,39.85007,11.1 3.12679,39.85033,12.0 3.12665,39.85047,12.7 3.12661,39.85051,12.9 3.12657,39.85055,13.1 3.12651,39.85061,13.4 3.12638,39.85073,14.0 3.12628,39.85083,14.5 3.12592,39.85118,13.8 3.12548,39.8516,13.0 3.12521,39.85185,13.6 3.12507,39.85197,13.9 3.12441,39.85266,13.6 3.12438,39.8527,13.5 3.12434,39.85273,13.4 3.12413,39.85295,13.0 3.12413,39.85295,13.0 3.12407,39.85294,13.0 3.12404,39.85296,13.0 3.12403,39.85297,13.0 3.12401,39.85298,13.0 3.12398,39.85298,13.0 3.12395,39.853,13.1 3.12391,39.853,13.1 3.12387,39.85301,13.2 3.12382,39.85301,13.2 3.12376,39.85302,13.3 3.12372,39.85302,13.4 3.12368,39.85302,13.4 3.12366,39.85301,13.4 3.12363,39.85301,13.5 3.12359,39.85299,13.5 3.12356,39.85297,13.5 3.12356,39.85297,13.5 3.12355,39.8528,13.1 3.12355,39.85256,12.6 3.12355,39.85256,12.6 3.123,39.85257,13.8 3.12238,39.85254,16.2 3.12205,39.85232,16.0 3.12205,39.85232,16.0 3.12198,39.85239,16.3 3.12189,39.85252,16.8 3.12185,39.85257,16.9 3.12183,39.8526,17.0 3.12181,39.85263,17.1 3.1218,39.85266,17.2 3.12178,39.85269,17.3 3.12178,39.85271,17.4 3.12177,39.85276,17.5 3.12175,39.85283,17.7 3.12173,39.85289,17.9 3.12172,39.85293,18.0 3.12171,39.85296,18.1 3.12168,39.85301,18.2 3.12163,39.85311,18.4 3.12159,39.85319,18.5 3.12159,39.85319,18.5 3.12124,39.8531,17.7 3.12107,39.85313,17.4 3.12095,39.85314,17.2 3.12066,39.85311,16.4 3.12055,39.85309,16.0 3.12055,39.85309,16.0 3.1204,39.85331,15.0 3.12039,39.85333,14.9 3.12038,39.85334,14.8 3.12036,39.85334,14.7 3.12035,39.85335,14.6 3.11985,39.85344,12.3 3.11951,39.85359,11.0 3.11925,39.8537,9.9 3.11904,39.8538,9.0 3.11881,39.85389,7.9 3.11881,39.85389,7.9 3.11889,39.85399,7.5 3.11889,39.85399,7.5 3.11881,39.85403,7.0 3.11878,39.85405,6.8 3.11858,39.85417,5.6 3.11855,39.85419,5.5 3.11851,39.85419,5.4 3.11849,39.85419,5.4 3.11848,39.85418,5.3 3.11835,39.85412,5.4 3.11794,39.85397,6.0 3.11667,39.85389,4.3 3.11659,39.85388,4.3 3.11653,39.85388,4.2 3.1165,39.85389,4.1 3.11647,39.85391,4.1 3.11641,39.85396,3.9 3.1164,39.85397,3.9 3.11589,39.85467,3.0 3.11584,39.85476,3.0 3.11565,39.85506,2.0 3.11531,39.85548,0.8 3.11521,39.85564,0.8 3.11515,39.85573,0.8 3.11478,39.85649,-0.1 3.11473,39.85659,-0.2 3.1147,39.85664,-0.3 3.11469,39.85666,-0.4 3.11463,39.85675,-0.3 3.11458,39.85679,-0.3 3.11455,39.85681,-0.3 3.11449,39.85684,-0.3 3.11444,39.85685,-0.4 3.11436,39.85685,-0.5 3.11409,39.85685,-0.6 3.1138,39.85687,0.0 3.11373,39.85688,0.2 3.11357,39.85692,0.5 3.11344,39.85696,0.8 3.11341,39.85696,0.8 3.11338,39.85696,0.9 3.11335,39.85696,1.0 3.11276,39.85671,1.7 3.11276,39.85671,1.7 3.11267,39.85669,1.8 3.11262,39.85668,1.9 3.11255,39.85667,1.9 3.11246,39.85666,2.0 3.11236,39.85667,1.8 3.11222,39.85666,1.7 3.11212,39.85666,1.6 3.11204,39.85665,1.5 3.11194,39.85664,1.4 3.11183,39.85662,1.3 3.11172,39.8566,1.2 3.11159,39.85659,1.1 3.1114,39.85659,1.1 3.11023,39.85659,-0.3 3.11012,39.85659,-0.6 3.10999,39.85658,-0.8 3.10989,39.85658,-0.8 3.10959,39.85658,-0.8 3.10929,39.85658,-0.9 3.10922,39.85657,-0.9 3.10918,39.85657,-0.9 3.10916,39.85657,-0.9 3.1091,39.85658,-0.9 3.10901,39.85659,-0.9 3.10883,39.85662,-0.9 3.10848,39.85667,-1.0 3.10813,39.85673,-0.3 3.10785,39.85677,0.6 3.10783,39.85677,0.6 3.10769,39.8568,1.1 3.1075,39.85683,1.8 3.1068,39.85694,2.3 3.10621,39.85703,1.4 3.10523,39.85719,0.6 3.10516,39.8572,0.7 3.10512,39.85719,0.7 3.10503,39.85717,0.8 3.10503,39.85717,0.8 3.10483,39.85727,0.6 3.10412,39.85758,0.5 3.10363,39.85779,0.0 3.10342,39.85785,0.0 3.10313,39.85794,0.1 3.10191,39.8583,0.7 3.1018,39.85833,0.8 3.10177,39.85834,0.9 3.10155,39.8584,1.0 3.10087,39.85854,1.5 3.10052,39.85858,1.7 3.10024,39.85862,1.8 3.1,39.85866,1.8 3.09988,39.85869,1.4 3.09982,39.8587,1.2 3.09976,39.85871,1.1 3.09963,39.85875,0.6 3.09954,39.85878,0.3 3.09945,39.85881,0.0 3.09941,39.85883,-0.2 3.09928,39.8589,-0.8 3.09917,39.85896,-1.2 3.0991,39.85901,-1.4 3.09897,39.85911,-1.6 3.09892,39.85917,-1.7 3.09886,39.85922,-1.6 3.09877,39.85933,-1.5 3.09874,39.85937,-1.5 3.09865,39.85948,-1.4 3.09825,39.86,-0.9 3.09797,39.86036,-0.6 3.09776,39.86063,-0.2 3.09758,39.86085,0.0 3.09741,39.86104,-0.1 3.09737,39.86108,-0.1 3.09734,39.86111,-0.1 3.09731,39.86114,-0.1 3.09719,39.86126,0.0 3.09712,39.86131,0.1 3.09711,39.86133,0.1 3.09703,39.86139,0.2 3.09697,39.86144,0.3 3.09677,39.86159,0.7 3.0966,39.86173,0.9 3.09652,39.86179,0.9 3.09643,39.86186,0.8 3.09635,39.86192,0.8 3.09605,39.86215,0.8 3.09601,39.86218,0.9 3.09594,39.86223,0.9 3.09562,39.86246,1.0 3.09539,39.86262,1.1 3.09457,39.8632,2.2 3.09395,39.86361,1.9 3.09388,39.86365,1.9 3.09364,39.8638,2.1 3.0934,39.86393,2.4 3.09333,39.86397,2.5 3.09288,39.86422,1.9 3.09222,39.86462,0.9 3.09215,39.86466,0.8 3.09156,39.86501,0.1 3.09113,39.86528,0.6 3.09088,39.86544,0.9 3.09072,39.86556,1.0 3.09069,39.86558,1.1 3.09049,39.86574,1.3 3.09036,39.86586,1.6 3.09024,39.86596,1.7 3.09,39.86618,2.0 3.08981,39.86639,1.8 3.08967,39.86655,1.6 3.08957,39.86667,1.5 3.08947,39.86679,1.3 3.08926,39.86703,1.0 3.0891,39.86722,0.9 3.08879,39.8676,0.9 3.08861,39.86782,0.9 3.08822,39.8683,0.7 3.08801,39.86856,0.2 3.08786,39.86873,-0.1 3.08735,39.86937,-0.1 3.08727,39.86949,-0.2 3.08715,39.86965,-0.5 3.08707,39.86974,-0.7 3.08695,39.86989,-1.1 3.08679,39.87009,-1.9 3.08667,39.87026,-2.6 3.08657,39.8704,-2.7 3.08645,39.87058,-2.3 3.0864,39.87066,-2.1 3.08637,39.87071,-2.0 3.08632,39.87079,-1.8 3.08622,39.87095,-1.5 3.08617,39.87103,-1.1 3.08572,39.87178,0.7 3.08571,39.87179,0.7 3.08556,39.87204,0.4 3.08541,39.87228,0.1 3.08531,39.87245,0.0 3.08529,39.87248,0.0 3.08523,39.87257,0.0 3.08518,39.87266,0.0 3.08508,39.87282,0.0 3.08493,39.87306,-0.1 3.08462,39.87354,-0.3 3.08448,39.87376,-0.3 3.08416,39.8743,0.0 3.08396,39.87463,-0.1 3.08393,39.87469,-0.1 3.08388,39.87476,-0.1 3.08386,39.87479,-0.1 3.08383,39.87485,-0.1 3.08371,39.87505,0.0 3.08289,39.87653,0.8 3.08241,39.87744,0.1 3.08224,39.87775,0.3 3.0822,39.87783,0.4 3.08204,39.87815,0.8 3.08157,39.87927,-1.9 3.08149,39.87946,-1.6 3.08142,39.87966,-1.4 3.0813,39.88001,-0.7 3.08125,39.88014,-0.6 3.08104,39.88075,-0.9 3.081,39.88083,-1.0 3.08099,39.88088,-1.1 3.08083,39.88131,-1.6 3.0807,39.88166,-1.2 3.08065,39.88176,-1.1 3.08039,39.88235,-0.5 3.08035,39.88245,-0.4 3.0801,39.88304,0.2 3.08001,39.88314,0.0 3.07997,39.88318,-0.1 3.07992,39.88323,-0.2 3.07981,39.88332,-0.4 3.07976,39.8834,-0.5 3.07961,39.88351,-0.7 3.07961,39.88351,-0.7 3.07962,39.88354,-0.7 3.07962,39.88355,-0.7 3.07962,39.88357,-0.6 3.07962,39.88358,-0.6 3.07962,39.8836,-0.6 3.07961,39.88361,-0.6 3.07961,39.88363,-0.6 3.0796,39.88364,-0.6 3.07959,39.88365,-0.6 3.07958,39.88367,-0.6 3.07957,39.88368,-0.6 3.07956,39.88369,-0.6 3.07955,39.8837,-0.6 3.07958,39.88377,-0.5 3.07957,39.88387,-0.4 3.07961,39.88395,-0.2 3.07967,39.88412,0.2 3.07968,39.88412,0.2 3.0797,39.88423,0.3 3.0797,39.88441,0.5 3.07961,39.88462,0.6 3.07936,39.88524,0.8 3.07922,39.88558,0.3 3.07918,39.8857,0.2 3.07895,39.8863,-0.3 3.07872,39.88693,0.4 3.07855,39.88741,1.8 3.07849,39.8876,2.4 3.07845,39.88771,2.7 3.07838,39.88793,3.3 3.0783,39.88826,3.9 3.07829,39.88831,4.0 3.07826,39.88846,4.1 3.07824,39.88868,4.3 3.07824,39.88869,4.3 3.07822,39.88898,4.6 3.07823,39.88924,4.6 3.07823,39.88946,4.2 3.07823,39.88971,3.7 3.07823,39.88985,3.4 3.07823,39.88996,3.2 3.07823,39.8901,3.5 3.07823,39.89023,3.9 3.07824,39.89057,5.1 3.07824,39.89084,6.0 3.07824,39.89208,4.4 3.07824,39.89218,4.3 3.07824,39.89238,4.0 3.07824,39.89271,3.6 3.07824,39.89291,3.4 3.07824,39.89294,3.4 3.07824,39.89331,2.9 3.07824,39.89357,2.6 3.07824,39.89361,2.6 3.07821,39.89361,2.5 3.07821,39.89361,2.5 3.07822,39.89396,2.1 3.07827,39.89396,2.2 3.07828,39.89449,3.4 3.0783,39.89503,5.8 3.07835,39.89538,5.4 3.07841,39.89566,4.7 3.0786,39.8964,3.9 3.0788,39.89714,2.4 3.07899,39.89788,2.3 3.07919,39.89862,4.6 3.07929,39.89913,5.0 3.0794,39.89965,3.9 3.07951,39.90043,2.6 3.07962,39.9012,2.8 3.07973,39.9016,3.8 3.07985,39.90193,3.6 3.07997,39.90224,3.1 3.08004,39.90241,2.9 3.08014,39.9026,2.7 3.08027,39.9028,3.1 3.08053,39.90317,5.0 3.08088,39.9036,6.6 3.0812,39.90404,3.9 3.08152,39.90448,2.6 3.08161,39.90467,3.2 3.08189,39.90506,4.0 3.08216,39.90547,3.6 3.08244,39.90587,4.2 3.08251,39.90595,4.4 3.08279,39.90618,4.0 3.0828,39.90624,4.2 3.08283,39.90625,4.1 3.08289,39.90627,3.9 3.08291,39.9063,4.0 3.08291,39.90635,4.2 3.0829,39.90638,4.4 3.08287,39.9064,4.6 3.08284,39.90641,4.7 3.0828,39.90642,4.9 3.08276,39.90641,5.0 3.08271,39.90638,5.1 3.08262,39.90653,6.1 3.08233,39.9069,7.1 3.0829,39.90747,9.3 3.08346,39.90804,9.1 3.08403,39.9086,7.8 3.08459,39.90917,6.5 3.08519,39.90974,6.1 3.08566,39.91007,6.3 3.08613,39.91039,4.7 3.08636,39.91054,4.1 3.08694,39.91087,4.3 3.08753,39.9112,5.0 3.08769,39.91126,4.8 3.08828,39.91143,4.1 3.08887,39.91159,4.7 3.08905,39.91163,4.9 3.0899,39.91165,5.8 3.09075,39.91168,6.1 3.0916,39.91171,8.7 3.09173,39.9117,8.7 3.09247,39.91155,6.0 3.09358,39.91131,5.5 3.09469,39.91108,6.5 3.0958,39.91084,6.0 3.09691,39.9106,6.3 3.09751,39.91051,6.6 3.09834,39.91041,6.5 3.09841,39.91041,6.6 3.09848,39.91041,6.7 3.09853,39.91042,6.7 3.0986,39.91048,6.9 3.09862,39.91051,7.0 3.0989,39.91116,8.9 3.09918,39.91181,10.7 3.09947,39.91246,10.1 3.09964,39.91268,10.6 3.09969,39.91271,10.7 3.09976,39.91271,10.8 3.09984,39.9127,11.1 3.10008,39.91265,11.7 3.1008,39.91249,12.9 3.10152,39.91232,12.9 3.10174,39.91228,13.0 3.10193,39.91226,12.9 3.10212,39.91226,12.8 3.10231,39.91231,12.8 3.10247,39.91237,12.8 3.1026,39.91249,13.9 3.10268,39.91258,14.8 3.10321,39.91333,18.4 3.10374,39.91408,26.1 3.10426,39.91483,30.2 3.10433,39.91488,31.1 3.1044,39.9149,32.1 3.10448,39.9149,33.4 3.10456,39.91488,34.8 3.10462,39.91485,36.1 3.10466,39.91479,37.5 3.10467,39.91471,38.6 3.10452,39.91417,40.7 3.10437,39.91362,42.5 3.10423,39.91306,42.3 3.10409,39.91251,42.7 3.10406,39.91224,42.7 3.1041,39.91161,45.7 3.10413,39.91155,46.6 3.1042,39.91152,49.1 3.10427,39.91152,51.6 3.10433,39.91155,53.9 3.10436,39.91161,55.0 3.10437,39.91202,54.5 3.10439,39.91228,54.6 3.10446,39.9125,57.0 3.10457,39.9127,59.7 3.10484,39.91302,68.0 3.10489,39.91315,69.0 3.10494,39.91336,68.9 3.10501,39.91358,67.0 3.10513,39.91376,67.1 3.10553,39.91423,70.9 3.1058,39.91454,71.3 3.10589,39.91461,72.3 3.10638,39.91496,78.7 3.10688,39.91541,83.6 3.10739,39.91586,89.4 3.10787,39.91621,95.8 3.10792,39.91629,96.2 3.10795,39.91634,96.4 3.10794,39.91641,96.0 3.10792,39.91648,95.6 3.10786,39.91655,94.7 3.10744,39.91688,97.9 3.10703,39.9172,105.7 3.10695,39.91724,106.4 3.10685,39.91725,105.5 3.10675,39.91725,104.3 3.10632,39.91715,95.8 3.10602,39.91711,91.6 3.10591,39.9171,90.3 3.1058,39.91712,89.4 3.10572,39.91716,88.5 3.10566,39.91723,88.9 3.10563,39.91731,90.4 3.10563,39.91738,92.5 3.10566,39.91749,97.0 3.10583,39.91785,100.1 3.1063,39.91849,114.7 3.10647,39.91881,117.3 3.10689,39.91945,128.5 3.10697,39.91963,131.1 3.107,39.91977,131.6 3.10701,39.92029,130.5 3.10701,39.92029,130.5 3.10702,39.92099,131.2 3.10705,39.92115,132.2 3.10721,39.92158,138.0 3.10727,39.92176,139.7 3.10735,39.92221,140.5 3.10739,39.92233,141.5 3.10765,39.92285,154.3 3.1077,39.92299,156.3 3.10781,39.92347,159.6 3.10781,39.92358,160.4 3.10777,39.92372,159.5 3.10749,39.92427,151.4 3.10748,39.92436,151.0 3.10751,39.92444,151.7 3.10757,39.9245,153.7 3.10766,39.92456,156.6 3.10834,39.92484,175.2 3.10841,39.9249,177.3 3.10846,39.92497,177.9 3.10849,39.92504,177.8 3.10848,39.92524,174.4 3.10849,39.92534,173.2 3.10852,39.92541,173.2 3.10856,39.92546,173.8 3.10868,39.92555,176.4 3.10885,39.92564,180.3 3.10922,39.9258,188.4 3.10929,39.92586,189.5 3.10934,39.92592,190.7 3.10936,39.926,190.7 3.10934,39.92617,189.1 3.10935,39.92633,188.3 3.10937,39.92643,188.2 3.10941,39.9265,188.7 3.10948,39.92658,189.8 3.1097,39.92677,194.4 3.10974,39.92682,195.3 3.10976,39.92687,195.7 3.10974,39.92693,195.4 3.10965,39.92709,194.1 3.10963,39.92717,194.0 3.10966,39.92729,194.8 3.10986,39.92771,199.2 3.11,39.92804,202.2 3.11001,39.9281,202.8 3.11002,39.92843,203.1 3.11005,39.92851,202.5 3.1101,39.92858,202.3 3.11033,39.9287,203.9 3.11069,39.92888,207.1 3.11077,39.92889,208.1 3.11086,39.92887,209.1 3.11113,39.92873,210.7 3.1112,39.9287,211.3 3.11128,39.92869,211.7 3.11139,39.9287,211.7 3.11183,39.92879,210.9 3.11226,39.92894,207.2 3.11297,39.9291,200.4 3.11299,39.92911,199.8 3.11301,39.92914,198.0 3.11301,39.92918,196.0 3.11298,39.92921,195.1 3.11292,39.92922,195.0 3.11247,39.92914,198.3 3.11195,39.92909,201.0 3.11191,39.9291,200.7 3.11184,39.92912,200.1 3.11178,39.92916,198.9 3.11176,39.9292,198.7 3.11177,39.92925,198.6 3.11181,39.92929,198.3 3.11188,39.92931,197.9 3.11258,39.92936,193.4 3.11327,39.92941,186.9 3.11337,39.9294,187.0 3.11354,39.92938,188.8 3.11366,39.92937,190.0 3.11373,39.92938,190.0 3.11416,39.92952,184.6 3.11423,39.92953,185.5 3.11441,39.92951,190.8 3.11447,39.92952,191.6 3.11452,39.92954,191.6 3.11459,39.9296,189.7 3.1148,39.92988,177.8 3.11503,39.93011,170.3 3.11511,39.93018,168.9 3.11546,39.9304,164.9 3.11551,39.93042,164.8 3.11562,39.93044,165.9 3.11589,39.93042,172.1 3.11606,39.93042,173.3 3.11613,39.93043,173.0 3.11621,39.93045,172.2 3.11674,39.93063,162.7 3.11689,39.93065,161.0 3.11705,39.93065,160.6 3.11764,39.93055,166.9 3.11789,39.93049,171.4 3.11818,39.93037,182.6 3.11834,39.93033,187.1 3.11853,39.93033,192.1 3.119,39.93036,200.0 3.11936,39.93037,201.0 3.11961,39.93036,200.8 3.11967,39.93037,198.6 3.11998,39.93048,174.9 3.1203,39.93052,163.2 3.12067,39.93065,143.1 3.12083,39.93067,141.4 3.12094,39.93067,142.5 3.12103,39.93066,144.4 3.12108,39.93064,146.6 3.12118,39.93059,151.7 3.12126,39.93056,154.7 3.12136,39.93057,154.4 3.12152,39.93059,153.9 3.12156,39.93061,152.9 3.12166,39.93069,148.7 3.1217,39.93076,144.4 3.12176,39.93091,132.5 3.12189,39.93106,119.7 3.12191,39.93108,118.2 3.12199,39.93111,116.9 3.12208,39.9311,119.1 3.12211,39.93109,120.3 3.12217,39.93105,124.0 3.12231,39.93077,141.8 3.12237,39.93071,143.9 3.12277,39.93035,150.6 3.12283,39.93032,150.6 3.12288,39.9303,150.5 3.12301,39.93027,149.2 3.12309,39.93027,147.8 3.12355,39.93029,141.6 3.1238,39.9303,140.1 3.12399,39.93028,140.5 3.12445,39.93023,141.7 3.12459,39.93023,141.1 3.12468,39.93025,139.5 3.12474,39.93028,137.3 3.12475,39.93032,134.8 3.12473,39.93036,132.3 3.12467,39.93039,130.7 3.12462,39.93039,131.0 3.12425,39.93038,133.3 3.12417,39.93039,133.1 3.12355,39.93054,129.7 3.12325,39.93062,130.0 3.12321,39.93064,130.1 3.12313,39.9307,129.4 3.12309,39.93075,128.2 3.12308,39.93081,126.0 3.12314,39.931,120.6 3.12315,39.93109,118.9 3.12315,39.93112,118.3 3.12305,39.93142,112.5 3.12305,39.93146,111.6 3.12307,39.93158,109.1 3.12309,39.93161,108.8 3.12316,39.93168,107.9 3.12324,39.93173,106.2 3.12333,39.93177,105.8 3.12446,39.93198,96.8 3.1248,39.93208,93.7 3.125,39.93218,93.2 3.12504,39.93222,93.0 3.12509,39.93227,92.6 3.12516,39.9324,92.9 3.12519,39.93247,93.3 3.12523,39.9327,88.0 3.12525,39.9333,74.2 3.12526,39.93339,70.9 3.1253,39.93348,67.5 3.12537,39.93357,65.1 3.12543,39.9336,65.5 3.1255,39.93363,66.3 3.12554,39.93363,67.5 3.12563,39.93363,70.2 3.12573,39.93361,73.7 3.12598,39.9335,82.9 3.12673,39.93309,87.6 3.12688,39.93299,86.6 3.12725,39.93266,79.2 3.12733,39.9326,77.6 3.12766,39.93239,72.7 3.12781,39.93232,71.3 3.12793,39.93229,70.9 3.12873,39.93215,64.7 3.12878,39.93214,64.1 3.12886,39.93215,63.8 3.12895,39.93218,64.0 3.12952,39.9325,63.1 3.13018,39.93277,58.3 3.13036,39.93285,58.6 3.13046,39.93292,59.1 3.13052,39.93297,59.3 3.13064,39.93311,59.9 3.13067,39.93312,59.5 3.1307,39.93312,59.0 3.13073,39.93312,58.5 3.13078,39.93309,57.3 3.13081,39.93305,56.3 3.13081,39.93303,56.1 3.13079,39.93298,55.8 3.13077,39.93295,55.7 3.13067,39.93287,55.8 3.13012,39.93248,50.5 3.1299,39.93227,49.0 3.12958,39.93195,48.4 3.12953,39.9319,48.0 3.12928,39.93148,44.2 3.12926,39.9314,43.9 3.12926,39.93132,43.3 3.12946,39.93104,38.9 3.12984,39.93054,32.8 3.13023,39.93005,28.8 3.13032,39.92995,28.0 3.13041,39.92989,27.3 3.13053,39.92985,26.5 3.13154,39.92961,21.6 3.13255,39.92937,17.2 3.13346,39.92914,12.6 3.13353,39.92913,12.3 3.13364,39.92915,11.9 3.13371,39.92918,11.7 3.13377,39.92922,11.5 3.13382,39.92928,11.4 3.13386,39.92936,11.3 3.13392,39.9297,11.3 3.13408,39.93029,12.6 3.13414,39.93045,13.4 3.13424,39.93062,14.3 3.13466,39.93127,17.8 3.13487,39.9316,18.9 3.13512,39.93215,20.7 3.13534,39.93256,22.8 3.13555,39.93298,26.1 3.13564,39.93312,26.8 3.13569,39.93318,26.9 3.1358,39.93329,27.0 3.13592,39.93336,27.2 3.13599,39.93339,27.4 3.13606,39.93341,27.6 3.13623,39.93343,27.6 3.13727,39.93346,27.7 3.1374,39.93348,27.8 3.1375,39.93351,28.1 3.13772,39.93363,29.5 3.13811,39.93387,31.9 3.13887,39.93431,38.1 3.13962,39.93476,43.8 3.13984,39.93486,44.2 3.13997,39.93491,44.2 3.14023,39.93499,43.8 3.14069,39.93516,43.5 3.14076,39.9352,43.5 3.14089,39.93529,44.0 3.14112,39.93554,45.6 3.14181,39.93623,48.2 3.14251,39.93692,50.3 3.14321,39.93762,53.6 3.1439,39.93831,58.5 3.14402,39.93841,59.5 3.14425,39.93858,60.6 3.14485,39.93893,61.1 3.14565,39.93938,61.7 3.14644,39.93984,63.2 3.14737,39.94036,62.8 3.14829,39.94088,64.4 3.14921,39.9414,68.4 3.15014,39.94192,70.7 3.15106,39.94244,72.1 3.15198,39.94297,71.2 3.15291,39.94349,71.2 3.15383,39.94401,75.7 3.15475,39.94453,78.0 3.15568,39.94505,81.8 3.15657,39.94555,83.3 3.15746,39.94605,84.4 3.15835,39.94655,86.7 3.15924,39.94705,90.6 3.16013,39.94755,94.1 3.16025,39.94761,95.1 3.16046,39.94768,96.7 3.16058,39.94769,97.6 3.16072,39.94769,98.7 3.16097,39.94767,99.2 3.16182,39.94754,98.5 3.16198,39.94752,99.4 3.16214,39.94752,100.1 3.16224,39.94755,100.4 3.16232,39.94759,100.5 3.16241,39.94766,100.4 3.16309,39.94828,101.9 3.16318,39.94834,102.3 3.16322,39.94836,101.9 3.16387,39.94847,103.3 3.16474,39.94865,97.6 3.16538,39.94879,92.1 3.16602,39.94893,88.3 3.16678,39.94903,86.6 3.1674,39.94909,85.4 3.16835,39.94926,83.3 3.16864,39.9493,81.7 3.16883,39.94931,81.3 3.16901,39.94929,82.0 3.16978,39.94916,89.6 3.16989,39.94915,90.1 3.17018,39.94917,91.3 3.1706,39.94923,91.0 3.17075,39.94922,91.7 3.17083,39.94921,92.2 3.17093,39.94919,93.4 3.17115,39.94912,95.6 3.17123,39.94907,96.2 3.1713,39.94899,97.0 3.17131,39.94895,97.1 3.17133,39.94844,97.7 3.17134,39.94839,97.9 3.17137,39.9483,98.4 3.17141,39.94826,99.1 3.17151,39.9482,101.0 3.17163,39.94817,103.6 3.1717,39.94816,105.1 3.17176,39.94817,106.3 3.17188,39.94821,108.8 3.17196,39.94827,110.3 3.17199,39.94831,110.9 3.17224,39.94884,109.8 3.17233,39.94892,110.1 3.17238,39.94894,110.5 3.17247,39.94895,111.5 3.17256,39.94895,112.3 3.17309,39.94886,119.1 3.17326,39.94884,121.6 3.17343,39.94883,124.5 3.17361,39.94886,126.8 3.17437,39.9491,131.8 3.17454,39.94917,131.6 3.17493,39.94937,128.5 3.17505,39.94941,128.6 3.17562,39.94954,133.0 3.17619,39.94967,136.1 3.17632,39.94969,136.9 3.17639,39.94969,138.5 3.17646,39.94968,141.3 3.17706,39.9495,181.6 3.17756,39.94938,216.2 3.17771,39.94936,213.3 3.17779,39.94935,211.8 3.17786,39.94936,210.5 3.17793,39.94937,209.1 3.17831,39.94947,201.6 3.1792,39.94973,183.9 3.18008,39.94998,166.4 3.18071,39.95017,153.8 3.18111,39.95025,155.2 3.18162,39.95036,161.1 3.18236,39.95056,164.4 3.18286,39.95069,171.7 3.18313,39.95077,173.8 3.18404,39.95123,177.7 3.18427,39.95138,177.4 3.18479,39.95177,172.2 3.18487,39.95182,172.4 3.18496,39.95184,174.7 3.18547,39.95191,187.4 3.18556,39.95194,188.7 3.18565,39.95199,188.9 3.18588,39.95217,186.2 3.186,39.95229,182.3 3.18609,39.95238,179.5 3.18626,39.95266,174.2 3.18632,39.95273,174.7 3.18635,39.95275,175.4 3.18641,39.95277,177.0 3.18678,39.9528,185.3 3.18709,39.95285,185.6 3.18728,39.95288,185.9 3.1874,39.95292,186.3 3.18745,39.95295,186.7 3.18774,39.95311,186.6 3.18783,39.95314,186.4 3.18791,39.95314,185.9 3.18842,39.95303,180.0 3.18856,39.95301,177.7 3.18867,39.95301,176.2 3.18876,39.95304,175.4 3.18883,39.95308,175.1 3.18887,39.95312,175.2 3.18893,39.9532,175.6 3.18912,39.95389,176.4 3.18916,39.95398,176.4 3.1892,39.95402,176.4 3.18924,39.95406,176.5 3.18933,39.9541,176.5 3.1894,39.95411,176.5 3.18951,39.95411,176.3 3.18961,39.95409,176.0 3.18969,39.95405,175.7 3.18977,39.95398,175.1 3.19022,39.95349,175.9 3.19064,39.9532,180.0 3.19146,39.95275,178.7 3.19154,39.95272,178.8 3.19162,39.95271,179.6 3.19176,39.95273,183.2 3.19187,39.95277,187.2 3.19209,39.95287,195.4 3.19217,39.9529,197.9 3.19225,39.9529,199.6 3.19237,39.95286,200.8 3.19245,39.95279,200.6 3.19258,39.95255,198.5 3.19271,39.95195,188.1 3.19276,39.95182,186.7 3.19285,39.95173,188.0 3.19309,39.95159,194.2 3.19324,39.95148,197.6 3.19345,39.95119,194.7 3.19354,39.95111,193.0 3.19361,39.95108,192.4 3.19365,39.95107,192.3 3.19372,39.95106,192.3 3.1938,39.95107,193.0 3.19389,39.95111,194.6 3.19424,39.95135,205.4 3.19435,39.95141,208.8 3.19443,39.95143,210.4 3.19456,39.95143,211.9 3.19464,39.9514,211.7 3.19467,39.95138,211.3 3.19474,39.95132,210.0 3.19477,39.95127,208.6 3.19496,39.95089,197.5 3.19499,39.95086,196.8 3.19506,39.95082,196.5 3.19522,39.95076,196.6 3.19534,39.95074,197.6 3.19547,39.95075,199.9 3.19617,39.95084,207.7 3.1963,39.95087,208.2 3.19653,39.95093,209.6 3.19677,39.95101,211.2 3.19687,39.95105,211.8 3.19732,39.95129,216.5 3.19744,39.95134,217.1 3.19767,39.9514,218.5 3.19806,39.95147,219.6 3.19814,39.95151,220.4 3.19821,39.95158,221.8 3.19826,39.9517,223.7 3.19829,39.95182,224.2 3.19836,39.95251,226.8 3.19838,39.95272,230.7 3.19839,39.95277,231.6 3.19841,39.9528,231.9 3.19847,39.95287,232.4 3.19862,39.95298,232.4 3.19876,39.95302,231.1 3.19889,39.95303,229.3 3.19903,39.95301,226.7 3.19909,39.95299,225.4 3.19944,39.95281,219.2 3.19949,39.95279,218.6 3.19969,39.95275,217.1 3.19983,39.95274,216.4 3.2,39.95275,216.1 3.20012,39.95277,216.5 3.20084,39.953,218.8 3.20106,39.95309,219.8 3.2014,39.95332,219.3 3.20147,39.95336,218.5 3.20153,39.95338,217.8 3.20167,39.9534,216.6 3.20178,39.95341,216.4 3.20256,39.95341,215.9 3.20262,39.95342,215.0 3.2027,39.95345,213.3 3.20277,39.95349,211.3 3.20281,39.95354,209.1 3.20283,39.9536,206.7 3.20282,39.95368,203.8 3.20279,39.95374,201.9 3.20274,39.95378,200.9 3.20263,39.95383,200.3 3.20255,39.95384,200.8 3.20228,39.95379,204.6 3.20217,39.95379,205.3 3.20207,39.9538,205.7 3.20199,39.95383,205.5 3.20194,39.95387,204.8 3.20192,39.9539,204.3 3.20191,39.95396,202.9 3.20192,39.95404,200.8 3.202,39.95422,195.6 3.20199,39.95429,194.5 3.20197,39.95433,194.0 3.20192,39.95438,193.7 3.20185,39.95442,193.7 3.20144,39.95455,196.3 3.20136,39.9546,196.4 3.2013,39.95465,196.1 3.20093,39.95508,187.9 3.2009,39.95512,185.5 3.20088,39.95516,183.0 3.20087,39.95524,177.7 3.20089,39.95532,172.6 3.20092,39.95536,170.4 3.20098,39.95541,168.3 3.20103,39.95543,167.9 3.20111,39.95545,168.3 3.20124,39.95545,170.7 3.20159,39.95539,178.2 3.20167,39.95538,179.5 3.20177,39.95539,180.1 3.20242,39.95548,186.9 3.20256,39.95549,189.2 3.20268,39.95546,190.9 3.20278,39.9554,191.5 3.20283,39.95536,191.5 3.20327,39.95485,187.4 3.20335,39.95477,187.3 3.20344,39.95469,187.8 3.20354,39.95463,188.3 3.20407,39.95435,184.9 3.2046,39.95408,183.8 3.20472,39.95403,184.6 3.20555,39.95382,183.6 3.20562,39.95379,182.6 3.20592,39.95365,176.9 3.20598,39.95363,176.2 3.20613,39.95359,175.2 3.20626,39.9536,176.6 3.20719,39.95374,177.8 3.20725,39.95376,177.9 3.20731,39.95378,178.0 3.20736,39.95381,178.8 3.20765,39.95404,182.5 3.20773,39.95415,185.2 3.20796,39.9546,188.6 3.2082,39.95505,189.8 3.20825,39.95516,188.2 3.20826,39.95528,187.9 3.20825,39.95542,188.4 3.20823,39.95549,189.2 3.20802,39.95604,196.1 3.20802,39.95613,195.8 3.20803,39.9562,195.2 3.20807,39.95629,193.8 3.20831,39.95684,188.0 3.20832,39.95696,188.2 3.20829,39.95703,188.8 3.20824,39.9571,189.4 3.20818,39.95715,189.9 3.20814,39.95717,190.2 3.20806,39.9572,190.6 3.20794,39.95721,191.3 3.20759,39.9572,193.6 3.20755,39.95721,193.6 3.20745,39.95723,193.6 3.20741,39.95726,193.1 3.20734,39.95732,191.8 3.20731,39.95737,190.5 3.2073,39.95744,188.8 3.20731,39.95748,187.8 3.20733,39.95754,184.6 3.20739,39.9576,181.5 3.20743,39.95763,180.4 3.20747,39.95766,179.8 3.20803,39.95786,185.9 3.20821,39.95788,191.0 3.20838,39.95788,195.3 3.20856,39.95784,197.4 3.20866,39.9578,198.2 3.20875,39.95776,198.9 3.20911,39.95752,199.7 3.20916,39.95748,199.4 3.20935,39.95727,196.6 3.20943,39.95719,195.9 3.21,39.95682,198.6 3.21058,39.95644,195.6 3.2107,39.95636,196.3 3.21085,39.95624,197.1 3.21133,39.95572,187.4 3.21141,39.95562,183.9 3.21157,39.95536,174.9 3.2116,39.95533,173.3 3.21164,39.95531,171.3 3.21168,39.9553,168.6 3.21177,39.9553,159.1 3.21182,39.95531,154.1 3.21188,39.95535,149.4 3.21193,39.95541,146.9 3.21195,39.95551,149.5 3.21193,39.95558,154.2 3.21189,39.95567,160.8 3.21159,39.95615,177.3 3.21155,39.95624,177.4 3.21154,39.95632,176.7 3.21155,39.95641,175.4 3.21174,39.95725,160.4 3.21174,39.95738,159.2 3.21169,39.95751,159.1 3.21137,39.95801,161.6 3.2113,39.95814,162.0 3.21125,39.95832,160.7 3.2112,39.95867,146.4 3.21118,39.95879,141.3 3.21114,39.95886,139.2 3.21111,39.9589,138.2 3.21103,39.95896,137.8 3.2103,39.95939,144.7 3.21022,39.95946,143.3 3.20991,39.95995,111.9 3.2099,39.96,107.8 3.2099,39.96006,102.3 3.20995,39.96016,95.5 3.21017,39.96031,90.6 3.21025,39.96034,91.8 3.21034,39.96035,95.1 3.21058,39.96033,106.1 3.21062,39.96034,107.6 3.21071,39.96037,111.1 3.21082,39.96043,116.4 3.21104,39.96058,123.2 3.21109,39.96061,125.0 3.21118,39.96063,127.9 3.21128,39.96064,131.0 3.21134,39.96063,132.4 3.21185,39.96041,131.7 3.21199,39.96035,128.0 3.21203,39.96034,127.2 3.21206,39.96035,127.5 3.21209,39.96036,127.8 3.21213,39.96039,129.1 3.21214,39.96043,131.2 3.21213,39.96047,133.3 3.21207,39.96052,136.1 3.21202,39.96054,137.2 3.2113,39.96085,134.3 3.21125,39.96089,127.5 3.21123,39.96093,121.8 3.21123,39.961,113.1 3.21126,39.96104,109.5 3.21132,39.96108,107.6 3.21139,39.96109,109.8 3.21146,39.96108,114.4 3.2115,39.96106,118.6 3.21186,39.96076,147.6 3.21192,39.96072,145.9 3.21196,39.9607,145.0 3.21204,39.96067,143.6 3.21213,39.96067,143.7 3.21225,39.9607,145.5 3.21233,39.96074,147.9 3.21257,39.96091,147.5 3.21272,39.96101,138.5 3.21279,39.96108,134.6 3.2128,39.96114,132.8 3.21278,39.9612,131.5 3.21272,39.96124,131.1 3.21263,39.96126,131.3 3.21257,39.96125,132.3 3.21224,39.96102,140.3 3.21209,39.96112,130.1 3.21205,39.96116,126.0 3.21205,39.96116,126.0 3.21209,39.96112,130.1 3.21224,39.96102,140.3 3.21257,39.96125,132.3 3.21263,39.96126,131.3 3.21272,39.96124,131.1 3.21278,39.9612,131.5 3.2128,39.96114,132.8 3.21279,39.96108,134.6 3.21272,39.96101,138.5 3.21257,39.96091,147.5 3.21233,39.96074,147.9 3.21225,39.9607,145.5 3.21213,39.96067,143.7 3.21204,39.96067,143.6 3.21196,39.9607,145.0 3.21192,39.96072,145.9 3.21186,39.96076,147.6 3.2115,39.96106,118.6 3.21146,39.96108,114.4 3.21139,39.96109,109.8 3.21132,39.96108,107.6 3.21126,39.96104,109.5 3.21123,39.961,113.1 3.21123,39.96093,121.8 3.21125,39.96089,127.5 3.2113,39.96085,134.3 3.21202,39.96054,137.2 3.21207,39.96052,136.1 3.21213,39.96047,133.3 3.21214,39.96043,131.2 3.21213,39.96039,129.1 3.21209,39.96036,127.8 3.21206,39.96035,127.5 3.21203,39.96034,127.2 3.21199,39.96035,128.0 3.21185,39.96041,131.7 3.21134,39.96063,132.4 3.21128,39.96064,131.0 3.21118,39.96063,127.9 3.21109,39.96061,125.0 3.21104,39.96058,123.2 3.21082,39.96043,116.4 3.21071,39.96037,111.1 3.21062,39.96034,107.6 3.21058,39.96033,106.1 3.21034,39.96035,95.1 3.21025,39.96034,91.8 3.21017,39.96031,90.6 3.20995,39.96016,95.5 3.2099,39.96006,102.3 3.2099,39.96,107.8 3.20991,39.95995,111.9 3.21022,39.95946,143.3 3.2103,39.95939,144.7 3.21103,39.95896,137.8 3.21111,39.9589,138.2 3.21114,39.95886,139.2 3.21118,39.95879,141.3 3.2112,39.95867,146.4 3.21125,39.95832,160.7 3.2113,39.95814,162.0 3.21137,39.95801,161.6 3.21169,39.95751,159.1 3.21174,39.95738,159.2 3.21174,39.95725,160.4 3.21155,39.95641,175.4 3.21154,39.95632,176.7 3.21155,39.95624,177.4 3.21159,39.95615,177.3 3.21189,39.95567,160.8 3.21193,39.95558,154.2 3.21195,39.95551,149.5 3.21193,39.95541,146.9 3.21188,39.95535,149.4 3.21182,39.95531,154.1 3.21177,39.9553,159.1 3.21168,39.9553,168.6 3.21164,39.95531,171.3 3.2116,39.95533,173.3 3.21157,39.95536,174.9 3.21141,39.95562,183.9 3.21133,39.95572,187.4 3.21085,39.95624,197.1 3.2107,39.95636,196.3 3.21058,39.95644,195.6 3.21,39.95682,198.6 3.20943,39.95719,195.9 3.20935,39.95727,196.6 3.20916,39.95748,199.4 3.20911,39.95752,199.7 3.20875,39.95776,198.9 3.20866,39.9578,198.2 3.20856,39.95784,197.4 3.20838,39.95788,195.3 3.20821,39.95788,191.0 3.20803,39.95786,185.9 3.20747,39.95766,179.8 3.20743,39.95763,180.4 3.20739,39.9576,181.5 3.20733,39.95754,184.6 3.20731,39.95748,187.8 3.2073,39.95744,188.8 3.20731,39.95737,190.5 3.20734,39.95732,191.8 3.20741,39.95726,193.1 3.20745,39.95723,193.6 3.20755,39.95721,193.6 3.20759,39.9572,193.6 3.20794,39.95721,191.3 3.20806,39.9572,190.6 3.20814,39.95717,190.2 3.20818,39.95715,189.9 3.20824,39.9571,189.4 3.20829,39.95703,188.8 3.20832,39.95696,188.2 3.20831,39.95684,188.0 3.20807,39.95629,193.8 3.20803,39.9562,195.2 3.20802,39.95613,195.8 3.20802,39.95604,196.1 3.20823,39.95549,189.2 3.20825,39.95542,188.4 3.20826,39.95528,187.9 3.20825,39.95516,188.2 3.2082,39.95505,189.8 3.20796,39.9546,188.6 3.20773,39.95415,185.2 3.20765,39.95404,182.5 3.20736,39.95381,178.8 3.20731,39.95378,178.0 3.20725,39.95376,177.9 3.20719,39.95374,177.8 3.20626,39.9536,176.6 3.20613,39.95359,175.2 3.20598,39.95363,176.2 3.20592,39.95365,176.9 3.20562,39.95379,182.6 3.20555,39.95382,183.6 3.20472,39.95403,184.6 3.2046,39.95408,183.8 3.20407,39.95435,184.9 3.20354,39.95463,188.3 3.20344,39.95469,187.8 3.20335,39.95477,187.3 3.20327,39.95485,187.4 3.20283,39.95536,191.5 3.20278,39.9554,191.5 3.20268,39.95546,190.9 3.20256,39.95549,189.2 3.20242,39.95548,186.9 3.20177,39.95539,180.1 3.20167,39.95538,179.5 3.20159,39.95539,178.2 3.20124,39.95545,170.7 3.20111,39.95545,168.3 3.20103,39.95543,167.9 3.20098,39.95541,168.3 3.20092,39.95536,170.4 3.20089,39.95532,172.6 3.20087,39.95524,177.7 3.20088,39.95516,183.0 3.2009,39.95512,185.5 3.20093,39.95508,187.9 3.2013,39.95465,196.1 3.20136,39.9546,196.4 3.20144,39.95455,196.3 3.20185,39.95442,193.7 3.20192,39.95438,193.7 3.20197,39.95433,194.0 3.20199,39.95429,194.5 3.202,39.95422,195.6 3.20192,39.95404,200.8 3.20191,39.95396,202.9 3.20192,39.9539,204.3 3.20194,39.95387,204.8 3.20199,39.95383,205.5 3.20207,39.9538,205.7 3.20217,39.95379,205.3 3.20228,39.95379,204.6 3.20255,39.95384,200.8 3.20263,39.95383,200.3 3.20274,39.95378,200.9 3.20279,39.95374,201.9 3.20282,39.95368,203.8 3.20283,39.9536,206.7 3.20281,39.95354,209.1 3.20277,39.95349,211.3 3.2027,39.95345,213.3 3.20262,39.95342,215.0 3.20256,39.95341,215.9 3.20178,39.95341,216.4 3.20167,39.9534,216.6 3.20153,39.95338,217.8 3.20147,39.95336,218.5 3.2014,39.95332,219.3 3.20106,39.95309,219.8 3.20084,39.953,218.8 3.20012,39.95277,216.5 3.2,39.95275,216.1 3.19983,39.95274,216.4 3.19969,39.95275,217.1 3.19949,39.95279,218.6 3.19944,39.95281,219.2 3.19909,39.95299,225.4 3.19903,39.95301,226.7 3.19889,39.95303,229.3 3.19876,39.95302,231.1 3.19862,39.95298,232.4 3.19847,39.95287,232.4 3.19841,39.9528,231.9 3.19839,39.95277,231.6 3.19838,39.95272,230.7 3.19836,39.95251,226.8 3.19829,39.95182,224.2 3.19826,39.9517,223.7 3.19821,39.95158,221.8 3.19814,39.95151,220.4 3.19806,39.95147,219.6 3.19767,39.9514,218.5 3.19744,39.95134,217.1 3.19732,39.95129,216.5 3.19687,39.95105,211.8 3.19677,39.95101,211.2 3.19653,39.95093,209.6 3.1963,39.95087,208.2 3.19617,39.95084,207.7 3.19547,39.95075,199.9 3.19534,39.95074,197.6 3.19522,39.95076,196.6 3.19506,39.95082,196.5 3.19499,39.95086,196.8 3.19496,39.95089,197.5 3.19477,39.95127,208.6 3.19474,39.95132,210.0 3.19467,39.95138,211.3 3.19464,39.9514,211.7 3.19456,39.95143,211.9 3.19443,39.95143,210.4 3.19435,39.95141,208.8 3.19424,39.95135,205.4 3.19389,39.95111,194.6 3.1938,39.95107,193.0 3.19372,39.95106,192.3 3.19365,39.95107,192.3 3.19361,39.95108,192.4 3.19354,39.95111,193.0 3.19345,39.95119,194.7 3.19324,39.95148,197.6 3.19309,39.95159,194.2 3.19285,39.95173,188.0 3.19276,39.95182,186.7 3.19271,39.95195,188.1 3.19258,39.95255,198.5 3.19245,39.95279,200.6 3.19237,39.95286,200.8 3.19225,39.9529,199.6 3.19217,39.9529,197.9 3.19209,39.95287,195.4 3.19187,39.95277,187.2 3.19176,39.95273,183.2 3.19162,39.95271,179.6 3.19154,39.95272,178.8 3.19146,39.95275,178.7 3.19064,39.9532,180.0 3.19022,39.95349,175.9 3.18977,39.95398,175.1 3.18969,39.95405,175.7 3.18961,39.95409,176.0 3.18951,39.95411,176.3 3.1894,39.95411,176.5 3.18933,39.9541,176.5 3.18924,39.95406,176.5 3.1892,39.95402,176.4 3.18916,39.95398,176.4 3.18912,39.95389,176.4 3.18893,39.9532,175.6 3.18887,39.95312,175.2 3.18883,39.95308,175.1 3.18876,39.95304,175.4 3.18867,39.95301,176.2 3.18856,39.95301,177.7 3.18842,39.95303,180.0 3.18791,39.95314,185.9 3.18783,39.95314,186.4 3.18774,39.95311,186.6 3.18745,39.95295,186.7 3.1874,39.95292,186.3 3.18728,39.95288,185.9 3.18709,39.95285,185.6 3.18678,39.9528,185.3 3.18641,39.95277,177.0 3.18635,39.95275,175.4 3.18632,39.95273,174.7 3.18626,39.95266,174.2 3.18609,39.95238,179.5 3.186,39.95229,182.3 3.18588,39.95217,186.2 3.18565,39.95199,188.9 3.18556,39.95194,188.7 3.18547,39.95191,187.4 3.18496,39.95184,174.7 3.18487,39.95182,172.4 3.18479,39.95177,172.2 3.18427,39.95138,177.4 3.18404,39.95123,177.7 3.18313,39.95077,173.8 3.18286,39.95069,171.7 3.18236,39.95056,164.4 3.18162,39.95036,161.1 3.18111,39.95025,155.2 3.18071,39.95017,153.8 3.18008,39.94998,166.4 3.1792,39.94973,183.9 3.17831,39.94947,201.6 3.17793,39.94937,209.1 3.17786,39.94936,210.5 3.17779,39.94935,211.8 3.17771,39.94936,213.3 3.17756,39.94938,216.2 3.17706,39.9495,181.6 3.17646,39.94968,141.3 3.17639,39.94969,138.5 3.17632,39.94969,136.9 3.17619,39.94967,136.1 3.17562,39.94954,133.0 3.17505,39.94941,128.6 3.17493,39.94937,128.5 3.17454,39.94917,131.6 3.17437,39.9491,131.8 3.17361,39.94886,126.8 3.17343,39.94883,124.5 3.17326,39.94884,121.6 3.17309,39.94886,119.1 3.17256,39.94895,112.3 3.17247,39.94895,111.5 3.17238,39.94894,110.5 3.17233,39.94892,110.1 3.17224,39.94884,109.8 3.17199,39.94831,110.9 3.17196,39.94827,110.3 3.17188,39.94821,108.8 3.17176,39.94817,106.3 3.1717,39.94816,105.1 3.17163,39.94817,103.6 3.17151,39.9482,101.0 3.17141,39.94826,99.1 3.17137,39.9483,98.4 3.17134,39.94839,97.9 3.17133,39.94844,97.7 3.17131,39.94895,97.1 3.1713,39.94899,97.0 3.17123,39.94907,96.2 3.17115,39.94912,95.6 3.17093,39.94919,93.4 3.17083,39.94921,92.2 3.17075,39.94922,91.7 3.1706,39.94923,91.0 3.17018,39.94917,91.3 3.16989,39.94915,90.1 3.16978,39.94916,89.6 3.16901,39.94929,82.0 3.16883,39.94931,81.3 3.16864,39.9493,81.7 3.16835,39.94926,83.3 3.1674,39.94909,85.4 3.16678,39.94903,86.6 3.16602,39.94893,88.3 3.16538,39.94879,92.1 3.16474,39.94865,97.6 3.16387,39.94847,103.3 3.16322,39.94836,101.9 3.16318,39.94834,102.3 3.16309,39.94828,101.9 3.16241,39.94766,100.4 3.16232,39.94759,100.5 3.16224,39.94755,100.4 3.16214,39.94752,100.1 3.16198,39.94752,99.4 3.16182,39.94754,98.5 3.16097,39.94767,99.2 3.16072,39.94769,98.7 3.16058,39.94769,97.6 3.16046,39.94768,96.7 3.16025,39.94761,95.1 3.16013,39.94755,94.1 3.15924,39.94705,90.6 3.15835,39.94655,86.7 3.15746,39.94605,84.4 3.15657,39.94555,83.3 3.15568,39.94505,81.8 3.15475,39.94453,78.0 3.15383,39.94401,75.7 3.15291,39.94349,71.2 3.15198,39.94297,71.2 3.15106,39.94244,72.1 3.15014,39.94192,70.7 3.14921,39.9414,68.4 3.14829,39.94088,64.4 3.14737,39.94036,62.8 3.14644,39.93984,63.2 3.14565,39.93938,61.7 3.14485,39.93893,61.1 3.14425,39.93858,60.6 3.14402,39.93841,59.5 3.1439,39.93831,58.5 3.14321,39.93762,53.6 3.14251,39.93692,50.3 3.14181,39.93623,48.2 3.14112,39.93554,45.6 3.14089,39.93529,44.0 3.14076,39.9352,43.5 3.14069,39.93516,43.5 3.14023,39.93499,43.8 3.13997,39.93491,44.2 3.13984,39.93486,44.2 3.13962,39.93476,43.8 3.13887,39.93431,38.1 3.13811,39.93387,31.9 3.13772,39.93363,29.5 3.1375,39.93351,28.1 3.1374,39.93348,27.8 3.13727,39.93346,27.7 3.13623,39.93343,27.6 3.13606,39.93341,27.6 3.13599,39.93339,27.4 3.13592,39.93336,27.2 3.1358,39.93329,27.0 3.13569,39.93318,26.9 3.13564,39.93312,26.8 3.13555,39.93298,26.1 3.13534,39.93256,22.8 3.13512,39.93215,20.7 3.13487,39.9316,18.9 3.13466,39.93127,17.8 3.13424,39.93062,14.3 3.13414,39.93045,13.4 3.13408,39.93029,12.6 3.13392,39.9297,11.3 3.13386,39.92936,11.3 3.13382,39.92928,11.4 3.13377,39.92922,11.5 3.13371,39.92918,11.7 3.13364,39.92915,11.9 3.13353,39.92913,12.3 3.13346,39.92914,12.6 3.13255,39.92937,17.2 3.13154,39.92961,21.6 3.13053,39.92985,26.5 3.13041,39.92989,27.3 3.13032,39.92995,28.0 3.13023,39.93005,28.8 3.12984,39.93054,32.8 3.12946,39.93104,38.9 3.12926,39.93132,43.3 3.12926,39.9314,43.9 3.12928,39.93148,44.2 3.12953,39.9319,48.0 3.12958,39.93195,48.4 3.1299,39.93227,49.0 3.13012,39.93248,50.5 3.13067,39.93287,55.8 3.13077,39.93295,55.7 3.13079,39.93298,55.8 3.13081,39.93303,56.1 3.13081,39.93305,56.3 3.13078,39.93309,57.3 3.13073,39.93312,58.5 3.1307,39.93312,59.0 3.13067,39.93312,59.5 3.13064,39.93311,59.9 3.13052,39.93297,59.3 3.13046,39.93292,59.1 3.13036,39.93285,58.6 3.13018,39.93277,58.3 3.12952,39.9325,63.1 3.12895,39.93218,64.0 3.12886,39.93215,63.8 3.12878,39.93214,64.1 3.12873,39.93215,64.7 3.12793,39.93229,70.9 3.12781,39.93232,71.3 3.12766,39.93239,72.7 3.12733,39.9326,77.6 3.12725,39.93266,79.2 3.12688,39.93299,86.6 3.12673,39.93309,87.6 3.12598,39.9335,82.9 3.12573,39.93361,73.7 3.12563,39.93363,70.2 3.12554,39.93363,67.5 3.1255,39.93363,66.3 3.12543,39.9336,65.5 3.12537,39.93357,65.1 3.1253,39.93348,67.5 3.12526,39.93339,70.9 3.12525,39.9333,74.2 3.12523,39.9327,88.0 3.12519,39.93247,93.3 3.12516,39.9324,92.9 3.12509,39.93227,92.6 3.12504,39.93222,93.0 3.125,39.93218,93.2 3.1248,39.93208,93.7 3.12446,39.93198,96.8 3.12333,39.93177,105.8 3.12324,39.93173,106.2 3.12316,39.93168,107.9 3.12309,39.93161,108.8 3.12307,39.93158,109.1 3.12305,39.93146,111.6 3.12305,39.93142,112.5 3.12315,39.93112,118.3 3.12315,39.93109,118.9 3.12314,39.931,120.6 3.12308,39.93081,126.0 3.12309,39.93075,128.2 3.12313,39.9307,129.4 3.12321,39.93064,130.1 3.12325,39.93062,130.0 3.12355,39.93054,129.7 3.12417,39.93039,133.1 3.12425,39.93038,133.3 3.12462,39.93039,131.0 3.12467,39.93039,130.7 3.12473,39.93036,132.3 3.12475,39.93032,134.8 3.12474,39.93028,137.3 3.12468,39.93025,139.5 3.12459,39.93023,141.1 3.12445,39.93023,141.7 3.12399,39.93028,140.5 3.1238,39.9303,140.1 3.12355,39.93029,141.6 3.12309,39.93027,147.8 3.12301,39.93027,149.2 3.12288,39.9303,150.5 3.12283,39.93032,150.6 3.12277,39.93035,150.6 3.12237,39.93071,143.9 3.12231,39.93077,141.8 3.12217,39.93105,124.0 3.12211,39.93109,120.3 3.12208,39.9311,119.1 3.12199,39.93111,116.9 3.12191,39.93108,118.2 3.12189,39.93106,119.7 3.12176,39.93091,132.5 3.1217,39.93076,144.4 3.12166,39.93069,148.7 3.12156,39.93061,152.9 3.12152,39.93059,153.9 3.12136,39.93057,154.4 3.12126,39.93056,154.7 3.12118,39.93059,151.7 3.12108,39.93064,146.6 3.12103,39.93066,144.4 3.12094,39.93067,142.5 3.12083,39.93067,141.4 3.12067,39.93065,143.1 3.1203,39.93052,163.2 3.11998,39.93048,174.9 3.11967,39.93037,198.6 3.11961,39.93036,200.8 3.11936,39.93037,201.0 3.119,39.93036,200.0 3.11853,39.93033,192.1 3.11834,39.93033,187.1 3.11818,39.93037,182.6 3.11789,39.93049,171.4 3.11764,39.93055,166.9 3.11705,39.93065,160.6 3.11689,39.93065,161.0 3.11674,39.93063,162.7 3.11621,39.93045,172.2 3.11613,39.93043,173.0 3.11606,39.93042,173.3 3.11589,39.93042,172.1 3.11562,39.93044,165.9 3.11551,39.93042,164.8 3.11546,39.9304,164.9 3.11511,39.93018,168.9 3.11503,39.93011,170.3 3.1148,39.92988,177.8 3.11459,39.9296,189.7 3.11452,39.92954,191.6 3.11447,39.92952,191.6 3.11441,39.92951,190.8 3.11423,39.92953,185.5 3.11416,39.92952,184.6 3.11373,39.92938,190.0 3.11366,39.92937,190.0 3.11354,39.92938,188.8 3.11337,39.9294,187.0 3.11327,39.92941,186.9 3.11258,39.92936,193.4 3.11188,39.92931,197.9 3.11181,39.92929,198.3 3.11177,39.92925,198.6 3.11176,39.9292,198.7 3.11178,39.92916,198.9 3.11184,39.92912,200.1 3.11191,39.9291,200.7 3.11195,39.92909,201.0 3.11247,39.92914,198.3 3.11292,39.92922,195.0 3.11298,39.92921,195.1 3.11301,39.92918,196.0 3.11301,39.92914,198.0 3.11299,39.92911,199.8 3.11297,39.9291,200.4 3.11226,39.92894,207.2 3.11183,39.92879,210.9 3.11139,39.9287,211.7 3.11128,39.92869,211.7 3.1112,39.9287,211.3 3.11113,39.92873,210.7 3.11086,39.92887,209.1 3.11077,39.92889,208.1 3.11069,39.92888,207.1 3.11048,39.92878,205.1 3.1106,39.92845,209.5 3.11066,39.92775,215.4 3.11073,39.92704,225.1 3.11072,39.92693,226.2 3.11058,39.9266,225.3 3.11041,39.92611,227.2 3.11041,39.92609,227.6 3.11042,39.92607,228.4 3.11046,39.92604,230.9 3.11053,39.92604,234.3 3.11056,39.92605,235.6 3.11058,39.92607,236.1 3.1106,39.92609,236.7 3.11067,39.92633,234.8 3.11076,39.92649,235.2 3.11094,39.92677,238.2 3.11125,39.92725,242.8 3.11184,39.92788,244.2 3.11194,39.92794,245.0 3.11206,39.928,245.9 3.11243,39.92811,249.9 3.11266,39.92816,252.2 3.11271,39.92817,252.6 3.11277,39.92816,254.8 3.1128,39.92814,256.9 3.11282,39.9281,260.4 3.11282,39.92806,263.3 3.11279,39.92802,265.5 3.11275,39.928,265.8 3.11226,39.92784,260.9 3.1122,39.9278,260.9 3.11215,39.92776,261.2 3.11207,39.92767,262.5 3.11185,39.92733,266.0 3.11169,39.92711,266.1 3.11159,39.92702,264.7 3.11156,39.92696,265.2 3.11146,39.92672,267.7 3.11138,39.92647,268.6 3.11117,39.92616,263.7 3.11117,39.92611,264.7 3.1112,39.92604,267.7 3.11121,39.92595,270.1 3.1111,39.92545,275.6 3.11108,39.92541,275.8 3.11101,39.92534,275.5 3.11084,39.92524,274.1 3.11076,39.92517,273.0 3.1103,39.92464,269.8 3.11023,39.92452,272.0 3.11012,39.92434,276.7 3.11011,39.92427,279.3 3.11012,39.9242,282.1 3.11017,39.92414,283.4 3.1102,39.92411,283.2 3.11026,39.92409,283.1 3.11032,39.92408,283.1 3.11045,39.92408,283.3 3.11074,39.92412,284.7 3.11084,39.92415,285.6 3.11093,39.92418,285.3 3.11125,39.92432,283.8 3.11132,39.92435,283.8 3.11142,39.92442,284.2 3.11148,39.9245,285.0 3.11151,39.92456,285.8 3.11159,39.92501,292.0 3.11172,39.92535,293.7 3.11181,39.92549,294.3 3.11192,39.9256,295.3 3.11205,39.92568,296.8 3.1128,39.92605,306.7 3.11296,39.92612,308.4 3.1132,39.92619,310.7 3.1135,39.92626,313.6 3.11381,39.92632,316.2 3.11461,39.92641,320.8 3.11552,39.92656,324.3 3.1156,39.92658,324.6 3.11572,39.92663,325.5 3.11581,39.92669,326.5 3.11585,39.92674,327.0 3.11606,39.92714,331.7 3.11612,39.92722,332.7 3.11622,39.92733,334.2 3.11628,39.92737,334.6 3.11637,39.92743,335.3 3.11653,39.92749,335.7 3.11679,39.92756,335.3 3.11724,39.92766,335.3 3.11751,39.92778,338.2 3.11757,39.92781,337.7 3.11762,39.92785,337.9 3.11795,39.9282,343.4 3.11821,39.92848,343.9 3.11851,39.92885,342.7 3.1187,39.92914,343.8 3.1187,39.92919,341.3 3.11868,39.92922,337.7 3.11866,39.92923,336.7 3.11861,39.92924,335.9 3.11854,39.92922,339.3 3.11836,39.929,347.5 3.11828,39.92893,347.3 3.11806,39.92877,347.3 3.11754,39.92846,356.1 3.11748,39.92849,356.1 3.11746,39.92851,355.4 3.11747,39.92858,354.3 3.11745,39.92862,353.2 3.11742,39.92862,352.7 3.11739,39.92866,351.2 3.11735,39.92864,350.9 3.11731,39.92863,350.3 3.11729,39.92865,349.4 3.1173,39.92868,348.9 3.1173,39.92868,348.9 3.11729,39.92865,349.4 3.11731,39.92863,350.3 3.11735,39.92864,350.9 3.11739,39.92866,351.2 3.11742,39.92862,352.7 3.11745,39.92862,353.2 3.11747,39.92858,354.3 3.11746,39.92851,355.4 3.11748,39.92849,356.1 3.11754,39.92846,356.1 3.11806,39.92877,347.3 3.11828,39.92893,347.3 3.11836,39.929,347.5 3.11854,39.92922,339.3 3.11861,39.92924,335.9 3.11866,39.92923,336.7 3.11868,39.92922,337.7 3.1187,39.92919,341.3 3.1187,39.92914,343.8 3.11851,39.92885,342.7 3.11821,39.92848,343.9 3.11795,39.9282,343.4 3.11762,39.92785,337.9 3.11757,39.92781,337.7 3.11751,39.92778,338.2 3.11724,39.92766,335.3 3.11679,39.92756,335.3 3.11653,39.92749,335.7 3.11637,39.92743,335.3 3.11628,39.92737,334.6 3.11622,39.92733,334.2 3.11612,39.92722,332.7 3.11606,39.92714,331.7 3.11585,39.92674,327.0 3.11581,39.92669,326.5 3.11572,39.92663,325.5 3.1156,39.92658,324.6 3.11552,39.92656,324.3 3.11461,39.92641,320.8 3.11381,39.92632,316.2 3.1135,39.92626,313.6 3.1132,39.92619,310.7 3.11296,39.92612,308.4 3.1128,39.92605,306.7 3.11205,39.92568,296.8 3.11192,39.9256,295.3 3.11181,39.92549,294.3 3.11172,39.92535,293.7 3.11159,39.92501,292.0 3.11151,39.92456,285.8 3.11148,39.9245,285.0 3.11142,39.92442,284.2 3.11132,39.92435,283.8 3.11125,39.92432,283.8 3.11093,39.92418,285.3 3.11084,39.92415,285.6 3.11074,39.92412,284.7 3.11045,39.92408,283.3 3.11032,39.92408,283.1 3.11026,39.92409,283.1 3.1102,39.92411,283.2 3.11017,39.92414,283.4 3.11012,39.9242,282.1 3.11011,39.92427,279.3 3.11012,39.92434,276.7 3.11023,39.92452,272.0 3.1103,39.92464,269.8 3.11076,39.92517,273.0 3.11084,39.92524,274.1 3.11101,39.92534,275.5 3.11108,39.92541,275.8 3.1111,39.92545,275.6 3.11121,39.92595,270.1 3.1112,39.92604,267.7 3.11117,39.92611,264.7 3.11117,39.92616,263.7 3.11138,39.92647,268.6 3.11146,39.92672,267.7 3.11156,39.92696,265.2 3.11159,39.92702,264.7 3.11169,39.92711,266.1 3.11185,39.92733,266.0 3.11207,39.92767,262.5 3.11215,39.92776,261.2 3.1122,39.9278,260.9 3.11226,39.92784,260.9 3.11275,39.928,265.8 3.11279,39.92802,265.5 3.11282,39.92806,263.3 3.11282,39.9281,260.4 3.1128,39.92814,256.9 3.11277,39.92816,254.8 3.11271,39.92817,252.6 3.11266,39.92816,252.2 3.11243,39.92811,249.9 3.11206,39.928,245.9 3.11194,39.92794,245.0 3.11184,39.92788,244.2 3.11125,39.92725,242.8 3.11094,39.92677,238.2 3.11076,39.92649,235.2 3.11067,39.92633,234.8 3.1106,39.92609,236.7 3.11058,39.92607,236.1 3.11056,39.92605,235.6 3.11053,39.92604,234.3 3.11046,39.92604,230.9 3.11042,39.92607,228.4 3.11041,39.92609,227.6 3.11041,39.92611,227.2 3.11058,39.9266,225.3 3.11072,39.92693,226.2 3.11073,39.92704,225.1 3.11066,39.92775,215.4 3.1106,39.92845,209.5 3.11048,39.92878,205.1 3.1101,39.92858,202.3 3.11005,39.92851,202.5 3.11002,39.92843,203.1 3.11001,39.9281,202.8 3.11,39.92804,202.2 3.10986,39.92771,199.2 3.10966,39.92729,194.8 3.10963,39.92717,194.0 3.10965,39.92709,194.1 3.10974,39.92693,195.4 3.10976,39.92687,195.7 3.10974,39.92682,195.3 3.1097,39.92677,194.4 3.10948,39.92658,189.8 3.10941,39.9265,188.7 3.10937,39.92643,188.2 3.10935,39.92633,188.3 3.10934,39.92617,189.1 3.10936,39.926,190.7 3.10934,39.92592,190.7 3.10929,39.92586,189.5 3.10922,39.9258,188.4 3.10885,39.92564,180.3 3.10868,39.92555,176.4 3.10856,39.92546,173.8 3.10852,39.92541,173.2 3.10849,39.92534,173.2 3.10848,39.92524,174.4 3.10849,39.92504,177.8 3.10846,39.92497,177.9 3.10841,39.9249,177.3 3.10834,39.92484,175.2 3.10766,39.92456,156.6 3.10757,39.9245,153.7 3.10751,39.92444,151.7 3.10748,39.92436,151.0 3.10749,39.92427,151.4 3.10777,39.92372,159.5 3.10781,39.92358,160.4 3.10781,39.92347,159.6 3.1077,39.92299,156.3 3.10765,39.92285,154.3 3.10739,39.92233,141.5 3.10735,39.92221,140.5 3.10727,39.92176,139.7 3.10721,39.92158,138.0 3.10705,39.92115,132.2 3.10702,39.92099,131.2 3.10701,39.92038,130.7 3.107,39.91977,131.6 3.10697,39.91963,131.1 3.10689,39.91945,128.5 3.10647,39.91881,117.3 3.1063,39.91849,114.7 3.10583,39.91785,100.1 3.10566,39.91749,97.0 3.10563,39.91738,92.5 3.10563,39.91731,90.4 3.10566,39.91723,88.9 3.10572,39.91716,88.5 3.1058,39.91712,89.4 3.10591,39.9171,90.3 3.10602,39.91711,91.6 3.10632,39.91715,95.8 3.10675,39.91725,104.3 3.10685,39.91725,105.5 3.10695,39.91724,106.4 3.10703,39.9172,105.7 3.10744,39.91688,97.9 3.10786,39.91655,94.7 3.10792,39.91648,95.6 3.10794,39.91641,96.0 3.10795,39.91634,96.4 3.10792,39.91629,96.2 3.10787,39.91621,95.8 3.10739,39.91586,89.4 3.10688,39.91541,83.6 3.10638,39.91496,78.7 3.10589,39.91461,72.3 3.1058,39.91454,71.3 3.10553,39.91423,70.9 3.10513,39.91376,67.1 3.10501,39.91358,67.0 3.10494,39.91336,68.9 3.10489,39.91315,69.0 3.10484,39.91302,68.0 3.10457,39.9127,59.7 3.10446,39.9125,57.0 3.10439,39.91228,54.6 3.10437,39.91202,54.5 3.10436,39.91161,55.0 3.10433,39.91155,53.9 3.10427,39.91152,51.6 3.1042,39.91152,49.1 3.10413,39.91155,46.6 3.1041,39.91161,45.7 3.10406,39.91224,42.7 3.10409,39.91251,42.7 3.10423,39.91306,42.3 3.10437,39.91362,42.5 3.10452,39.91417,40.7 3.10467,39.91471,38.6 3.10466,39.91479,37.5 3.10462,39.91485,36.1 3.10456,39.91488,34.8 3.10448,39.9149,33.4 3.1044,39.9149,32.1 3.10433,39.91488,31.1 3.10426,39.91483,30.2 3.10374,39.91408,26.1 3.10321,39.91333,18.4 3.10268,39.91258,14.8 3.1026,39.91249,13.9 3.10247,39.91237,12.8 3.10231,39.91231,12.8 3.10212,39.91226,12.8 3.10193,39.91226,12.9 3.10174,39.91228,13.0 3.10152,39.91232,12.9 3.1008,39.91249,12.9 3.10008,39.91265,11.7 3.09985,39.91278,11.0 3.0998,39.91282,10.8 3.09974,39.91289,10.6 3.09968,39.91295,10.4 3.09959,39.91297,10.2 3.09952,39.91297,10.1 3.09946,39.91295,10.0 3.09939,39.9129,9.9 3.09937,39.91283,9.8 3.09938,39.91278,9.8 3.09941,39.91273,9.9 3.09946,39.91263,10.0 3.09947,39.91246,10.1 3.09918,39.91181,10.7 3.0989,39.91116,8.9 3.09862,39.91051,7.0 3.0986,39.91048,6.9 3.09853,39.91042,6.7 3.09848,39.91041,6.7 3.09841,39.91041,6.6 3.09834,39.91041,6.5 3.09751,39.91051,6.6 3.09691,39.9106,6.3 3.0958,39.91084,6.0 3.09469,39.91108,6.5 3.09358,39.91131,5.5 3.09247,39.91155,6.0 3.09173,39.9117,8.7 3.0916,39.91171,8.7 3.09078,39.91168,6.0 3.08995,39.91165,5.9 3.08913,39.91163,5.0 3.08919,39.9115,5.2 3.08886,39.91138,4.8 3.08808,39.91112,4.3 3.0878,39.91102,4.6 3.08727,39.91076,4.6 3.08674,39.9105,4.0 3.08666,39.91045,4.0 3.08636,39.91019,4.8 3.08613,39.91039,4.7 3.08566,39.91007,6.3 3.08519,39.90974,6.1 3.08432,39.91023,4.4 3.08352,39.91072,5.7 3.08272,39.9112,6.5 3.08268,39.91122,6.5 3.08264,39.91122,6.5 3.08261,39.91121,6.5 3.08258,39.91119,6.6 3.08202,39.91065,7.1 3.08146,39.91012,7.1 3.0809,39.90958,7.9 3.08032,39.90903,7.1 3.07974,39.90848,6.5 3.07949,39.90823,6.4 3.07939,39.90811,6.4 3.07931,39.90798,6.5 3.0792,39.9078,6.6 3.07912,39.90763,6.8 3.07902,39.90735,6.7 3.07898,39.90717,6.3 3.07895,39.90674,5.4 3.07896,39.90646,5.5 3.07898,39.90629,5.7 3.07902,39.90614,5.8 3.07909,39.90599,5.9 3.07925,39.90566,5.7 3.0782,39.90535,6.4 3.07715,39.90503,5.2 3.07717,39.90498,5.1 3.077,39.90494,4.6 3.07644,39.90477,3.0 3.07588,39.90459,2.0 3.07575,39.90453,1.9 3.07568,39.90444,1.8 3.07566,39.90439,1.7 3.07559,39.90429,1.5 3.07542,39.90421,1.6 3.07537,39.90411,1.7 3.07524,39.90416,1.7 3.07507,39.90416,1.9 3.07488,39.90422,2.2 3.07482,39.90424,2.3 3.07475,39.90424,2.3 3.07457,39.9042,2.5 3.07375,39.90396,2.7 3.07292,39.90372,3.1 3.07211,39.90347,4.3 3.0713,39.90322,5.5 3.07048,39.90297,5.8 3.07,39.90283,5.4 3.06984,39.90277,5.5 3.06968,39.90269,5.5 3.06944,39.90255,5.7 3.06935,39.90251,5.8 3.06924,39.90249,5.9 3.06922,39.90247,6.0 3.06864,39.90229,7.3 3.06841,39.90222,7.6 3.0678,39.90204,7.4 3.0672,39.90187,7.2 3.06706,39.9019,7.1 3.06705,39.90191,7.1 3.06698,39.90197,7.1 3.06694,39.90196,7.1 3.0669,39.90199,7.1 3.06596,39.90171,6.1 3.06502,39.90143,7.5 3.06409,39.90115,7.4 3.06315,39.90087,9.0 3.06221,39.90059,9.6 3.06112,39.90026,10.5 3.06003,39.89993,10.1 3.05894,39.8996,11.2 3.05826,39.89941,13.5 3.05759,39.89921,14.0 3.05707,39.89904,14.2 3.05611,39.89875,15.2 3.05514,39.89847,15.0 3.05418,39.89818,17.2 3.05321,39.89789,18.8 3.05224,39.89761,17.8 3.05133,39.89733,18.9 3.05042,39.89706,19.3 3.04951,39.89678,19.5 3.04874,39.89656,20.2 3.04798,39.89633,21.1 3.04725,39.8961,21.8 3.04653,39.89586,22.3 3.0458,39.89563,24.0 3.04483,39.89529,29.7 3.04386,39.89495,35.0 3.04289,39.89461,39.3 3.04192,39.89427,36.9 3.04095,39.89393,36.1 3.03998,39.89359,36.9 3.03901,39.89325,35.0 3.03814,39.89298,36.9 3.03728,39.89271,32.6 3.03723,39.89271,32.4 3.03712,39.89272,32.0 3.03696,39.89278,31.5 3.03685,39.89291,31.3 3.03656,39.8932,30.0 3.03616,39.89367,29.9 3.03577,39.89414,29.0 3.03533,39.8946,28.4 3.0349,39.89506,28.4 3.03468,39.8953,29.3 3.03449,39.89552,30.1 3.03393,39.89624,31.2 3.03385,39.89637,31.2 3.03377,39.89656,31.0 3.03373,39.89672,30.7 3.03374,39.89697,29.7 3.034,39.89765,28.0 3.03425,39.89823,27.3 3.03449,39.8988,31.2 3.03456,39.89906,32.9 3.03456,39.89935,32.8 3.03459,39.8995,32.8 3.03466,39.89963,33.4 3.0348,39.8998,34.8 3.03507,39.90005,37.3 3.03564,39.90049,37.2 3.03608,39.90081,36.3 3.03651,39.90112,39.3 3.0366,39.90121,39.5 3.03672,39.90137,39.3 3.03677,39.90151,38.5 3.0368,39.90166,37.3 3.03679,39.90179,37.5 3.03663,39.90224,35.2 3.0366,39.90237,35.0 3.0366,39.90257,34.7 3.03662,39.90266,34.5 3.03683,39.90341,34.1 3.03692,39.90364,33.3 3.03702,39.90383,32.5 3.03713,39.904,31.6 3.0373,39.9042,30.6 3.0376,39.90448,31.0 3.0377,39.90461,30.6 3.0378,39.90483,29.5 3.03783,39.90493,28.9 3.03783,39.90524,26.8 3.0378,39.90538,25.7 3.03759,39.9059,22.0 3.03757,39.90601,21.7 3.03758,39.90617,21.3 3.03767,39.90631,21.0 3.03787,39.90655,20.4 3.03796,39.9067,20.0 3.03806,39.90694,19.7 3.03829,39.90762,19.0 3.03857,39.9082,18.7 3.03883,39.90862,19.3 3.03921,39.90907,20.6 3.0395,39.90945,20.7 3.03978,39.91017,20.0 3.03999,39.91057,19.4 3.04041,39.91123,18.3 3.04062,39.91172,18.1 3.04076,39.91196,17.8 3.04081,39.91202,17.7 3.0409,39.9121,17.6 3.04113,39.91225,17.4 3.04131,39.91235,17.0 3.04178,39.91262,16.9 3.04225,39.9129,19.1 3.0428,39.91318,21.2 3.04335,39.91347,21.8 3.04376,39.9137,23.7 3.04417,39.91402,25.4 3.04472,39.91451,29.0 3.04526,39.91499,27.8 3.04556,39.91521,26.6 3.0458,39.91534,25.7 3.04605,39.91542,25.6 3.04684,39.91563,26.7 3.04719,39.91574,29.0 3.04779,39.91601,33.0 3.04861,39.91641,37.7 3.04942,39.91681,39.2 3.04977,39.91697,39.1 3.05043,39.91724,38.5 3.0507,39.91741,38.6 3.051,39.91763,38.1 3.05126,39.91788,37.4 3.05152,39.91816,38.0 3.05216,39.91876,38.2 3.0528,39.91937,34.8 3.05343,39.92001,27.0 3.05407,39.92066,16.4 3.05413,39.92074,15.1 3.0543,39.9207,14.5 3.05494,39.92053,14.1 3.05553,39.92036,16.2 3.05584,39.9199,19.1 3.05589,39.91982,18.2 3.05641,39.92015,15.7 3.05671,39.92039,13.5 3.05701,39.9207,12.2 3.05719,39.92079,12.0 3.05745,39.9209,11.0 3.05765,39.92104,8.5 3.05807,39.92135,6.6 3.05811,39.92139,6.7 3.05819,39.92148,7.2 3.0582,39.92151,7.3 3.05821,39.92156,7.5 3.05823,39.92166,7.9 3.05824,39.92168,7.9 3.05827,39.92171,7.9 3.05829,39.92172,8.0 3.05831,39.92173,8.1 3.05835,39.92173,8.2 3.05839,39.92172,8.0 3.05842,39.92171,7.9 3.05844,39.92168,8.1 3.05844,39.92168,8.1 3.05849,39.9216,7.6 3.05853,39.92153,7.0 3.05854,39.92145,6.5 3.05852,39.92135,6.2 3.05852,39.92133,6.1 3.05848,39.92121,5.8 3.05846,39.92116,5.7 3.05845,39.92113,5.7 3.05842,39.92107,5.6 3.05835,39.921,5.7 3.05825,39.9209,5.9 3.0582,39.92086,6.2 3.05805,39.92073,6.9 3.05789,39.9206,7.8 3.05766,39.92042,9.4 3.05718,39.92003,11.9 3.05697,39.91987,12.9 3.0569,39.91981,13.0 3.05682,39.91976,13.1 3.05662,39.91962,12.9 3.05655,39.91957,13.0 3.05647,39.9195,12.9 3.05646,39.9195,12.9 3.05639,39.91944,12.9 3.0563,39.91937,12.8 3.05604,39.91919,12.4 3.05519,39.91858,15.8 3.05516,39.91855,15.6 3.05447,39.91801,19.2 3.05437,39.91794,19.7 3.05421,39.91781,20.0 3.05404,39.91768,20.6 3.05388,39.91755,21.1 3.05371,39.91743,21.9 3.05334,39.91714,22.2 3.05332,39.91712,22.1 3.05324,39.91705,22.3 3.05324,39.91705,22.3 3.05309,39.91695,22.6 3.053,39.9169,22.7 3.05294,39.91689,22.9 3.05289,39.91688,23.0 3.05285,39.91688,23.1 3.05276,39.91688,23.4 3.05276,39.91688,23.4 3.05277,39.91689,23.4 3.05277,39.9169,23.5 3.05277,39.91691,23.5 3.05277,39.91692,23.6 3.05276,39.91692,23.6 3.05276,39.91693,23.7 3.05276,39.91694,23.7 3.05275,39.91695,23.8 3.05275,39.91696,23.8 3.05274,39.91696,23.9 3.05273,39.91697,24.0 3.05272,39.91698,24.1 3.05271,39.91698,24.1 3.0527,39.91699,24.2 3.05269,39.91699,24.2 3.05268,39.91699,24.3 3.05267,39.91699,24.3 3.05266,39.917,24.4 3.05265,39.917,24.4 3.05264,39.917,24.5 3.05263,39.917,24.5 3.05262,39.91699,24.5 3.05261,39.91699,24.5 3.0526,39.91699,24.6 3.05259,39.91699,24.6 3.05258,39.91698,24.6 3.05257,39.91698,24.6 3.05257,39.91697,24.6 3.05256,39.91697,24.6 3.05255,39.91696,24.6 3.05254,39.91695,24.6 3.05254,39.91694,24.5 3.05253,39.91694,24.5 3.05253,39.91693,24.5 3.05253,39.91692,24.4 3.05252,39.91691,24.4 3.05252,39.9169,24.3 3.05252,39.91689,24.3 3.05253,39.91689,24.2 3.05253,39.91688,24.2 3.05253,39.91687,24.1 3.05253,39.91686,24.1 3.05254,39.91686,24.0 3.05254,39.91685,24.0 3.05255,39.91685,23.9 3.05255,39.91684,23.9 3.05256,39.91684,23.9 3.05248,39.91676,23.7 3.05241,39.9167,23.9 3.05233,39.91663,24.2 3.05211,39.91644,24.9 3.05177,39.91617,24.6 3.05173,39.91614,24.5 3.0511,39.91578,28.5 3.05094,39.91569,29.6 3.05074,39.91559,30.4 3.05019,39.9153,31.3 3.05016,39.91529,31.4 3.05002,39.91522,31.5 3.04995,39.9152,31.4 3.04992,39.91519,31.4 3.0498,39.91516,31.1 3.04967,39.91514,31.0 3.04958,39.91514,31.1 3.04946,39.91514,31.2 3.04927,39.91517,31.7 3.0491,39.91516,31.6 3.04895,39.91515,31.1 3.04884,39.91512,30.5 3.04867,39.91507,29.5 3.04858,39.91503,28.9 3.04843,39.91495,27.8 3.04829,39.91487,26.9 3.04829,39.91487,26.9 3.04811,39.9149,27.0 3.04793,39.91493,27.0 3.04779,39.91495,27.0 3.04768,39.91497,27.0 3.04763,39.91499,27.1 3.04759,39.91502,27.2 3.04746,39.91512,27.3 3.04733,39.91522,27.1 3.04705,39.91548,26.9 3.04695,39.9156,27.1 3.04691,39.91565,27.1 3.04691,39.91565,27.1 3.04672,39.9156,25.9 3.04653,39.91555,25.6 3.04625,39.91548,25.7 3.04591,39.91537,25.5 3.04582,39.91533,25.5 3.04574,39.91529,25.8 3.04561,39.91524,26.4 3.04546,39.91514,26.9 3.0452,39.91494,28.4 3.04498,39.91474,30.0 3.04467,39.91443,28.6 3.04462,39.91439,28.3 3.04439,39.91418,26.4 3.04432,39.91412,26.0 3.0443,39.91411,25.9 3.04418,39.914,25.5 3.04403,39.91388,24.9 3.04383,39.91374,24.0 3.04345,39.91352,22.3 3.04342,39.9135,22.1 3.04254,39.91304,20.3 3.04219,39.91285,18.7 3.0421,39.9128,18.3 3.04192,39.91269,17.4 3.04173,39.91258,16.6 3.04155,39.91247,16.3 3.04136,39.91235,16.8 3.04118,39.91224,17.3 3.04113,39.91221,17.4 3.04099,39.91213,17.5 3.04089,39.91206,17.6 3.04083,39.91201,17.6 3.04083,39.912,17.6 3.04074,39.91191,17.7 3.04069,39.91182,17.8 3.04064,39.91167,18.0 3.04061,39.91158,18.0 3.04059,39.9115,18.0 3.04057,39.91145,18.0 3.04053,39.91137,18.0 3.04048,39.91127,18.1 3.04026,39.91094,18.9 3.04014,39.91073,19.2 3.04,39.91052,19.2 3.03987,39.91029,19.7 3.03983,39.9102,19.8 3.0398,39.91014,19.8 3.03976,39.91,19.7 3.03971,39.90985,20.0 3.03968,39.90975,20.1 3.03964,39.90964,20.3 3.03961,39.90955,20.3 3.03957,39.90947,20.4 3.03948,39.90936,20.6 3.03944,39.90931,20.6 3.03933,39.9092,20.7 3.03916,39.90898,20.3 3.03893,39.90872,19.5 3.03881,39.90854,19.1 3.03877,39.90849,19.0 3.0387,39.90837,18.7 3.03867,39.90833,18.6 3.0386,39.9082,18.7 3.03858,39.90816,18.7 3.03851,39.90803,18.8 3.0385,39.90799,18.8 3.03841,39.90783,18.9 3.0384,39.90781,18.9 3.03834,39.90766,19.0 3.03832,39.90763,19.0 3.03826,39.90745,19.1 3.03818,39.90716,19.4 3.03814,39.90702,19.6 3.0381,39.90694,19.7 3.03806,39.90686,19.8 3.03802,39.90675,19.9 3.03796,39.90662,20.2 3.03789,39.90652,20.5 3.03781,39.90643,20.8 3.03777,39.90639,20.9 3.03768,39.90632,21.0 3.03764,39.90627,21.1 3.03762,39.90622,21.2 3.03759,39.90617,21.3 3.03759,39.90611,21.5 3.03759,39.90608,21.6 3.03761,39.90596,21.9 3.03765,39.90584,22.3 3.03768,39.90577,22.8 3.03773,39.90566,23.6 3.03775,39.9056,24.1 3.03778,39.90554,24.6 3.03782,39.90539,25.7 3.03783,39.90531,26.3 3.03785,39.90519,27.2 3.03785,39.9051,27.8 3.03785,39.90507,28.0 3.03784,39.90504,28.2 3.03783,39.90494,28.9 3.03782,39.90489,29.2 3.03781,39.90484,29.5 3.03778,39.90476,29.9 3.03775,39.90472,30.1 3.03775,39.90471,30.1 3.0377,39.90464,30.4 3.03759,39.9045,30.8 3.03747,39.90439,30.9 3.03738,39.90431,30.7 3.03737,39.90429,30.7 3.03722,39.90415,30.3 3.03715,39.90406,30.9 3.0371,39.904,31.2 3.03709,39.90399,31.2 3.03702,39.9039,31.5 3.03699,39.90384,31.9 3.03698,39.90381,32.1 3.03693,39.90367,33.1 3.03686,39.90349,33.8 3.03685,39.90344,34.2 3.03681,39.90332,34.5 3.03677,39.90314,34.8 3.03672,39.90297,34.6 3.03668,39.90279,34.6 3.03662,39.90257,35.0 3.03662,39.90252,35.3 3.03662,39.90244,35.3 3.03663,39.90236,35.4 3.03665,39.9023,35.5 3.03668,39.90222,36.0 3.03671,39.90213,36.6 3.03678,39.90199,37.9 3.03681,39.90192,38.3 3.03681,39.90191,38.3 3.03683,39.90183,38.4 3.03684,39.90178,38.4 3.03684,39.90174,38.2 3.03685,39.90167,38.1 3.03684,39.90158,38.8 3.03684,39.90156,39.0 3.03682,39.90149,39.4 3.03679,39.90141,39.8 3.03676,39.90133,40.3 3.03667,39.90122,40.4 3.03655,39.90112,39.9 3.03646,39.90105,39.4 3.03638,39.901,38.7 3.03627,39.90094,37.7 3.03614,39.90087,36.4 3.03609,39.90082,36.3 3.03601,39.90076,36.2 3.03598,39.90074,36.2 3.03519,39.9001,38.4 3.03516,39.90007,38.4 3.03485,39.8998,35.5 3.03472,39.89969,34.0 3.0347,39.89966,33.9 3.03467,39.89963,33.5 3.03464,39.89956,33.3 3.0346,39.89948,33.0 3.0346,39.89937,33.2 3.03459,39.89922,33.5 3.0346,39.8991,33.5 3.0346,39.89901,33.2 3.03459,39.89896,33.0 3.03459,39.89893,32.9 3.03456,39.89885,32.3 3.03453,39.89879,31.7 3.03446,39.89861,30.3 3.0344,39.89849,29.2 3.03438,39.89844,28.9 3.03412,39.89785,27.6 3.03405,39.89768,28.0 3.03397,39.89752,28.2 3.03391,39.89736,28.6 3.0338,39.89708,29.4 3.03378,39.89698,29.8 3.03378,39.89698,29.8 3.03366,39.89687,29.9 3.03361,39.89681,30.0 3.03355,39.89676,30.1 3.03351,39.89671,30.2 3.03342,39.89669,30.1 3.03338,39.89668,30.0 3.03332,39.89665,30.0 3.0331,39.89646,29.9 3.03292,39.89631,29.7 3.03274,39.89613,29.5 3.03266,39.89607,29.3 3.03254,39.89598,29.1 3.03247,39.89593,29.1 3.03229,39.89581,29.6 3.0322,39.89575,29.9 3.03194,39.89554,30.7 3.03184,39.89546,30.9 3.03178,39.8954,30.9 3.03155,39.89518,31.1 3.03151,39.89514,31.2 3.03145,39.89509,31.3 3.03103,39.89471,31.8 3.03087,39.89457,32.0 3.03072,39.89443,32.3 3.03016,39.89382,33.6 3.02991,39.89355,34.2 3.02977,39.89341,34.5 3.02963,39.89326,34.8 3.02949,39.89312,34.9 3.02919,39.89279,35.3 3.0291,39.89268,35.3 3.02902,39.89256,35.2 3.02879,39.89221,35.6 3.02878,39.89219,35.7 3.02874,39.89213,35.7 3.02869,39.89209,35.8 3.02866,39.89205,35.8 3.02864,39.89204,35.8 3.02821,39.89171,36.3 3.02818,39.89168,36.4 3.02755,39.89121,37.9 3.02674,39.89059,38.0 3.02668,39.89055,38.0 3.02616,39.89021,38.6 3.02581,39.89002,39.1 3.02544,39.88983,40.1 3.02486,39.88952,41.7 3.02485,39.88952,41.8 3.02475,39.88947,41.9 3.0247,39.88945,42.0 3.02465,39.88943,42.1 3.02462,39.8894,42.2 3.0246,39.88938,42.2 3.02458,39.88935,42.3 3.02457,39.88933,42.3 3.02456,39.88931,42.4 3.02455,39.88927,42.4 3.02451,39.88901,42.3 3.0245,39.88898,42.3 3.02449,39.88896,42.3 3.02448,39.88894,42.2 3.02446,39.88892,42.2 3.02444,39.8889,42.2 3.02435,39.88881,42.3 3.02414,39.88863,42.4 3.02327,39.88793,43.1 3.02294,39.88768,43.5 3.02292,39.88766,43.5 3.02288,39.88762,43.5 3.02286,39.8876,43.6 3.02286,39.88758,43.6 3.02286,39.88755,43.6 3.02286,39.88752,43.6 3.02286,39.8875,43.6 3.02285,39.88748,43.6 3.02284,39.88747,43.6 3.02282,39.88744,43.7 3.02247,39.88707,44.6 3.02164,39.88619,46.5 3.02135,39.88589,46.8 3.0209,39.88542,47.4 3.0209,39.88542,47.4 3.02167,39.88448,46.6 3.02167,39.88448,46.6 3.02152,39.88443,46.9 3.02133,39.88437,47.2 3.02113,39.8843,47.5 3.021,39.88427,47.7 3.02078,39.88422,47.9 3.02078,39.88422,47.9 3.0207,39.88417,48.0 3.02068,39.88414,48.0 3.02067,39.88411,48.0 3.02067,39.88408,48.0 3.02067,39.88403,48.0 3.02068,39.88401,48.0 3.0207,39.88399,48.0 3.02073,39.88396,48.0 3.02075,39.88394,48.0 3.02075,39.88394,48.0 3.02074,39.88388,48.0 3.02073,39.88384,48.0 3.02071,39.8838,48.1 3.02066,39.88374,48.1 3.02055,39.88367,48.2 3.0205,39.88364,48.3 3.02024,39.88351,48.6 3.02017,39.88346,48.7 3.02014,39.88344,48.7 3.02008,39.88339,48.8 3.02006,39.88337,48.9 3.01998,39.88328,49.0 3.01984,39.88311,49.1 3.0198,39.88305,49.1 3.01973,39.88295,49.1 3.01972,39.88294,49.1 3.01963,39.88279,49.2 3.0196,39.88275,49.2 3.01952,39.88262,49.3 3.01949,39.88256,49.3 3.01947,39.88252,49.3 3.01946,39.88248,49.5 3.01945,39.88242,49.9 3.01945,39.88238,50.1 3.01945,39.88236,50.2 3.01946,39.88233,50.3 3.01947,39.88229,50.5 3.01948,39.88226,50.6 3.01953,39.88216,51.0 3.01955,39.88208,51.4 3.01955,39.88207,51.4 3.01954,39.88198,51.8 3.01954,39.88198,51.8 3.01928,39.88152,54.0 3.01928,39.88152,54.0 3.01808,39.88119,53.1 3.01761,39.88106,53.5 3.01711,39.88093,53.8 3.01687,39.88088,53.9 3.01604,39.88062,55.3 3.0155,39.88044,57.7 3.0155,39.88044,57.7 3.01585,39.87996,57.1 3.01588,39.87992,57.2 3.01592,39.87988,57.3 3.01593,39.87986,57.3 3.01598,39.87981,57.3 3.01603,39.87976,57.3 3.0161,39.8796,57.4 3.01612,39.87956,57.3 3.01614,39.87948,57.4 3.01615,39.87941,57.4 3.01615,39.87937,57.5 3.01614,39.87932,57.6 3.01611,39.87923,57.9 3.01608,39.87918,58.2 3.01607,39.87915,58.2 3.01606,39.87912,58.2 3.01603,39.87904,58.1 3.01603,39.87893,57.6 3.01605,39.87878,56.9 3.01605,39.87878,56.9 3.01611,39.8787,56.3 3.01617,39.87862,55.7 3.01623,39.87855,55.2 3.01627,39.8785,54.9 3.01649,39.87827,53.4 3.0165,39.87826,53.4 3.0165,39.87826,53.4 3.01663,39.87835,53.2 3.01663,39.87835,53.2 3.01696,39.87821,51.9 3.01697,39.87819,51.8 3.017,39.87812,51.4 3.01707,39.87802,50.9 3.01713,39.87791,50.4 3.01715,39.87788,50.2 3.01719,39.8778,49.8 3.01721,39.87774,49.6 3.01742,39.87739,47.9 3.01763,39.8771,46.8 3.01788,39.87676,45.4 3.0179,39.87674,45.3 3.01801,39.87658,44.8 3.01813,39.87642,44.7 3.01817,39.87637,44.7 3.01819,39.87634,44.7 3.01845,39.87596,45.0 3.01845,39.87596,45.0 3.01849,39.87598,45.0 3.01948,39.87647,45.6 3.01948,39.87647,45.6 3.01988,39.87597,45.1 3.02007,39.87573,44.4 3.02015,39.87564,43.7 3.02018,39.87562,43.5 3.0202,39.8756,43.4 3.02022,39.8756,43.3 3.02023,39.87559,43.2 3.02027,39.87559,43.0 3.02032,39.87559,42.7 3.02041,39.87559,42.2 3.02051,39.87561,41.7 3.02057,39.87561,41.4 3.02089,39.87567,39.9 3.02096,39.87568,39.7 3.02119,39.87569,39.1 3.02119,39.87569,39.1 3.0212,39.87568,39.1 3.02121,39.87566,39.1 3.02122,39.87566,39.1 3.02124,39.87564,39.0 3.02127,39.87562,39.0 3.0213,39.8756,38.9 3.02133,39.87559,38.8 3.02136,39.87558,38.7 3.0214,39.87557,38.6 3.02143,39.87557,38.6 3.02146,39.87557,38.5 3.02147,39.87557,38.5 3.0215,39.87557,38.4 3.02154,39.87558,38.3 3.02167,39.87551,38.0 3.02182,39.87543,37.9 3.02195,39.87529,37.8 3.02203,39.8752,37.7 3.02209,39.87513,37.6 3.02221,39.87498,37.4 3.02233,39.87482,37.4 3.02262,39.87448,37.5 3.02267,39.87441,37.5 3.02272,39.87437,37.5 3.02274,39.87435,37.5 3.02277,39.87432,37.5 3.0228,39.87429,37.5 3.02283,39.87427,37.5 3.02286,39.87425,37.5 3.02289,39.87424,37.4 3.02291,39.87423,37.4 3.02295,39.87421,37.4 3.02316,39.87414,37.4 3.02342,39.87407,37.5 3.02355,39.87403,37.4 3.02358,39.87401,37.4 3.02365,39.87398,37.4 3.02373,39.87394,37.4 3.02383,39.87389,37.4 3.02395,39.87382,37.4 3.02416,39.87372,37.2 3.0246,39.87356,36.6 3.02467,39.87353,36.5 3.02537,39.87329,36.3 3.02548,39.87326,36.7 3.02598,39.87305,39.4 3.02625,39.87296,40.4 3.02634,39.87294,40.6 3.02637,39.87293,40.6 3.02637,39.87292,40.8 3.0264,39.87292,40.7 3.02646,39.87291,40.7 3.02655,39.8729,40.6 3.02693,39.87286,39.8 3.02716,39.87283,39.2 3.02724,39.87283,38.8 3.0273,39.87283,38.6 3.02735,39.87283,38.3 3.02741,39.87283,38.1 3.02746,39.87283,37.8 3.02751,39.87283,37.6 3.02758,39.87283,37.2 3.02767,39.87282,36.9 3.02784,39.87278,36.4 3.02799,39.87274,36.0 3.0282,39.87268,35.3 3.02821,39.87268,35.2 3.02842,39.8726,34.8 3.02862,39.87252,34.5 3.02874,39.87247,34.8 3.02904,39.87235,36.1 3.02925,39.87227,36.7 3.02946,39.87219,37.0 3.02959,39.87214,37.1 3.02967,39.87211,37.1 3.02975,39.87207,37.2 3.03037,39.87182,35.7 3.03052,39.87176,34.8 3.03058,39.87174,34.4 3.03064,39.87172,33.9 3.03071,39.87169,33.3 3.03077,39.87166,32.9 3.03083,39.87165,32.5 3.0309,39.87165,32.0 3.03099,39.87164,31.7 3.03108,39.87165,30.9 3.03118,39.87167,29.9 3.03128,39.87169,29.3 3.0314,39.8717,28.5 3.03149,39.8717,28.0 3.03156,39.8717,27.6 3.03163,39.8717,27.2 3.03172,39.87169,27.0 3.03172,39.87168,27.0 3.03193,39.87161,27.2 3.03209,39.87156,27.2 3.03236,39.87147,27.0 3.03237,39.87146,27.0 3.03253,39.8714,26.6 3.03259,39.87139,26.5 3.03294,39.87126,26.0 3.034,39.87089,25.1 3.03412,39.87085,25.0 3.0349,39.87056,25.3 3.03506,39.8705,25.2 3.03511,39.87048,25.1 3.0355,39.87034,23.6 3.03572,39.87026,22.4 3.03574,39.87025,22.3 3.03594,39.8702,22.5 3.03607,39.87017,22.6 3.03614,39.87015,22.7 3.03668,39.87003,23.3 3.03674,39.87001,23.4 3.03688,39.86998,23.5 3.03697,39.86996,23.7 3.03719,39.86991,23.5 3.03743,39.86986,23.4 3.03757,39.86983,23.5 3.03764,39.86982,23.6 3.0377,39.8698,23.7 3.03775,39.86979,23.7 3.03779,39.86978,23.8 3.03788,39.86976,23.9 3.03798,39.86972,24.1 3.03808,39.86968,24.2 3.03816,39.86965,24.3 3.03823,39.8696,24.4 3.03836,39.86949,24.6 3.03847,39.8694,24.5 3.03853,39.86935,24.4 3.03859,39.86929,24.3 3.03866,39.86923,24.2 3.03871,39.86919,24.1 3.03882,39.86912,24.1 3.03889,39.86907,24.3 3.039,39.86901,24.5 3.03917,39.86891,24.9 3.03918,39.8689,25.0 3.03956,39.86866,28.3 3.03962,39.86863,28.8 3.03966,39.86861,29.2 3.03968,39.8686,29.3 3.03971,39.86857,29.7 3.03976,39.86854,30.2 3.0398,39.8685,30.7 3.03981,39.86849,30.8 3.03982,39.86847,31.0 3.03996,39.86805,33.5 3.04001,39.8679,34.0 3.04006,39.86778,34.4 3.0401,39.86772,34.5 3.04017,39.86764,34.8 3.0402,39.86761,34.9 3.04031,39.86749,35.4 3.04064,39.86717,36.8 3.04118,39.86665,39.0 3.0413,39.86653,39.2 3.04133,39.86651,39.2 3.04147,39.86637,39.4 3.04162,39.86622,39.5 3.04174,39.86611,39.2 3.04193,39.86593,38.3 3.04206,39.8658,37.8 3.04219,39.86568,37.5 3.04236,39.86551,37.3 3.04242,39.86546,37.2 3.04273,39.86519,38.0 3.04279,39.86513,38.3 3.04331,39.86469,40.1 3.04337,39.86464,40.4 3.04341,39.86461,40.6 3.04345,39.86457,40.8 3.0436,39.86445,41.5 3.04383,39.86423,42.5 3.04391,39.86416,42.7 3.04398,39.86409,42.4 3.04405,39.86402,42.1 3.04408,39.864,42.0 3.04413,39.86396,41.7 3.0443,39.86383,41.4 3.04438,39.86376,41.1 3.04446,39.8637,40.8 3.04462,39.86357,40.0 3.04463,39.86356,40.0 3.04517,39.86317,37.2 3.04546,39.86299,36.4 3.04568,39.86286,35.8 3.04577,39.8628,35.4 3.04584,39.86276,35.2 3.04624,39.86253,33.3 3.04639,39.86243,32.6 3.04642,39.86242,32.5 3.0465,39.86237,32.1 3.04658,39.86228,31.5 3.04663,39.86221,30.9 3.04669,39.86212,30.2 3.04674,39.86205,29.6 3.04684,39.86197,28.9 3.04684,39.86196,28.8 3.04702,39.86184,27.7 3.04707,39.8618,27.4 3.04719,39.86172,26.7 3.04758,39.86144,25.5 3.04761,39.86141,25.4 3.04763,39.86141,25.4 3.04779,39.8613,25.0 3.04802,39.86115,24.2 3.04854,39.86078,22.0 3.04855,39.86078,22.1 3.04902,39.86042,20.9 3.04941,39.86012,19.1 3.04975,39.85986,17.5 3.05,39.85968,17.0 3.05006,39.85963,17.0 3.0505,39.85928,17.5 3.05055,39.85924,17.6 3.05072,39.85911,18.0 3.05076,39.85908,18.1 3.05096,39.85893,18.4 3.05111,39.85881,18.5 3.05122,39.85873,18.6 3.05136,39.85863,18.7 3.05139,39.85861,18.7 3.05144,39.85857,18.7 3.05155,39.85848,18.8 3.05164,39.85841,18.8 3.05195,39.85817,18.6 3.052,39.85813,18.6 3.05203,39.8581,18.7 3.05204,39.85809,18.7 3.05207,39.85807,18.7 3.05216,39.858,18.7 3.0522,39.85796,18.7 3.05225,39.85793,18.8 3.05225,39.85792,18.8 3.05233,39.85786,18.9 3.05237,39.85783,18.9 3.05241,39.8578,19.0 3.05241,39.85779,19.0 3.05253,39.8577,19.3 3.05258,39.85767,19.3 3.05258,39.85766,19.4 3.05268,39.85759,19.6 3.0527,39.85758,19.7 3.0528,39.85751,20.0 3.05287,39.85746,20.3 3.05301,39.85734,21.0 3.05303,39.85733,21.1 3.05313,39.85726,21.5 3.05317,39.85724,21.6 3.05321,39.85723,21.7 3.05322,39.85722,21.7 3.05327,39.8572,21.8 3.05336,39.85717,21.9 3.05343,39.85715,21.8 3.05345,39.85715,21.8 3.05356,39.85713,21.6 3.05366,39.85711,21.4 3.05367,39.85711,21.4 3.05373,39.85711,21.2 3.0538,39.8571,21.0 3.0539,39.85709,20.8 3.05393,39.85709,20.7 3.05405,39.85707,20.4 3.05412,39.85706,20.2 3.05414,39.85705,20.2 3.05421,39.85704,19.9 3.05428,39.85702,19.7 3.05438,39.85699,19.5 3.05448,39.85695,19.2 3.05456,39.85692,19.0 3.05459,39.8569,18.9 3.05475,39.85682,18.5 3.05481,39.85678,18.4 3.05493,39.8567,18.2 3.05506,39.85662,18.1 3.05535,39.85644,18.5 3.05543,39.85639,18.5 3.05574,39.85619,18.4 3.05579,39.85616,18.4 3.05648,39.85572,17.1 3.0565,39.8557,17.0 3.05785,39.85483,15.7 3.05799,39.85474,15.8 3.0582,39.85461,16.0 3.0583,39.85455,16.0 3.05831,39.85454,16.0 3.05919,39.85397,16.7 3.05931,39.85389,16.4 3.05957,39.85373,15.8 3.05978,39.85359,15.3 3.05987,39.85353,15.2 3.05997,39.85347,15.0 3.05999,39.85345,15.0 3.06002,39.85342,14.9 3.06005,39.85339,14.8 3.06008,39.85335,14.7 3.06016,39.85316,14.4 3.06017,39.85315,14.3 3.06019,39.85311,14.3 3.0602,39.85309,14.2 3.06021,39.85307,14.2 3.06024,39.85304,14.2 3.06026,39.85302,14.1 3.06049,39.85301,13.9 3.06066,39.85299,13.4 3.06074,39.85298,13.1 3.06085,39.85295,12.9 3.0611,39.85289,13.2 3.06116,39.85288,13.3 3.0613,39.85284,13.4 3.06135,39.85283,13.5 3.06153,39.85278,13.6 3.06159,39.85277,13.6 3.06204,39.85267,13.1 3.0626,39.85254,11.9 3.06323,39.85238,11.2 3.06386,39.85223,11.8 3.06459,39.85205,11.5 3.06527,39.85189,10.8 3.06536,39.85186,10.8 3.06554,39.85182,10.6 3.06576,39.85177,10.3 3.06599,39.85171,10.3 3.06611,39.85168,10.4 3.06621,39.85166,10.5 3.06665,39.85154,11.0 3.06688,39.85149,11.1 3.0669,39.85148,11.1 3.0671,39.85143,11.1 3.06778,39.85127,12.0 3.06779,39.85127,12.0 3.068,39.85122,12.5 3.06822,39.85116,13.0 3.06856,39.85108,13.2 3.06863,39.85106,13.2 3.06871,39.85104,13.2 3.06881,39.85102,13.1 3.06891,39.85098,13.1 3.06902,39.85093,13.0 3.06912,39.85088,13.0 3.06948,39.8507,12.7 3.06992,39.85048,12.5 3.07006,39.85042,12.4 3.07057,39.85019,12.1 3.07113,39.84992,11.5 3.07122,39.84987,11.4 3.07127,39.84984,11.3 3.07131,39.84982,11.2 3.07145,39.84972,10.9 3.07161,39.84959,10.6 3.07179,39.84947,10.1 3.07182,39.84945,10.0 3.07196,39.84935,9.6 3.07196,39.84934,9.6 3.07256,39.84892,8.4 3.07264,39.84886,8.5 3.07331,39.84838,9.9 3.07392,39.84793,10.5 3.07426,39.84768,10.8 3.07432,39.84764,10.8 3.07464,39.8474,11.1 3.07481,39.84728,11.3 3.07501,39.84714,11.4 3.07549,39.84678,11.4 3.07583,39.84653,11.0 3.07635,39.84618,11.0 3.07646,39.8461,11.0 3.07651,39.84607,11.0 3.0772,39.84556,11.4 3.07738,39.84544,11.5 3.07742,39.84541,11.6 3.07755,39.84532,11.6 3.07759,39.84529,11.7 3.07765,39.84524,11.7 3.07818,39.84486,12.1 3.07848,39.84463,12.8 3.0786,39.84454,13.2 3.07864,39.8445,13.3 3.07874,39.8444,13.7 3.07882,39.84432,14.0 3.07902,39.84415,14.7 3.07905,39.84412,14.7 3.07936,39.84386,15.3 3.07959,39.84365,15.8 3.07981,39.84346,16.4 3.07982,39.84345,16.5 3.08,39.84328,17.1 3.08018,39.84313,17.7 3.08025,39.84307,17.9 3.08041,39.84292,18.5 3.08066,39.8427,19.3 3.0807,39.84266,19.5 3.08097,39.84243,20.5 3.0811,39.84232,21.1 3.0812,39.84222,21.6 3.08127,39.84217,21.9 3.08128,39.84216,21.9 3.08129,39.84213,22.1 3.0813,39.84212,22.1 3.08131,39.8421,22.2 3.08132,39.84206,22.4 3.08133,39.84203,22.5 3.08136,39.84193,22.9 3.08136,39.84191,23.0 3.08135,39.84177,23.6 3.0813,39.8417,23.9 3.08129,39.84154,24.3 3.08129,39.84154,24.3 3.08126,39.84152,24.4 3.08123,39.8415,24.4 3.08121,39.84149,24.4 3.08119,39.84147,24.5 3.08118,39.84145,24.5 3.08116,39.84143,24.6 3.08115,39.84141,24.6 3.08114,39.84139,24.7 3.08114,39.84137,24.7 3.08113,39.84135,24.8 3.08113,39.84132,24.8 3.08113,39.84131,24.9 3.08114,39.8413,24.9 3.08114,39.84128,24.9 3.08114,39.84127,25.0 3.08115,39.84126,25.0 3.08116,39.84124,25.0 3.08116,39.84123,25.0 3.08117,39.84122,25.1 3.0812,39.84119,25.1 3.08122,39.84117,25.2 3.08124,39.84116,25.2 3.08126,39.84114,25.3 3.08129,39.84113,25.3 3.08132,39.84112,25.3 3.08134,39.84112,25.3 3.08137,39.84111,25.3 3.0814,39.84111,25.3 3.08143,39.84111,25.3 3.08146,39.84111,25.3 3.08149,39.84111,25.3 3.08152,39.84112,25.3 3.08155,39.84113,25.3 3.08165,39.84119,25.1 3.08167,39.84121,25.1 3.08169,39.84123,25.0 3.0817,39.84125,25.0 3.08171,39.84127,24.9 3.08172,39.8413,24.8 3.08172,39.84132,24.8 3.08172,39.84134,24.7 3.08172,39.84136,24.7 3.08171,39.84139,24.6 3.08205,39.84154,23.8 3.08216,39.8416,23.6 3.08239,39.84169,23.1 3.08313,39.84197,22.2 3.0836,39.84214,23.4 3.0842,39.84234,25.7 3.08425,39.84235,26.0 3.08463,39.84247,27.4 3.08485,39.84254,28.5 3.08488,39.84255,28.8 3.08505,39.8426,29.7 3.08535,39.84269,30.7 3.08556,39.84275,31.1 3.0856,39.84277,31.1 3.0863,39.84298,29.5 3.08708,39.84322,27.9 3.08857,39.84367,27.9 3.08928,39.84388,28.3 3.08933,39.84389,28.3 3.08966,39.84399,27.9 3.08972,39.84401,27.8 3.09021,39.84418,27.9 3.09028,39.8442,28.1 3.09067,39.84429,28.9 3.09085,39.84434,28.9 3.09093,39.84436,28.7 3.09123,39.84443,28.1 3.09146,39.84447,27.9 3.09188,39.84451,27.1 3.09205,39.84448,26.8 3.09225,39.84449,26.2 3.09273,39.84445,24.4 3.09327,39.84439,21.6 3.09327,39.84439,21.6 3.09329,39.84437,21.5 3.0933,39.84434,21.6 3.09333,39.84431,21.5 3.09335,39.84429,21.5 3.09338,39.84427,21.5 3.09341,39.84426,21.4 3.09345,39.84424,21.3 3.09349,39.84423,21.2 3.09352,39.84422,21.2 3.09356,39.84422,21.0 3.0936,39.84422,20.9 3.09364,39.84422,20.8 3.09368,39.84423,20.6 3.09372,39.84424,20.4 3.09375,39.84425,20.3 3.09378,39.84426,20.2 3.09382,39.84429,20.0 3.0939,39.84429,19.7 3.09405,39.84428,19.2 3.09422,39.84426,18.9 3.09435,39.84423,19.1 3.09456,39.84415,19.6 3.09466,39.84415,19.7 3.09504,39.84399,20.9 3.09568,39.84374,22.4 3.09582,39.84368,22.6 3.09587,39.84366,22.4 3.09588,39.84365,22.4 3.09637,39.84342,20.4 3.0964,39.84341,20.2 3.09644,39.84339,20.1 3.09664,39.8433,19.1 3.09687,39.84321,18.4 3.09724,39.84306,17.5 3.09731,39.84298,17.4 3.09734,39.84296,17.3 3.09739,39.84292,17.2 3.09747,39.84284,17.1 3.09757,39.84275,16.8 3.09765,39.84266,16.6 3.09769,39.84261,16.5 3.09769,39.84261,16.5 3.09769,39.84259,16.5 3.0977,39.84257,16.5 3.09771,39.84255,16.5 3.09772,39.84254,16.4 3.09774,39.84252,16.4 3.09777,39.84241,16.8 3.09778,39.84235,17.1 3.0978,39.84229,17.4 3.09783,39.8422,17.7 3.09784,39.84212,18.1 3.09787,39.84208,18.2 3.09789,39.84191,18.9 3.09791,39.84183,19.2 3.09792,39.84176,19.5 3.09794,39.84168,19.8 3.09797,39.84158,20.3 3.098,39.84148,20.8 3.09806,39.84135,21.3 3.09812,39.84124,21.7 3.09816,39.84118,21.9 3.0982,39.84112,22.0 3.09827,39.84102,22.2 3.09835,39.84092,22.4 3.09845,39.84079,22.5 3.09855,39.84067,22.4 3.0986,39.84062,22.3 3.09875,39.84045,21.9 3.09888,39.84031,21.4 3.09903,39.84015,20.7 3.0993,39.83985,19.0 3.09956,39.83955,17.7 3.0997,39.8394,17.4 3.1,39.83907,17.1 3.10053,39.83849,15.0 3.10063,39.83837,14.9 3.10068,39.83832,14.7 3.10078,39.83821,14.0 3.10084,39.83812,13.5 3.10092,39.83803,13.0 3.10098,39.83796,12.7 3.10102,39.83792,12.4 3.10116,39.83778,11.6 3.10134,39.83757,10.4 3.10152,39.83738,10.0 3.10155,39.83734,10.0 3.10164,39.83723,10.1 3.102,39.83679,10.6 3.10212,39.83662,10.5 3.10216,39.83657,10.5 3.10216,39.83657,10.5 3.10227,39.83651,10.3 3.10231,39.8365,10.2 3.10237,39.83648,10.0 3.10242,39.83648,9.8 3.10249,39.83647,9.5 3.10254,39.83648,9.3 3.10259,39.83648,9.0 3.10263,39.8365,8.8 3.10267,39.83652,8.6 3.1027,39.83653,8.4 3.10271,39.83654,8.4 3.10275,39.83656,8.2 3.10277,39.83658,8.1 3.10284,39.83667,7.8 3.10289,39.83672,7.6 3.10294,39.83676,7.5 3.103,39.8368,7.3 3.10304,39.83682,7.1 3.10307,39.83686,7.0 3.10317,39.83692,6.6 3.10337,39.83701,5.9 3.10347,39.83705,5.5 3.1035,39.83706,5.4 3.10372,39.83716,4.5 3.10376,39.83717,4.4 3.10401,39.83726,3.2 3.10406,39.83726,3.0 3.10413,39.83728,2.7 3.10417,39.83728,2.5 3.10421,39.83729,2.4 3.10427,39.83728,2.3 3.10428,39.83728,2.3 3.1043,39.83727,2.3 3.10432,39.83726,2.3 3.10435,39.83726,2.2 3.10436,39.83726,2.2 3.10439,39.83726,2.2 3.10441,39.83727,2.1 3.10444,39.83727,2.0 3.10446,39.83729,2.0 3.10448,39.8373,1.9 3.10449,39.8373,1.9 3.10449,39.8373,1.9 3.1045,39.83731,1.9 3.10451,39.83732,1.8 3.10452,39.83734,1.8 3.10453,39.83735,1.8 3.10453,39.83737,1.7 3.10466,39.83744,1.5 3.10469,39.83747,1.4 3.10496,39.83755,1.0 3.10547,39.83764,0.9 3.10561,39.83766,0.9 3.10565,39.83767,0.8 3.1063,39.83775,-0.1 3.10654,39.83778,-0.5 3.10663,39.8378,-0.6 3.10746,39.83791,-1.0 3.10746,39.83791,-1.0 3.10771,39.83697,2.9 3.1079,39.83623,3.9 3.10792,39.83619,3.9 3.10794,39.83616,3.8 3.10816,39.83592,3.8 3.10816,39.83592,3.8 3.10819,39.83593,3.9 3.10872,39.83628,3.9 3.10898,39.83646,3.4 3.10902,39.83648,3.3 3.10906,39.83649,3.1 3.10909,39.83649,3.0 3.10914,39.8365,2.9 3.10924,39.83649,2.7 3.10936,39.83646,2.6 3.10997,39.83627,2.5 3.10997,39.83627,2.5 3.11,39.83627,2.5 3.11002,39.83627,2.5 3.11003,39.83628,2.5 3.11005,39.83629,2.5 3.11007,39.83631,2.5 3.11011,39.83636,2.5 3.11011,39.83636,2.5 3.11077,39.83615,2.7 3.1114,39.83588,2.8 3.11231,39.83553,2.8 3.11236,39.83552,2.9 3.11238,39.83552,2.9 3.1124,39.83551,2.9 3.11247,39.8355,3.0 3.11268,39.83548,3.1 3.11268,39.83548,3.1 3.11272,39.83549,3.2 3.11276,39.8355,3.2 3.11279,39.83552,3.2 3.11281,39.83553,3.2 3.11282,39.83555,3.3 3.11287,39.83564,3.3 3.11289,39.83566,3.4 3.11289,39.83566,3.4 3.11305,39.83565,3.5 3.11375,39.83561,3.2 3.11463,39.83554,2.1 3.11531,39.8355,1.4 3.11551,39.83549,1.2 3.11597,39.83547,1.1 3.11627,39.83544,1.3 3.11641,39.83543,1.4 3.11686,39.8354,2.1 3.11775,39.83534,3.7 3.1178,39.83534,3.7 3.11781,39.83534,3.7 3.11784,39.83535,3.7 3.11786,39.83536,3.7 3.11791,39.83539,3.7 3.11819,39.83535,3.5 3.11827,39.83534,3.4 3.11834,39.83532,3.4 3.11834,39.83532,3.4 3.11845,39.83529,3.4 3.11865,39.83516,3.5 3.11932,39.83482,4.0 3.11932,39.83482,4.0 3.11934,39.83485,4.0 3.1194,39.83497,4.2 3.11949,39.83535,4.2 3.11953,39.83555,4.1 3.11959,39.83578,4.0 3.11965,39.83596,4.6 3.11973,39.83616,5.3 3.11985,39.83632,5.6 3.11989,39.83637,5.6 3.12003,39.83653,5.7 3.12023,39.83669,6.1 3.1203,39.83675,6.2 3.12052,39.83689,6.5 3.12057,39.83693,6.6 3.12087,39.83721,7.3 3.12108,39.83745,7.6 3.1212,39.83762,7.1 3.1212,39.83762,7.1 3.12237,39.83693,9.1 3.12237,39.83693,9.1 3.12235,39.83689,9.1 3.12226,39.83681,8.9 3.12209,39.83666,8.0 3.12208,39.83664,7.9 3.12189,39.83648,6.4 3.12176,39.8364,6.1 3.12169,39.83637,6.1
        </coordinates>
      </LineString>
    </Placemark>
  </Document>
</kml>
