<?xml version="1.0" encoding="UTF-8"?>
<kml xmlns="http://www.opengis.net/kml/2.2">
  <Document>
    <name>Port Alcudia to Palma</name>
    <Placemark>
      <name>Port Alcudia to Palma</name>
      <LineString>
        <tessellate>1</tessellate>
        <coordinates>
3.11802,39.83436,3.3 3.11822,39.83488,3.0 3.11841,39.83524,3.4 3.11825,39.83531,3.4 3.11807,39.83493,3.0 3.11793,39.83457,3.2 3.11778,39.8341,3.9 3.11767,39.83384,4.9 3.11761,39.83363,5.7 3.11753,39.83366,5.8 3.11732,39.83303,7.7 3.1171,39.8324,7.5 3.11689,39.83176,3.7 3.11693,39.83171,3.5 3.1169,39.83168,3.3 3.11689,39.83166,3.3 3.11689,39.83162,3.4 3.11692,39.83158,3.5 3.11692,39.83153,3.6 3.11689,39.83139,3.8 3.11662,39.83056,2.8 3.11656,39.83042,2.6 3.11632,39.82967,1.8 3.11608,39.82892,7.0 3.11603,39.82876,8.1 3.1159,39.82836,10.9 3.11588,39.82825,10.5 3.11581,39.82826,11.2 3.11567,39.82752,2.3 3.11553,39.82679,1.5 3.1154,39.82605,2.2 3.11526,39.82532,2.1 3.11512,39.82458,1.9 3.115,39.82394,3.1 3.11488,39.8233,5.5 3.11475,39.82266,6.1 3.11471,39.82234,6.2 3.11457,39.82157,5.3 3.11445,39.82092,4.7 3.11432,39.82027,3.6 3.1142,39.81958,3.5 3.11409,39.81888,3.9 3.11397,39.81819,4.2 3.11391,39.8179,5.3 3.11379,39.81716,7.6 3.11376,39.81698,8.1 3.11375,39.8167,8.9 3.11378,39.81639,8.6 3.11385,39.81608,8.4 3.114,39.81561,8.5 3.11414,39.81514,8.2 3.11414,39.81513,8.2 3.11416,39.81507,8.1 3.11418,39.81505,8.1 3.11423,39.81503,7.9 3.11429,39.81495,7.5 3.11434,39.81484,6.9 3.11457,39.81412,4.6 3.1148,39.8134,5.4 3.11482,39.81332,5.5 3.1148,39.8133,5.5 3.11478,39.81325,5.6 3.11465,39.81322,5.9 3.11402,39.8131,6.3 3.11339,39.81299,4.0 3.11362,39.81227,3.8 3.11386,39.81155,6.3 3.1141,39.81083,4.7 3.11389,39.81078,3.7 3.11405,39.81004,4.4 3.11415,39.80962,3.1 3.11416,39.80957,2.9 3.11438,39.80883,0.6 3.11459,39.8081,0.0 3.11457,39.80807,0.0 3.11444,39.8079,0.0 3.11441,39.80781,0.0 3.11441,39.80775,0.0 3.11463,39.80716,-0.7 3.11486,39.80657,-0.2 3.11495,39.80627,0.1 3.11516,39.80543,-0.3 3.11537,39.80458,-0.4 3.11558,39.80374,0.0 3.11563,39.8037,0.1 3.11572,39.80371,0.3 3.11647,39.80386,3.5 3.11663,39.80338,4.7 3.11679,39.80291,3.8 3.11729,39.80268,4.6 3.11732,39.8026,4.5 3.11807,39.80276,7.8 3.11829,39.80212,7.0 3.11839,39.80214,7.2 3.11849,39.80185,6.8 3.11865,39.80153,6.0 3.11879,39.80117,5.5 3.11905,39.80039,4.5 3.1193,39.79958,3.5 3.11932,39.79935,3.5 3.11935,39.79926,3.8 3.11931,39.79924,3.4 3.11928,39.79921,3.1 3.11926,39.79917,2.9 3.11927,39.79913,3.0 3.11928,39.7991,3.1 3.11931,39.79907,3.4 3.11935,39.79906,3.7 3.1194,39.79905,4.1 3.11945,39.79905,4.6 3.11949,39.79906,4.9 3.11953,39.79909,5.3 3.11961,39.79907,6.0 3.11968,39.79904,6.5 3.11971,39.79897,6.5 3.11992,39.79829,4.9 3.12014,39.79761,5.7 3.12035,39.79693,5.2 3.12063,39.79614,4.2 3.1204,39.79609,3.9 3.12051,39.79576,3.5 3.12071,39.79516,3.6 3.12092,39.79456,2.6 3.12132,39.79391,1.9 3.12171,39.79327,2.1 3.12211,39.79262,1.7 3.12251,39.79198,2.3 3.12252,39.79191,2.5 3.12252,39.79188,2.5 3.12253,39.79185,2.6 3.12267,39.79165,3.4 3.12274,39.79159,3.4 3.12291,39.79133,3.2 3.12346,39.79063,3.7 3.124,39.78992,3.4 3.12455,39.78921,6.3 3.1251,39.78851,6.0 3.12565,39.7878,5.1 3.1262,39.78709,4.7 3.12675,39.78639,5.6 3.12715,39.78582,5.7 3.12762,39.78515,4.9 3.12809,39.78447,4.5 3.12857,39.78379,4.4 3.12904,39.78311,3.8 3.12951,39.78243,3.4 3.12975,39.78212,3.4 3.13039,39.78148,4.9 3.13103,39.78084,4.7 3.1314,39.78046,3.4 3.13176,39.78008,1.9 3.13236,39.77952,2.3 3.13296,39.77896,3.5 3.13357,39.77841,3.6 3.13422,39.77784,1.1 3.13504,39.77722,2.4 3.13586,39.7766,2.8 3.13668,39.77598,2.2 3.13751,39.77536,2.3 3.13833,39.77474,3.0 3.13915,39.77412,5.7 3.13966,39.77373,4.3 3.14018,39.77334,3.6 3.14069,39.77293,7.5 3.14079,39.77283,8.1 3.14131,39.77234,9.3 3.14182,39.77184,8.0 3.14188,39.77171,7.4 3.14191,39.77159,7.1 3.1419,39.77144,7.1 3.14184,39.77134,7.3 3.14173,39.77127,7.7 3.14168,39.77118,7.9 3.14132,39.77102,8.6 3.14116,39.77097,8.9 3.14103,39.77096,9.2 3.14095,39.77099,9.2 3.14087,39.77099,9.4 3.14079,39.77098,9.4 3.14074,39.77095,9.5 3.14069,39.77091,9.6 3.14066,39.77086,9.7 3.14053,39.77078,9.7 3.14027,39.77069,9.6 3.13937,39.77054,10.2 3.13893,39.77041,11.2 3.1383,39.77015,12.5 3.13769,39.76987,13.9 3.13734,39.76965,13.2 3.13705,39.76943,11.3 3.13653,39.76902,9.1 3.13601,39.76862,9.2 3.13601,39.76862,9.2 3.13529,39.76805,9.2 3.13456,39.76748,7.8 3.13384,39.76692,7.2 3.13311,39.76635,8.8 3.13239,39.76579,10.6 3.13176,39.76525,10.2 3.13113,39.76472,8.6 3.13051,39.76419,8.4 3.13028,39.76402,8.7 3.13003,39.76388,9.0 3.12914,39.76345,8.7 3.12825,39.76303,5.6 3.12797,39.76287,6.7 3.12778,39.76272,7.6 3.12726,39.76225,9.4 3.1269,39.76197,10.0 3.12664,39.76183,10.5 3.12643,39.76177,11.2 3.12616,39.76172,12.1 3.12555,39.76167,13.0 3.1253,39.76163,13.2 3.12494,39.76152,14.1 3.12403,39.76123,18.9 3.12312,39.76094,19.4 3.12221,39.76065,20.7 3.12149,39.76054,21.2 3.12128,39.76049,21.0 3.1211,39.76041,20.6 3.12058,39.76012,18.5 3.12045,39.76007,17.9 3.12024,39.76002,16.9 3.11996,39.76,15.9 3.11897,39.76001,12.3 3.11798,39.76003,9.5 3.11699,39.76005,8.3 3.116,39.76006,8.7 3.11484,39.76008,3.8 3.11368,39.76009,1.8 3.11381,39.75959,4.0 3.11394,39.75908,6.5 3.1139,39.75901,6.9 3.11382,39.75903,6.8 3.1137,39.75904,6.7 3.11263,39.75895,6.0 3.11156,39.75886,6.2 3.1105,39.75878,6.5 3.10943,39.75869,6.1 3.10837,39.75861,6.3 3.10743,39.75853,7.2 3.1065,39.75845,6.7 3.10557,39.75837,6.9 3.10463,39.75829,6.8 3.1037,39.75821,5.6 3.10335,39.7582,5.0 3.10284,39.75826,4.6 3.10184,39.75835,5.6 3.10142,39.75842,6.7 3.10062,39.75874,7.6 3.09983,39.75907,8.1 3.09903,39.7594,9.6 3.09826,39.7596,7.4 3.09714,39.75975,7.3 3.09602,39.7599,7.2 3.09489,39.76005,7.9 3.09377,39.7602,7.5 3.09368,39.76023,7.4 3.09307,39.76094,5.7 3.09247,39.76165,6.0 3.09176,39.76106,6.5 3.09105,39.76046,7.6 3.09035,39.75986,9.3 3.08977,39.75933,9.9 3.0892,39.75881,10.4 3.08842,39.75814,12.2 3.08765,39.75748,14.7 3.08687,39.75682,16.0 3.0861,39.75616,17.5 3.08532,39.7555,19.2 3.08455,39.75484,19.9 3.08418,39.7545,20.8 3.08414,39.75448,20.9 3.08403,39.75434,21.2 3.08359,39.75366,21.5 3.08332,39.75321,22.2 3.08287,39.75238,23.8 3.08243,39.75156,26.3 3.08199,39.75074,28.0 3.08159,39.75013,28.0 3.08141,39.74983,28.3 3.081,39.74917,30.6 3.08061,39.7484,32.1 3.08023,39.74762,33.6 3.07983,39.74695,34.7 3.07943,39.74627,36.1 3.079,39.74566,38.1 3.07858,39.74504,40.3 3.0783,39.74468,42.5 3.07796,39.74427,44.1 3.07762,39.74386,45.8 3.07722,39.74336,49.2 3.07683,39.74286,50.7 3.07673,39.7428,51.1 3.07663,39.74278,51.4 3.0765,39.74282,51.4 3.0756,39.74332,51.3 3.0747,39.74382,51.7 3.07431,39.74402,53.1 3.07419,39.74407,53.7 3.07409,39.74409,53.9 3.074,39.74407,54.1 3.07363,39.74391,54.8 3.073,39.7436,56.5 3.07237,39.74328,57.2 3.07218,39.74311,58.1 3.07201,39.74293,59.3 3.07178,39.74257,62.1 3.07159,39.74222,61.9 3.07142,39.74187,59.9 3.07094,39.74123,58.5 3.07082,39.74098,58.9 3.07074,39.74093,58.1 3.07064,39.74091,56.8 3.07052,39.74093,55.0 3.07043,39.74103,53.4 3.0704,39.74116,52.4 3.07035,39.74136,51.0 3.07032,39.74145,50.3 3.07023,39.74153,48.9 3.07009,39.74156,47.3 3.06939,39.7415,43.5 3.06911,39.74145,42.4 3.06857,39.74126,42.2 3.06804,39.74108,42.6 3.06768,39.74099,42.6 3.06747,39.74091,42.7 3.06729,39.74084,43.0 3.06716,39.74069,43.3 3.06699,39.74057,43.6 3.06686,39.74054,43.7 3.06665,39.74053,43.7 3.06632,39.7405,43.5 3.06567,39.74041,43.6 3.06545,39.74037,43.9 3.06523,39.7403,44.4 3.06448,39.74011,45.6 3.06426,39.74007,45.7 3.06405,39.74005,45.6 3.0639,39.74007,45.2 3.06379,39.74011,44.9 3.06337,39.7403,44.0 3.06301,39.74045,44.2 3.06277,39.74054,44.4 3.06248,39.74061,44.7 3.06139,39.74061,46.0 3.06125,39.74058,46.6 3.06115,39.74053,47.1 3.06107,39.74046,47.8 3.06087,39.73995,52.0 3.06067,39.73945,56.7 3.0605,39.73915,61.2 3.06042,39.73893,62.7 3.06029,39.73851,65.3 3.06025,39.73829,66.3 3.06018,39.73805,68.5 3.0601,39.73799,70.1 3.06002,39.73797,71.4 3.05995,39.73802,71.9 3.05996,39.73819,71.1 3.06001,39.73829,70.0 3.06001,39.73844,69.7 3.05999,39.73848,69.9 3.05995,39.7385,70.3 3.05988,39.73848,70.9 3.05983,39.73839,71.5 3.05982,39.73829,71.9 3.0598,39.73812,72.8 3.0598,39.73757,75.1 3.05963,39.73737,76.9 3.05949,39.73725,78.1 3.05932,39.73705,79.5 3.05927,39.73705,79.9 3.05926,39.73701,80.0 3.05927,39.73699,79.9 3.05931,39.73698,79.7 3.05939,39.73687,79.3 3.05943,39.73671,79.4 3.05941,39.73661,79.6 3.05941,39.73635,79.8 3.05969,39.73617,78.6 3.05934,39.73593,80.3 3.05918,39.73581,81.0 3.05909,39.73566,80.9 3.05905,39.73559,80.9 3.05895,39.7354,80.7 3.05908,39.73533,81.3 3.05922,39.73489,82.0 3.05928,39.73474,82.0 3.0593,39.73465,82.0 3.05874,39.73448,81.4 3.05818,39.73431,80.1 3.05808,39.73451,79.4 3.05783,39.73488,78.0 3.05747,39.73537,77.3 3.05755,39.73543,77.6 3.05747,39.73537,77.3 3.05702,39.7352,74.9 3.05733,39.73454,77.1 3.05761,39.73383,79.2 3.05777,39.73358,80.2 3.05816,39.73275,81.9 3.05855,39.73192,80.2 3.05885,39.73134,79.1 3.05891,39.73092,78.5 3.05901,39.73042,78.6 3.0591,39.72991,78.6 3.05921,39.72968,78.2 3.05891,39.72892,76.3 3.05862,39.72816,74.5 3.05828,39.72737,69.9 3.05816,39.72706,69.7 3.05784,39.72624,69.7 3.05752,39.72543,69.1 3.0572,39.72461,67.4 3.05688,39.7238,67.8 3.05659,39.72305,67.2 3.0563,39.7223,68.7 3.05601,39.72155,69.5 3.0557,39.72076,70.5 3.05538,39.71998,69.5 3.05507,39.71919,73.8 3.05494,39.71879,72.9 3.05475,39.71809,70.7 3.05456,39.7174,68.7 3.05437,39.7167,73.5 3.0546,39.71597,75.4 3.05483,39.71524,74.9 3.05506,39.71451,76.4 3.0553,39.71378,78.5 3.05553,39.71305,78.6 3.05564,39.71286,78.1 3.0558,39.71279,77.7 3.05666,39.71261,73.9 3.05753,39.71243,75.4 3.0584,39.71225,80.2 3.0585,39.71219,81.6 3.05854,39.71211,82.7 3.0583,39.71129,84.6 3.05805,39.71048,85.8 3.05781,39.70967,87.0 3.05757,39.70885,86.3 3.05747,39.70855,85.5 3.05735,39.70835,84.9 3.05714,39.70815,83.8 3.05702,39.70795,83.6 3.05674,39.70709,86.1 3.05646,39.70623,92.1 3.05618,39.70537,98.6 3.0559,39.7045,100.1 3.05581,39.70434,100.0 3.05562,39.70413,99.9 3.05552,39.70385,99.0 3.05544,39.70353,98.1 3.05533,39.70284,95.7 3.05523,39.70214,95.1 3.05515,39.70179,95.5 3.05504,39.70143,96.3 3.05489,39.70116,97.1 3.05465,39.70068,98.9 3.05437,39.70022,101.3 3.05409,39.69976,104.2 3.05395,39.69958,105.5 3.05367,39.69926,107.0 3.05353,39.69894,109.0 3.05347,39.69879,110.1 3.05343,39.69862,111.6 3.05336,39.69813,113.6 3.05311,39.69753,112.6 3.05291,39.69713,109.2 3.05279,39.69685,106.6 3.05255,39.69624,104.8 3.05251,39.69612,105.0 3.05249,39.69602,105.1 3.05248,39.6958,105.1 3.05247,39.69557,104.6 3.05245,39.69537,104.3 3.05227,39.69463,106.5 3.0521,39.69388,110.0 3.05206,39.69382,110.3 3.05203,39.69378,110.5 3.05193,39.69373,110.7 3.05144,39.69357,110.9 3.05098,39.69345,110.0 3.05065,39.69335,109.8 3.05051,39.69329,109.7 3.05042,39.69322,109.3 3.0501,39.69295,107.6 3.04993,39.69283,106.4 3.04981,39.69277,105.5 3.04925,39.69259,102.8 3.04915,39.69255,102.3 3.04901,39.69246,101.2 3.04896,39.6924,100.9 3.04866,39.69194,99.3 3.04836,39.69147,97.6 3.04829,39.69132,97.1 3.04814,39.69086,95.8 3.04807,39.69072,95.8 3.04797,39.69058,95.7 3.04786,39.69045,95.6 3.04774,39.69036,95.5 3.04738,39.69014,95.0 3.04725,39.69003,95.0 3.04711,39.68986,94.4 3.047,39.68969,93.7 3.04663,39.68903,92.0 3.04655,39.68892,92.0 3.04634,39.68868,92.3 3.04595,39.68827,94.3 3.04556,39.68786,98.4 3.04522,39.6876,100.4 3.04483,39.68731,104.3 3.0448,39.68727,104.9 3.04459,39.68681,110.6 3.0442,39.6861,115.9 3.04381,39.68539,121.5 3.04342,39.68468,123.2 3.04338,39.68457,123.3 3.04338,39.68444,123.6 3.04342,39.68377,128.3 3.04342,39.68366,129.3 3.0434,39.68353,130.4 3.04322,39.68288,131.3 3.04316,39.68254,131.0 3.04314,39.68236,130.3 3.04307,39.68218,129.0 3.04282,39.6817,124.0 3.04245,39.68105,118.9 3.04235,39.68093,118.0 3.04197,39.68053,114.8 3.04185,39.68037,113.8 3.04162,39.67986,112.3 3.04148,39.67944,113.0 3.04135,39.67893,113.2 3.04112,39.67833,112.7 3.04083,39.6778,112.6 3.04053,39.67728,114.0 3.04034,39.67704,115.0 3.04018,39.67689,115.8 3.03955,39.67629,117.3 3.03928,39.67602,117.8 3.03897,39.67562,118.0 3.03868,39.67527,118.3 3.03862,39.67514,118.4 3.0386,39.67502,118.4 3.03856,39.67436,116.4 3.03851,39.6737,116.0 3.03847,39.67305,116.6 3.03845,39.67284,116.9 3.03841,39.67271,117.0 3.03813,39.67223,117.3 3.03788,39.67175,116.7 3.03773,39.67151,116.4 3.03741,39.67113,117.6 3.03708,39.6707,119.7 3.03691,39.67039,122.0 3.03685,39.6703,122.6 3.03676,39.67024,123.0 3.03597,39.66986,122.4 3.03567,39.66976,121.1 3.03553,39.66969,120.5 3.03546,39.66964,120.3 3.0354,39.66958,120.2 3.0352,39.66922,120.2 3.03487,39.66869,118.1 3.03433,39.6679,116.2 3.03393,39.66738,116.3 3.03354,39.66686,114.9 3.03341,39.66663,114.5 3.03336,39.6665,114.5 3.03333,39.66637,114.7 3.03315,39.6655,117.1 3.03296,39.66464,120.3 3.03278,39.66378,124.2 3.03259,39.66291,128.8 3.03249,39.66248,131.1 3.03245,39.66235,132.1 3.0324,39.66223,132.8 3.03226,39.66203,133.6 3.03192,39.66161,134.5 3.03185,39.66149,134.8 3.03171,39.6612,135.7 3.03166,39.66107,136.2 3.03164,39.66093,137.0 3.03164,39.66074,136.8 3.03163,39.66065,135.9 3.03159,39.66057,134.8 3.03114,39.65998,127.5 3.03069,39.65938,126.9 3.03023,39.6588,126.6 3.02978,39.65822,127.5 3.0295,39.65793,127.4 3.02909,39.65757,127.7 3.02881,39.65738,128.5 3.02808,39.65696,132.5 3.02736,39.65653,136.6 3.0269,39.65624,140.0 3.02645,39.65596,142.4 3.0262,39.65581,143.7 3.02593,39.65568,144.7 3.02556,39.65555,144.7 3.02484,39.65528,145.0 3.02466,39.65518,146.0 3.02446,39.65504,147.6 3.02419,39.65477,149.5 3.02403,39.65464,149.8 3.02362,39.65438,150.3 3.02308,39.6539,149.0 3.0229,39.65378,148.0 3.0227,39.65366,146.9 3.02225,39.65346,145.6 3.02178,39.65326,145.1 3.02117,39.65297,145.3 3.021,39.65289,145.4 3.02068,39.65266,144.9 3.02011,39.65219,142.8 3.0199,39.65196,142.1 3.0197,39.6517,141.3 3.01925,39.65102,139.3 3.01879,39.65034,137.2 3.01834,39.64966,136.2 3.01803,39.64903,138.2 3.01784,39.64862,139.6 3.01765,39.64824,140.7 3.01758,39.64804,141.2 3.01755,39.64782,141.9 3.01748,39.6476,142.6 3.01696,39.64736,141.7 3.0167,39.64734,140.9 3.01662,39.64735,140.8 3.01654,39.64736,140.8 3.01645,39.64733,140.7 3.0164,39.64729,140.6 3.01636,39.64724,140.5 3.01634,39.64718,140.3 3.01635,39.64712,140.2 3.01638,39.64706,140.1 3.01585,39.64682,138.6 3.01531,39.64652,136.9 3.01516,39.64642,135.9 3.01484,39.64624,133.7 3.01478,39.64619,133.2 3.01423,39.64589,130.4 3.01397,39.64577,129.2 3.01369,39.64564,128.4 3.01353,39.64558,128.2 3.01337,39.64551,128.2 3.01326,39.64556,128.3 3.01282,39.6458,129.0 3.0125,39.64574,130.6 3.01229,39.64567,130.8 3.01214,39.6455,131.7 3.01188,39.64517,133.8 3.01174,39.64504,134.7 3.01153,39.64487,135.0 3.01135,39.64476,134.9 3.01119,39.64468,134.7 3.01077,39.64448,134.6 3.0105,39.64433,135.1 3.01041,39.64426,135.6 3.01026,39.6441,136.8 3.01001,39.64428,134.7 3.00953,39.64425,130.7 3.00929,39.644,131.1 3.00891,39.64416,126.8 3.00864,39.64431,124.5 3.00801,39.64483,120.2 3.00758,39.6452,119.2 3.00683,39.64578,117.1 3.00674,39.64584,117.0 3.00643,39.64603,116.4 3.00579,39.64641,115.0 3.00564,39.64648,114.9 3.00527,39.64675,114.8 3.00467,39.64726,112.9 3.00432,39.64764,111.1 3.00418,39.64783,110.2 3.00388,39.64823,108.9 3.00358,39.64863,109.7 3.00327,39.64907,111.5 3.00287,39.64966,111.1 3.00247,39.65025,110.1 3.00207,39.65083,111.5 3.00174,39.65138,114.6 3.00145,39.65194,117.2 3.00115,39.6525,119.5 3.00096,39.65296,122.3 3.00077,39.65341,124.6 3.00061,39.65375,123.0 3.00044,39.65401,122.6 3.00027,39.65424,122.8 3.00027,39.65442,121.2 3.00039,39.65451,119.5 2.99995,39.65475,120.0 2.99937,39.65522,119.2 2.99873,39.65589,115.8 2.99807,39.65653,115.1 2.99751,39.65695,114.6 2.99708,39.65719,112.2 2.99636,39.65751,109.2 2.99531,39.65789,102.8 2.99426,39.65827,99.3 2.99321,39.65865,96.7 2.99215,39.65903,97.8 2.99148,39.65927,98.6 2.99075,39.65944,98.5 2.98999,39.65963,100.5 2.98923,39.65982,99.6 2.98831,39.66015,96.8 2.98738,39.66048,95.4 2.98643,39.66082,93.5 2.98549,39.66116,89.4 2.9845,39.66151,86.8 2.98351,39.66187,85.9 2.98252,39.66223,84.0 2.98153,39.66259,80.1 2.98054,39.66295,79.8 2.97956,39.6633,79.2 2.97857,39.66366,81.6 2.97757,39.66402,83.0 2.97658,39.66438,83.8 2.97559,39.66474,81.6 2.97459,39.6651,78.1 2.9736,39.66547,75.7 2.9726,39.66583,78.5 2.97163,39.66619,83.3 2.97066,39.66655,81.9 2.96977,39.66686,84.1 2.96889,39.66717,87.7 2.96804,39.66748,90.4 2.96718,39.66779,90.9 2.9666,39.668,90.9 2.96642,39.66809,91.1 2.96638,39.66811,91.1 2.96635,39.66815,91.1 2.96633,39.66821,91.0 2.96631,39.66823,91.1 2.96626,39.66827,91.1 2.96615,39.66828,91.3 2.96607,39.66825,91.6 2.96605,39.66824,91.6 2.96596,39.66824,91.8 2.96591,39.66825,91.9 2.965,39.66858,93.0 2.9641,39.6689,90.8 2.9632,39.66923,87.7 2.9623,39.66956,85.7 2.96209,39.66965,85.5 2.9613,39.67009,85.1 2.9605,39.67052,85.9 2.9597,39.67096,85.8 2.95905,39.6716,83.9 2.9584,39.67225,80.1 2.95775,39.6729,75.8 2.9571,39.67355,71.8 2.95645,39.6742,69.2 2.9558,39.67485,66.9 2.95529,39.67536,65.1 2.95478,39.67588,64.2 2.95428,39.6764,65.0 2.95359,39.67706,64.0 2.95291,39.67772,64.0 2.9522,39.67843,67.1 2.9515,39.67913,71.3 2.95079,39.67983,75.5 2.95008,39.68054,75.8 2.94938,39.68125,73.1 2.94867,39.68195,74.1 2.94796,39.68265,74.6 2.94726,39.68336,75.3 2.94655,39.68407,72.6 2.94585,39.68477,69.0 2.94514,39.68547,71.9 2.94443,39.68618,73.7 2.94373,39.68689,74.2 2.94302,39.68759,76.7 2.94225,39.68818,78.9 2.94149,39.68877,79.8 2.94072,39.68937,83.7 2.93995,39.68996,84.7 2.93918,39.69055,84.3 2.93842,39.69114,86.3 2.93765,39.69173,88.0 2.93688,39.69233,90.3 2.93612,39.69292,91.2 2.93535,39.69351,91.3 2.93498,39.69386,90.4 2.93457,39.69438,89.7 2.93442,39.6946,89.5 2.93436,39.69472,89.3 2.93433,39.69484,89.2 2.93436,39.69487,89.2 2.93439,39.69495,89.1 2.93438,39.69502,89.0 2.93435,39.69506,88.9 2.93432,39.69509,88.8 2.93425,39.69512,88.7 2.93418,39.69513,88.7 2.93413,39.69513,88.7 2.93403,39.69518,88.6 2.93395,39.69524,88.6 2.9338,39.69541,88.4 2.9335,39.69606,87.8 2.93321,39.69671,86.3 2.93291,39.69736,86.6 2.93261,39.698,87.5 2.93224,39.69881,87.4 2.93187,39.69961,88.2 2.93149,39.70041,90.2 2.93112,39.70122,90.8 2.93074,39.70185,91.3 2.93038,39.70239,91.7 2.93003,39.70295,91.6 2.92969,39.70351,91.8 2.92947,39.7041,92.0 2.92935,39.70461,92.2 2.92922,39.70512,92.4 2.92907,39.70557,92.6 2.92884,39.70605,92.8 2.92837,39.70672,93.1 2.92789,39.70739,93.8 2.92742,39.70806,94.6 2.92694,39.70873,94.2 2.92647,39.7094,94.8 2.926,39.71007,96.7 2.9256,39.71064,96.4 2.92521,39.71121,98.4 2.92481,39.71163,101.1 2.92453,39.71189,101.3 2.92421,39.71214,101.4 2.92348,39.7127,101.3 2.92275,39.71326,97.5 2.92265,39.71336,96.9 2.92261,39.71341,96.8 2.9226,39.71347,96.7 2.92262,39.71358,96.4 2.92265,39.71369,96.1 2.92265,39.71379,95.9 2.92264,39.71384,95.8 2.9226,39.71392,95.9 2.92255,39.71398,96.1 2.92248,39.71404,96.3 2.92198,39.7145,97.5 2.92185,39.71458,97.8 2.92173,39.71463,98.1 2.92155,39.71465,98.4 2.92145,39.71464,98.5 2.92116,39.71457,98.6 2.92106,39.71457,98.7 2.92096,39.71458,98.8 2.9207,39.71465,99.2 2.92016,39.71481,99.6 2.91972,39.71495,100.6 2.91966,39.71498,100.7 2.91956,39.71509,101.1 2.91953,39.71515,101.2 2.9195,39.71518,101.4 2.91941,39.71523,101.7 2.91936,39.71524,101.9 2.91928,39.71523,102.3 2.91919,39.7152,102.7 2.91907,39.71519,103.2 2.91899,39.71519,103.5 2.91891,39.7152,103.8 2.91793,39.71549,105.6 2.91695,39.71579,107.8 2.91626,39.71604,110.0 2.91558,39.71628,111.4 2.91545,39.71637,111.6 2.9154,39.71643,111.7 2.91538,39.71649,111.7 2.91532,39.71655,111.9 2.91527,39.71657,112.0 2.9152,39.71658,112.3 2.9151,39.71655,112.6 2.91499,39.71658,112.9 2.91486,39.71664,113.5 2.9144,39.71681,115.0 2.91469,39.71728,113.4 2.91401,39.71754,115.5 2.91343,39.718,116.9 2.91291,39.71839,116.8 2.91339,39.71862,118.0 2.91281,39.71902,119.9 2.91228,39.71932,121.3 2.91182,39.71956,122.2 2.91125,39.71992,124.6 2.91105,39.72004,125.5 2.91136,39.72034,124.6 2.91122,39.72055,125.1 2.91132,39.72067,124.7 2.91133,39.72071,124.6 2.91144,39.72083,124.1 2.91198,39.72122,123.1 2.91209,39.72126,123.0 2.91203,39.72136,123.2 2.91205,39.72146,123.3 2.91217,39.72153,123.2 2.91262,39.72172,121.8 2.91263,39.72171,121.8 2.91247,39.72164,123.0 2.91241,39.72162,123.1 2.91241,39.72162,123.1 2.91225,39.72185,122.1 2.91225,39.72185,122.1 2.91201,39.72176,123.0 2.91178,39.72167,123.8 2.91157,39.72161,124.2 2.91157,39.72161,124.2 2.91151,39.72153,124.3 2.91143,39.72149,124.5 2.91143,39.72149,124.5 2.91126,39.72145,125.0 2.91094,39.72137,126.0 2.91075,39.72132,126.9 2.91052,39.72126,128.4 2.9105,39.72125,128.5 2.91027,39.72116,130.0 2.90993,39.72102,131.8 2.90993,39.72102,131.8 2.9098,39.72094,131.9 2.9098,39.72094,131.9 2.90976,39.72097,131.9 2.90973,39.721,131.9 2.90973,39.721,131.9 2.90953,39.72091,132.0 2.90952,39.7209,132.0 2.90951,39.7209,132.0 2.90941,39.72085,132.0 2.90921,39.72077,131.4 2.9092,39.72076,131.3 2.90902,39.72068,130.0 2.90901,39.72068,130.0 2.909,39.72067,129.8 2.90897,39.72066,129.6 2.90897,39.72066,129.6 2.90889,39.72059,128.8 2.90859,39.72038,126.8 2.90842,39.72026,126.0 2.90807,39.72002,124.7 2.90781,39.71984,124.1 2.90773,39.71978,124.0 2.90757,39.71967,124.0 2.90742,39.71953,124.0 2.90731,39.71942,124.1 2.90723,39.71933,124.2 2.90713,39.7192,124.4 2.90702,39.71904,125.0 2.9069,39.71888,125.8 2.90682,39.71876,126.5 2.90679,39.71872,126.8 2.90668,39.71857,127.8 2.9064,39.71816,128.4 2.9064,39.71816,128.4 2.90667,39.71805,128.0 2.90687,39.71796,127.0 2.90708,39.71788,126.2 2.90708,39.71788,126.2 2.90688,39.71755,125.9 2.90688,39.71755,125.9 2.90624,39.71781,127.4 2.90603,39.71789,127.8 2.90582,39.71796,128.1 2.9056,39.71804,128.3 2.90497,39.71825,128.2 2.90405,39.7186,129.6 2.90386,39.71868,129.8 2.90376,39.71874,129.8 2.90376,39.71874,129.8 2.9036,39.7188,129.9 2.9031,39.71899,129.7 2.90271,39.71913,129.7 2.90269,39.71913,129.8 2.90222,39.71927,130.2 2.90205,39.71931,130.4 2.90157,39.7194,130.6 2.90135,39.71943,130.3 2.90102,39.71946,129.9 2.90057,39.71948,129.7 2.90013,39.71948,129.9 2.89978,39.71948,130.3 2.89824,39.71948,132.2 2.89824,39.71948,132.2 2.89823,39.71924,132.7 2.89822,39.71875,131.9 2.89822,39.71843,131.2 2.89819,39.71795,129.7 2.89819,39.71777,129.1 2.89819,39.71749,128.1 2.89819,39.71749,128.1 2.89791,39.71749,128.5 2.8972,39.71749,128.6 2.8972,39.71749,128.6 2.8972,39.7176,128.8 2.8972,39.7176,128.8 2.89714,39.71759,128.7 2.89709,39.71758,128.7 2.89697,39.71758,128.5 2.8969,39.71757,128.4 2.89681,39.71757,128.3 2.89673,39.71758,128.2 2.89661,39.71759,128.1 2.89661,39.71759,128.1 2.89623,39.71723,127.9 2.89603,39.71702,128.2 2.89586,39.71685,128.7 2.89557,39.71647,128.6 2.89552,39.71642,128.5 2.89539,39.71627,128.2 2.89534,39.71622,128.1 2.89525,39.71613,128.1 2.89512,39.71603,128.2 2.89502,39.71595,128.3 2.89484,39.71582,128.5 2.89475,39.71575,128.7 2.89473,39.71572,128.7 2.89472,39.71569,128.6 2.89472,39.71565,128.5 2.89479,39.71525,127.2 2.89481,39.7152,127.0 2.89482,39.71514,126.8 2.89482,39.71514,126.8 2.8948,39.71513,126.8 2.89447,39.71499,127.3 2.89426,39.71489,127.9 2.89387,39.71467,128.8 2.8937,39.71458,129.1 2.89334,39.71438,129.3 2.89316,39.71428,128.7 2.89315,39.71427,128.7 2.89273,39.71401,127.6 2.89261,39.71393,127.3 2.89243,39.71381,126.9 2.89232,39.71375,126.8 2.89225,39.71369,126.7 2.89223,39.71367,126.7 2.89222,39.71364,126.7 2.89222,39.71361,126.7 2.89222,39.71357,126.7 2.89222,39.71355,126.7 2.89223,39.71353,126.7 2.89223,39.71352,126.7 2.89223,39.7135,126.7 2.89222,39.71349,126.7 2.89221,39.71348,126.7 2.89203,39.71338,126.4 2.89201,39.71337,126.4 2.89198,39.71336,126.4 2.89196,39.71335,126.4 2.89194,39.71335,126.3 2.89193,39.71335,126.3 2.89193,39.71335,126.3 2.89192,39.71336,126.3 2.8919,39.71336,126.3 2.89189,39.71337,126.3 2.89184,39.71342,126.2 2.89168,39.71363,126.0 2.89159,39.71375,126.0 2.89128,39.71415,126.0 2.89112,39.71437,125.8 2.89095,39.71457,125.5 2.89062,39.71497,125.3 2.89049,39.71513,125.9 2.89018,39.7155,127.6 2.88974,39.71604,130.0 2.88913,39.71681,132.0 2.88913,39.71681,132.0 2.889,39.71679,131.8 2.88871,39.71672,131.5 2.8886,39.7167,131.3 2.88852,39.71669,131.2 2.88848,39.71669,131.2 2.88846,39.71669,131.2 2.88839,39.71669,131.1 2.88834,39.71671,131.1 2.88805,39.71682,131.8 2.88788,39.71688,132.2 2.88787,39.71688,132.2 2.88784,39.71689,132.3 2.88778,39.71691,132.4 2.88772,39.71692,132.6 2.88764,39.71692,132.7 2.88755,39.71691,132.9 2.88723,39.71682,133.7 2.88691,39.71672,134.5 2.88684,39.71669,134.6 2.88678,39.71668,134.7 2.88676,39.71667,134.8 2.88668,39.71666,134.9 2.8866,39.71665,135.1 2.8863,39.71667,135.9 2.88617,39.71668,136.2 2.88596,39.71669,136.7 2.88588,39.7167,137.0 2.88575,39.71671,137.1 2.8856,39.71672,137.1 2.88552,39.71673,137.2 2.88546,39.71674,137.2 2.88508,39.71679,137.4 2.885,39.71681,137.5 2.88492,39.71682,137.5 2.88485,39.71683,137.4 2.88456,39.71687,137.2 2.88442,39.7169,137.1 2.88402,39.717,137.0 2.88391,39.71704,136.9 2.88384,39.71706,136.8 2.88378,39.71706,136.7 2.8837,39.71705,136.6 2.88344,39.717,136.0 2.88337,39.71698,135.8 2.8833,39.71697,135.8 2.88327,39.71698,135.9 2.88326,39.71698,135.9 2.88322,39.71698,136.0 2.88319,39.717,136.1 2.88307,39.71706,136.4 2.88273,39.71725,137.3 2.88247,39.71736,137.8 2.88228,39.71744,137.9 2.8822,39.71746,138.0 2.88215,39.71748,138.0 2.8821,39.71748,138.0 2.88206,39.71748,138.0 2.88206,39.71748,138.0 2.88202,39.71748,138.0 2.8819,39.71745,137.9 2.88155,39.71739,137.7 2.88096,39.71728,137.1 2.88064,39.71726,137.1 2.88034,39.71724,137.2 2.88026,39.71724,137.3 2.87979,39.71725,137.6 2.87975,39.71726,137.6 2.8797,39.71725,137.7 2.87964,39.71725,137.7 2.8796,39.71724,137.7 2.87957,39.71723,137.7 2.87949,39.7172,137.7 2.87947,39.7172,137.7 2.87926,39.71713,137.6 2.87871,39.71691,136.6 2.87857,39.71688,136.4 2.87842,39.71687,136.3 2.87841,39.71687,136.3 2.87825,39.71687,136.5 2.87806,39.71687,137.2 2.87795,39.71687,137.6 2.87784,39.71686,138.0 2.87772,39.71686,138.4 2.87764,39.71686,138.7 2.87759,39.71686,138.9 2.87737,39.71687,139.6 2.87684,39.71693,140.9 2.8762,39.717,141.6 2.87583,39.71704,141.9 2.87573,39.71705,141.9 2.87572,39.71706,141.9 2.87495,39.71714,142.2 2.87462,39.71717,143.0 2.87417,39.71721,144.0 2.87378,39.71725,144.3 2.87322,39.71731,144.8 2.87322,39.71731,144.8 2.87299,39.71736,144.8 2.87298,39.71736,144.8 2.87285,39.71737,144.8 2.87229,39.71742,144.6 2.87211,39.71743,144.6 2.87206,39.71744,144.6 2.87193,39.71745,144.6 2.87191,39.71745,144.6 2.8717,39.71745,144.5 2.87167,39.71745,144.5 2.87155,39.71744,144.5 2.8714,39.71741,144.5 2.8709,39.71731,145.0 2.8707,39.71727,144.9 2.87067,39.71727,144.9 2.87065,39.71727,144.9 2.87061,39.71726,144.8 2.87057,39.71727,144.9 2.87054,39.71728,144.9 2.87047,39.71733,145.2 2.87047,39.71733,145.2 2.87038,39.71725,144.8 2.86965,39.7168,143.0 2.86915,39.71653,142.5 2.86902,39.71645,142.3 2.86871,39.71625,142.0 2.86842,39.71599,142.0 2.86782,39.71554,141.1 2.86742,39.71523,140.1 2.86688,39.71485,138.5 2.86649,39.71454,136.2 2.86639,39.71447,135.6 2.86596,39.71413,133.8 2.86567,39.7139,134.0 2.8656,39.71385,134.1 2.86502,39.71341,134.2 2.86497,39.71337,134.1 2.8647,39.71314,133.9 2.8644,39.7129,134.2 2.86426,39.71279,134.5 2.86407,39.71264,134.9 2.86406,39.71263,134.9 2.86379,39.71242,134.9 2.86369,39.71234,134.8 2.86366,39.71231,134.8 2.86361,39.71227,134.7 2.86352,39.7122,134.6 2.86339,39.71212,134.5 2.86326,39.71205,134.5 2.86321,39.71203,134.4 2.86301,39.71193,134.3 2.86284,39.71184,134.2 2.86276,39.71179,134.1 2.8627,39.71176,134.1 2.86246,39.71163,134.0 2.86224,39.71149,134.0 2.86223,39.71148,134.0 2.8622,39.71147,134.0 2.8622,39.71146,134.0 2.86203,39.71135,134.0 2.86184,39.71122,134.0 2.86179,39.71119,134.0 2.86176,39.71118,134.0 2.8617,39.71114,134.0 2.86166,39.71111,134.0 2.86163,39.71109,134.0 2.86151,39.71099,134.1 2.8615,39.71098,134.1 2.86148,39.71096,134.2 2.86132,39.7108,134.4 2.86132,39.7108,134.4 2.86131,39.7108,134.5 2.86129,39.71081,134.5 2.86128,39.71082,134.5 2.86126,39.71082,134.5 2.86125,39.71082,134.5 2.86123,39.71083,134.5 2.86122,39.71083,134.5 2.8612,39.71083,134.6 2.86119,39.71083,134.6 2.86117,39.71083,134.6 2.86115,39.71083,134.6 2.86114,39.71083,134.6 2.86112,39.71082,134.7 2.86111,39.71082,134.7 2.86109,39.71081,134.7 2.86108,39.71081,134.7 2.86107,39.7108,134.7 2.86105,39.71079,134.8 2.86104,39.71079,134.8 2.86103,39.71078,134.8 2.86101,39.71076,134.8 2.86101,39.71075,134.8 2.861,39.71074,134.8 2.86099,39.71073,134.8 2.86099,39.71072,134.8 2.86098,39.71071,134.8 2.86098,39.7107,134.9 2.86097,39.71068,134.9 2.86097,39.71067,134.9 2.86097,39.71066,134.9 2.86097,39.71065,134.9 2.86098,39.71064,134.9 2.86098,39.71062,134.9 2.86098,39.71061,134.9 2.86099,39.7106,134.9 2.861,39.71059,134.9 2.86101,39.71058,134.9 2.86101,39.71057,134.9 2.86102,39.71056,134.8 2.86103,39.71055,134.8 2.86105,39.71054,134.8 2.86106,39.71053,134.8 2.86107,39.71053,134.8 2.86108,39.71052,134.8 2.8611,39.71052,134.8 2.86111,39.71051,134.8 2.86113,39.71051,134.8 2.86103,39.71034,134.9 2.86101,39.7103,134.9 2.86099,39.71028,134.9 2.86097,39.71025,135.0 2.86089,39.71012,135.0 2.86084,39.71004,135.0 2.86075,39.70993,134.8 2.86072,39.7099,134.8 2.8607,39.70987,134.7 2.86063,39.70978,134.5 2.8606,39.70975,134.5 2.86057,39.70972,134.4 2.86052,39.70966,134.3 2.86052,39.70965,134.3 2.86017,39.70929,134.0 2.85998,39.70911,133.9 2.85997,39.70911,133.9 2.85975,39.70892,133.7 2.85957,39.70879,133.5 2.85907,39.70839,133.0 2.85895,39.70829,132.7 2.85848,39.70791,131.6 2.85829,39.70778,131.4 2.85782,39.70745,131.5 2.85748,39.70724,131.4 2.85746,39.70723,131.4 2.85745,39.70722,131.4 2.85736,39.70714,131.2 2.85731,39.70709,131.1 2.85716,39.70695,130.8 2.85672,39.70654,130.1 2.85657,39.7064,130.3 2.85632,39.70616,130.6 2.85585,39.70569,131.0 2.85526,39.70511,131.2 2.85509,39.70494,130.9 2.85502,39.70488,130.9 2.85489,39.70474,130.8 2.85482,39.70464,130.7 2.8547,39.70449,130.5 2.8547,39.70448,130.5 2.85446,39.70411,130.0 2.85441,39.704,130.0 2.8544,39.704,130.0 2.85436,39.70395,130.0 2.85432,39.7039,130.0 2.85361,39.70329,130.0 2.85346,39.70316,130.2 2.8533,39.70302,130.4 2.85326,39.70299,130.5 2.85269,39.70248,131.8 2.85268,39.70247,131.8 2.85204,39.70194,132.2 2.8519,39.70182,132.1 2.85142,39.7014,132.3 2.85096,39.701,132.8 2.85055,39.70064,133.0 2.84984,39.70003,133.4 2.84968,39.69989,133.9 2.84939,39.69964,134.7 2.84843,39.69882,134.9 2.84842,39.69881,134.9 2.84821,39.6986,135.5 2.84812,39.69853,135.8 2.84795,39.69838,136.3 2.84784,39.69829,136.7 2.84774,39.69821,137.0 2.84772,39.69819,137.0 2.8477,39.69818,137.1 2.84763,39.69815,137.2 2.84757,39.69812,137.4 2.84742,39.69806,137.6 2.84736,39.69804,137.6 2.8469,39.69787,137.3 2.84679,39.69783,137.2 2.84657,39.69776,137.1 2.84638,39.69766,137.1 2.8463,39.69762,137.1 2.84613,39.69754,137.1 2.84601,39.6975,137.0 2.84586,39.69746,137.0 2.8458,39.69743,137.2 2.84577,39.69742,137.3 2.84565,39.69737,137.7 2.84558,39.69731,137.9 2.84553,39.69723,138.1 2.8455,39.69717,138.1 2.84548,39.69714,138.2 2.84544,39.69698,138.2 2.84544,39.69698,138.2 2.84536,39.69695,138.2 2.84527,39.69693,138.3 2.84522,39.6969,138.3 2.84503,39.69676,138.2 2.84484,39.6966,137.9 2.84475,39.6965,137.7 2.84468,39.69643,137.7 2.84467,39.69643,137.7 2.84465,39.69641,137.6 2.84458,39.69639,137.7 2.8445,39.69635,137.7 2.84428,39.69627,137.9 2.84427,39.69627,137.9 2.84415,39.69623,138.0 2.84414,39.69623,138.0 2.84405,39.6962,138.0 2.84404,39.6962,138.0 2.84389,39.69615,137.9 2.84383,39.69612,137.9 2.84363,39.69603,137.7 2.84351,39.69597,137.5 2.84345,39.69593,137.3 2.84342,39.69592,137.3 2.84335,39.69587,137.1 2.84318,39.69574,136.9 2.84302,39.69562,136.9 2.84301,39.69561,136.9 2.84297,39.69558,136.9 2.84294,39.69556,137.0 2.8429,39.69553,137.0 2.84283,39.69548,137.1 2.84278,39.69543,137.2 2.84277,39.69542,137.2 2.84267,39.69535,137.4 2.84251,39.69522,138.0 2.84246,39.69518,138.1 2.84239,39.69513,138.2 2.84238,39.69512,138.2 2.84235,39.69509,138.2 2.84223,39.69496,138.3 2.84213,39.69486,138.4 2.84205,39.69479,138.4 2.84194,39.69471,138.6 2.84191,39.69469,138.6 2.84164,39.6945,139.0 2.84159,39.69447,139.1 2.8412,39.69424,139.6 2.84099,39.69412,139.8 2.84083,39.69403,140.0 2.84074,39.69398,140.2 2.84065,39.69394,140.5 2.84065,39.69394,140.5 2.84067,39.69392,140.4 2.8407,39.69388,140.4 2.84084,39.69375,140.0 2.84114,39.69352,139.9 2.84121,39.69346,139.9 2.84129,39.6934,140.0 2.8413,39.69339,140.0 2.84133,39.69336,140.0 2.84154,39.6932,140.3 2.84162,39.69313,140.5 2.84176,39.69302,140.7 2.84198,39.6928,141.1 2.84198,39.6928,141.1 2.8419,39.69274,141.3 2.8418,39.69268,141.5 2.84169,39.69259,141.8 2.84152,39.69247,141.8 2.84147,39.69243,141.8 2.84141,39.69239,141.7 2.84139,39.69237,141.7 2.84137,39.69235,141.6 2.84138,39.69233,141.7 2.84138,39.69232,141.7 2.84141,39.69228,141.7 2.84143,39.69226,141.7 2.84144,39.69224,141.7 2.84145,39.69223,141.7 2.84148,39.69217,141.8 2.84148,39.69217,141.8 2.84138,39.69208,141.7 2.84122,39.692,141.5 2.84031,39.69144,140.8 2.83964,39.691,141.3 2.8396,39.69098,141.3 2.83959,39.69097,141.3 2.83958,39.69096,141.3 2.83957,39.69094,141.4 2.83957,39.69094,141.4 2.83957,39.69093,141.4 2.83957,39.69091,141.4 2.83957,39.6909,141.4 2.83958,39.69088,141.4 2.8396,39.69086,141.5 2.83979,39.69067,141.8 2.84006,39.69041,141.9 2.84008,39.69039,141.9 2.84021,39.69027,141.7 2.84064,39.68984,140.4 2.84126,39.68925,139.6 2.84147,39.68903,139.2 2.84147,39.68903,139.2 2.84174,39.68871,138.8 2.84177,39.68867,138.7 2.84198,39.68844,137.9 2.84211,39.6883,137.3 2.84211,39.6883,137.3 2.8421,39.68828,137.3 2.84209,39.68827,137.2 2.84206,39.68825,137.3 2.842,39.68822,137.4 2.84172,39.68804,137.4 2.84167,39.68801,137.4 2.8415,39.68794,137.3 2.84135,39.68789,137.3 2.84119,39.68783,137.3 2.84119,39.68783,137.3 2.8412,39.68776,137.0 2.8412,39.68772,136.9 2.8412,39.68772,136.9 2.84118,39.6877,136.8 2.84115,39.68769,136.9 2.84101,39.68759,136.8 2.84083,39.68747,136.9 2.84047,39.68724,136.9 2.84002,39.68694,137.3 2.84002,39.68694,137.3 2.83974,39.68677,137.2 2.8395,39.68673,137.1 2.83936,39.6867,137.1 2.83928,39.68667,137.0 2.83923,39.68665,137.0 2.83918,39.6866,136.9 2.83908,39.68651,136.8 2.83891,39.68634,136.6 2.83877,39.6862,136.4 2.83877,39.6862,136.4 2.83847,39.68593,136.1 2.83837,39.68584,136.0 2.83811,39.68562,135.8 2.83805,39.68558,135.8 2.83796,39.68552,135.8 2.83753,39.68524,136.0 2.83718,39.68501,135.6 2.83703,39.68491,135.7 2.83651,39.68463,136.2 2.83627,39.68452,136.8 2.83584,39.68431,137.8 2.83489,39.68394,139.4 2.83436,39.68379,139.0 2.83426,39.68375,139.0 2.83411,39.68368,138.9 2.83402,39.68363,138.8 2.83378,39.68344,138.2 2.83343,39.68316,137.6 2.83327,39.68302,137.9 2.83323,39.68299,138.0 2.83313,39.68289,138.4 2.83312,39.68289,138.4 2.83309,39.68285,138.6 2.83306,39.68281,138.7 2.83287,39.68257,139.4 2.83273,39.68239,139.5 2.83265,39.68225,139.2 2.83256,39.68208,138.9 2.83255,39.68206,138.9 2.83247,39.68192,138.7 2.83241,39.68181,138.6 2.83236,39.68173,138.5 2.83229,39.68159,138.6 2.83218,39.68141,139.1 2.8321,39.68132,139.4 2.83203,39.68126,139.6 2.83196,39.68121,139.7 2.83161,39.68097,140.1 2.83115,39.68067,141.5 2.83082,39.68046,142.4 2.83036,39.68016,142.3 2.82992,39.67987,142.7 2.82944,39.67956,143.4 2.82923,39.67943,143.1 2.82909,39.67933,143.0 2.82902,39.67925,142.9 2.82895,39.67917,142.7 2.8289,39.6791,142.6 2.82881,39.67898,142.3 2.82871,39.67882,142.1 2.82856,39.67859,141.9 2.82843,39.67838,141.9 2.82833,39.67822,142.1 2.82829,39.67815,142.2 2.82823,39.67805,142.3 2.82817,39.67792,142.4 2.82808,39.67771,142.5 2.82799,39.67744,142.6 2.82791,39.67719,142.9 2.82781,39.67685,143.4 2.82777,39.67672,143.6 2.82773,39.67649,143.5 2.82769,39.67632,143.3 2.82767,39.67623,143.2 2.82767,39.6762,143.1 2.82765,39.67613,143.1 2.82764,39.67599,142.9 2.82764,39.67592,142.8 2.82762,39.67586,142.7 2.82762,39.67578,142.7 2.82762,39.67571,142.6 2.82762,39.67564,142.6 2.82762,39.67564,142.6 2.82753,39.6755,142.6 2.8275,39.67546,142.6 2.82748,39.67545,142.6 2.82746,39.67543,142.5 2.82743,39.67541,142.5 2.82739,39.67538,142.5 2.82733,39.67534,142.5 2.82728,39.67532,142.5 2.82724,39.67527,142.5 2.82657,39.67495,143.2 2.82654,39.67491,143.2 2.82628,39.67478,143.5 2.82602,39.67465,143.5 2.82578,39.67454,143.5 2.82505,39.67417,143.0 2.82452,39.67391,142.5 2.82388,39.67359,141.7 2.82367,39.67351,141.6 2.82355,39.67346,141.4 2.82346,39.67343,141.3 2.82341,39.67341,141.3 2.8233,39.67338,141.2 2.82327,39.67339,141.3 2.82325,39.67341,141.4 2.82322,39.67342,141.4 2.82319,39.67343,141.5 2.82316,39.67343,141.5 2.82312,39.67344,141.6 2.82309,39.67344,141.6 2.82306,39.67344,141.7 2.82305,39.67344,141.7 2.82304,39.67344,141.7 2.82303,39.67344,141.7 2.82302,39.67344,141.7 2.82301,39.67344,141.7 2.823,39.67343,141.7 2.82299,39.67343,141.7 2.82298,39.67343,141.7 2.82296,39.67342,141.7 2.82295,39.67342,141.7 2.82293,39.67341,141.7 2.82291,39.6734,141.7 2.82289,39.6734,141.7 2.82288,39.67339,141.7 2.82286,39.67338,141.7 2.82285,39.67337,141.7 2.82283,39.67335,141.7 2.82281,39.67333,141.6 2.8228,39.67331,141.6 2.82279,39.67329,141.6 2.82278,39.67327,141.6 2.82277,39.67325,141.6 2.82276,39.67323,141.6 2.82276,39.67321,141.5 2.82269,39.67313,141.5 2.82264,39.67307,141.4 2.82259,39.67302,141.3 2.82255,39.67299,141.2 2.8225,39.67296,141.1 2.82238,39.6729,141.1 2.82233,39.67285,141.1 2.82217,39.67278,141.2 2.8219,39.67266,141.5 2.82185,39.67264,141.6 2.82156,39.67252,142.3 2.82154,39.6725,142.3 2.82093,39.67224,143.6 2.8207,39.67214,143.5 2.82059,39.67209,143.4 2.81999,39.67183,143.0 2.81953,39.67161,144.1 2.81894,39.67134,145.1 2.81881,39.67128,145.2 2.81843,39.67111,145.6 2.81732,39.67061,146.7 2.81679,39.67035,147.5 2.81671,39.67031,147.6 2.81642,39.67018,148.3 2.81622,39.6701,148.8 2.81585,39.66994,149.7 2.81527,39.66969,149.4 2.81503,39.66957,149.4 2.81466,39.66939,150.5 2.81395,39.6691,152.8 2.81381,39.66904,153.4 2.81365,39.66898,153.9 2.81336,39.6688,154.9 2.81322,39.66871,154.7 2.81313,39.66868,154.5 2.81308,39.66866,154.3 2.81302,39.66863,154.1 2.81297,39.6686,154.0 2.81293,39.66858,153.8 2.81291,39.66857,153.8 2.81288,39.66855,153.7 2.81288,39.66855,153.7 2.81279,39.66851,153.3 2.81273,39.66848,153.1 2.81263,39.66844,152.7 2.81253,39.6684,152.3 2.81253,39.6684,152.3 2.81265,39.66802,151.7 2.81269,39.66791,151.6 2.81276,39.66763,151.0 2.81276,39.66763,151.0 2.81292,39.66766,151.5 2.81309,39.66772,152.1 2.81321,39.66776,152.6 2.81335,39.66782,153.1 2.81343,39.66786,153.3 2.81388,39.66805,153.3 2.81408,39.66814,153.1 2.81408,39.66814,153.1 2.81426,39.66795,152.8 2.81426,39.66795,152.8 2.81439,39.66783,152.6 2.81445,39.66777,152.5 2.8146,39.6676,152.4 2.8148,39.66732,151.2 2.8149,39.66718,150.4 2.81497,39.66708,150.0 2.81521,39.66669,148.1 2.81525,39.66663,147.9 2.81538,39.66641,147.4 2.81544,39.66629,147.1 2.8155,39.66619,147.0 2.81574,39.66572,146.4 2.81578,39.66565,146.2 2.81584,39.66556,146.0 2.81589,39.66549,145.6 2.81589,39.66549,145.6 2.81632,39.66506,143.8 2.81636,39.66503,143.7 2.81638,39.665,143.6 2.81652,39.66487,143.1 2.81659,39.66481,142.8 2.81665,39.66476,142.6 2.8167,39.66471,142.4 2.81683,39.66463,142.0 2.81698,39.66453,141.5 2.81729,39.66428,140.5 2.81745,39.6641,139.8 2.81753,39.66402,139.6 2.81754,39.66401,139.6 2.8177,39.66383,139.5 2.81796,39.66353,139.7 2.81809,39.66339,139.9 2.81811,39.66337,140.0 2.81825,39.66326,140.3 2.81825,39.66325,140.2 2.81827,39.66324,140.3 2.81833,39.6632,140.3 2.81841,39.66316,140.2 2.81854,39.66311,140.0 2.81861,39.66308,139.9 2.81878,39.66302,139.7 2.81883,39.663,139.6 2.81887,39.66299,139.6 2.81897,39.66292,139.4 2.81911,39.66281,139.1 2.81914,39.66277,139.0 2.81938,39.66256,137.7 2.8195,39.66245,137.0 2.81962,39.66235,136.5 2.81974,39.66227,136.1 2.81995,39.66213,135.6 2.81997,39.66211,135.6 2.82015,39.66202,135.4 2.82024,39.66196,135.3 2.8204,39.66191,135.4 2.82044,39.6619,135.4 2.82083,39.66174,135.8 2.82114,39.66162,135.2 2.82137,39.66153,134.5 2.82141,39.66151,134.4 2.82143,39.66149,134.3 2.82144,39.66149,134.3 2.82146,39.66146,134.2 2.82149,39.66141,134.1 2.82163,39.661,133.3 2.82168,39.66087,133.0 2.82168,39.66086,133.0 2.82186,39.66013,131.3 2.82189,39.65997,130.9 2.82193,39.6598,130.5 2.82211,39.65898,128.9 2.82213,39.65889,128.9 2.82216,39.6588,128.8 2.82225,39.65858,128.8 2.82233,39.65839,128.8 2.82241,39.65822,128.7 2.82249,39.65807,128.7 2.82271,39.65762,127.9 2.82289,39.65723,127.2 2.82308,39.65684,126.8 2.82323,39.65651,126.3 2.82334,39.65623,125.4 2.82336,39.65615,125.2 2.82336,39.65615,125.2 2.82326,39.65615,125.1 2.82301,39.65613,124.9 2.82269,39.65609,124.7 2.82266,39.65609,124.7 2.82246,39.65608,124.6 2.82221,39.65605,124.8 2.82221,39.65605,124.8 2.82222,39.65601,124.7 2.82223,39.65596,124.6 2.82224,39.6559,124.4 2.82226,39.65585,124.3 2.82229,39.65578,124.2 2.82243,39.65549,124.0 2.82255,39.65521,124.0 2.82271,39.65486,124.0 2.82282,39.65462,124.2 2.82291,39.65441,124.3 2.82314,39.6539,124.1 2.82335,39.65344,123.2 2.82337,39.65339,123.1 2.82348,39.65316,122.6 2.82365,39.65279,121.7 2.82389,39.65227,120.6 2.82408,39.65184,120.1 2.82421,39.65156,119.9 2.82426,39.65144,119.7 2.82445,39.65103,119.2 2.82447,39.65098,119.2 2.82457,39.65078,119.1 2.82466,39.6506,119.3 2.82468,39.65057,119.3 2.82474,39.65052,119.4 2.82479,39.65049,119.4 2.82483,39.65048,119.4 2.82488,39.65046,119.4 2.82494,39.65046,119.4 2.82506,39.65047,119.4 2.82527,39.65053,119.2 2.82548,39.6506,119.1 2.82568,39.65067,119.0 2.82587,39.65074,119.0 2.82597,39.65077,119.0 2.82602,39.65077,119.0 2.82606,39.65076,119.0 2.8261,39.65075,119.0 2.82614,39.65071,119.0 2.8263,39.65056,119.0 2.82642,39.65043,119.0 2.82646,39.65039,119.0 2.82664,39.65023,119.0 2.82677,39.65008,119.0 2.82679,39.65007,119.0 2.8269,39.64994,119.0 2.82722,39.64948,119.0 2.82745,39.64919,119.0 2.82773,39.64886,118.5 2.82786,39.64872,118.3 2.82792,39.64864,118.2 2.82793,39.64863,118.2 2.8281,39.64844,118.0 2.82823,39.64828,117.9 2.82831,39.64817,117.8 2.82835,39.64812,117.7 2.82845,39.64796,117.4 2.82857,39.64773,117.1 2.82867,39.6475,117.0 2.82871,39.64744,116.9 2.82883,39.64719,116.6 2.82903,39.6468,116.2 2.82904,39.64678,116.1 2.82913,39.64659,115.9 2.82921,39.64646,115.7 2.82928,39.64634,115.5 2.82934,39.64628,115.4 2.82952,39.64606,115.2 2.82953,39.64605,115.1 2.82965,39.64591,115.0 2.82966,39.6459,115.0 2.82982,39.64573,114.8 2.82995,39.64561,114.5 2.8302,39.64538,114.0 2.83035,39.64526,113.9 2.83046,39.64518,113.9 2.83057,39.6451,113.8 2.83087,39.64488,113.8 2.83131,39.64456,113.5 2.83169,39.6443,113.8 2.83193,39.64414,113.9 2.83202,39.64408,113.7 2.83217,39.64395,113.4 2.83227,39.6438,113.0 2.83237,39.64359,112.5 2.83248,39.64335,112.0 2.83249,39.64333,112.0 2.83254,39.64317,111.8 2.83256,39.64311,111.8 2.8326,39.64301,111.7 2.83265,39.64287,111.5 2.83272,39.64272,111.3 2.83274,39.64267,111.3 2.83279,39.64259,111.1 2.83284,39.64251,111.0 2.83289,39.64242,110.9 2.83301,39.64221,110.7 2.83304,39.64217,110.6 2.83313,39.64195,110.3 2.83325,39.64166,110.0 2.83333,39.64145,110.0 2.83335,39.6414,110.0 2.83338,39.64132,110.0 2.83344,39.64114,109.9 2.83349,39.64104,109.9 2.83355,39.64093,109.8 2.83367,39.64076,109.5 2.83377,39.64065,109.4 2.83397,39.64049,109.1 2.83436,39.64021,109.0 2.83451,39.6401,109.0 2.83462,39.64001,109.0 2.83476,39.63989,109.1 2.83485,39.63981,109.1 2.83491,39.63975,109.2 2.83498,39.6397,109.3 2.835,39.63968,109.4 2.83513,39.63956,109.4 2.83524,39.63948,109.4 2.83537,39.63934,109.4 2.83546,39.63926,109.4 2.83555,39.63917,109.3 2.83592,39.6388,110.0 2.83609,39.63861,110.8 2.83613,39.63857,111.0 2.83621,39.63848,111.5 2.83627,39.63842,111.8 2.83637,39.63833,112.3 2.83644,39.63828,112.4 2.83646,39.63827,112.4 2.83653,39.63823,112.6 2.83662,39.63819,112.7 2.83665,39.63817,112.8 2.83669,39.63816,112.8 2.83695,39.63804,112.3 2.83702,39.63801,112.3 2.83719,39.63793,112.2 2.83721,39.63792,112.2 2.83725,39.6379,112.2 2.83743,39.6378,112.3 2.83754,39.63775,112.4 2.8377,39.63765,112.6 2.83778,39.63759,112.7 2.83784,39.63754,112.9 2.83786,39.63753,112.9 2.83794,39.63747,113.0 2.838,39.63742,113.1 2.83807,39.63736,113.2 2.83817,39.63727,113.3 2.83845,39.63701,113.5 2.83872,39.63676,113.8 2.83894,39.63658,114.1 2.839,39.63653,114.2 2.83917,39.63639,114.3 2.8394,39.63618,114.7 2.83954,39.63603,115.1 2.83963,39.63594,115.4 2.83968,39.63589,115.5 2.83983,39.63574,115.8 2.83988,39.63569,115.9 2.84008,39.63552,116.0 2.84018,39.63545,116.0 2.8403,39.63535,116.1 2.8403,39.63535,116.1 2.84028,39.63534,116.1 2.84027,39.63533,116.1 2.84026,39.63532,116.1 2.84025,39.63531,116.1 2.84024,39.6353,116.1 2.84023,39.63529,116.1 2.84023,39.63528,116.1 2.84022,39.63527,116.1 2.84022,39.63526,116.1 2.84021,39.63524,116.1 2.84021,39.63523,116.1 2.84021,39.63522,116.1 2.84021,39.63521,116.1 2.84021,39.6352,116.1 2.84021,39.63519,116.1 2.84022,39.63518,116.1 2.84022,39.63517,116.2 2.84023,39.63516,116.2 2.84023,39.63515,116.2 2.84024,39.63514,116.2 2.84024,39.63513,116.2 2.84025,39.63512,116.2 2.84026,39.63511,116.2 2.84027,39.63511,116.2 2.84028,39.6351,116.3 2.84029,39.63509,116.3 2.8403,39.63508,116.3 2.84032,39.63508,116.3 2.84033,39.63507,116.3 2.84034,39.63507,116.3 2.84036,39.63507,116.4 2.84037,39.63506,116.4 2.84038,39.63506,116.4 2.8404,39.63506,116.4 2.84041,39.63506,116.4 2.84043,39.63506,116.4 2.84044,39.63506,116.5 2.84045,39.63506,116.5 2.84047,39.63507,116.5 2.84048,39.63507,116.5 2.84049,39.63507,116.5 2.84051,39.63508,116.5 2.84062,39.63492,116.7 2.84064,39.63475,116.8 2.84069,39.63448,116.8 2.84069,39.63439,116.8 2.84068,39.63431,116.8 2.84068,39.6343,116.8 2.84067,39.63421,116.8 2.84065,39.63402,116.3 2.84067,39.63398,116.1 2.8407,39.63395,116.1 2.84074,39.63392,116.0 2.8408,39.6339,116.0 2.84087,39.63389,116.0 2.84108,39.63387,115.9 2.84121,39.63385,115.9 2.84126,39.63384,115.8 2.84135,39.63382,115.8 2.84136,39.63381,115.7 2.84154,39.63376,115.5 2.84173,39.63368,115.3 2.8418,39.63367,115.4 2.84198,39.63363,115.5 2.84212,39.63361,115.7 2.84217,39.63359,115.8 2.8422,39.63359,115.9 2.84223,39.63358,115.9 2.84237,39.63353,116.2 2.84242,39.63351,116.4 2.84248,39.63348,116.6 2.84265,39.63341,117.0 2.84267,39.6334,117.0 2.84284,39.63336,117.3 2.84311,39.63332,117.7 2.84332,39.63332,117.9 2.84341,39.63332,117.9 2.84352,39.63333,117.8 2.8436,39.63333,117.7 2.84368,39.63332,117.5 2.84383,39.6333,117.3 2.84394,39.63328,117.0 2.84414,39.63324,116.6 2.84424,39.63322,116.4 2.84442,39.63316,115.9 2.84451,39.63313,115.6 2.84464,39.63309,115.3 2.84472,39.63306,115.0 2.84477,39.63304,114.9 2.84484,39.633,114.6 2.8452,39.63277,113.3 2.84534,39.63267,113.0 2.84538,39.63262,112.8 2.84545,39.63255,112.7 2.84565,39.63233,111.4 2.84585,39.63213,109.9 2.84591,39.63209,109.6 2.84604,39.632,109.0 2.84607,39.63197,108.9 2.84615,39.63192,108.7 2.84637,39.63178,108.4 2.84647,39.6317,108.4 2.84664,39.63158,108.6 2.84686,39.63141,107.5 2.84686,39.63141,107.5 2.84688,39.63103,106.0 2.84689,39.63095,105.7 2.8469,39.63089,105.4 2.84692,39.63085,105.2 2.84694,39.63082,105.0 2.84697,39.6308,104.8 2.84703,39.63078,104.6 2.84719,39.63071,104.0 2.84727,39.63067,103.7 2.84729,39.63065,103.6 2.84731,39.63063,103.5 2.84732,39.6306,103.5 2.84733,39.63057,103.4 2.84732,39.63048,103.4 2.84732,39.63047,103.4 2.8473,39.63016,103.1 2.8473,39.63009,103.1 2.84727,39.62987,103.3 2.84721,39.62961,103.9 2.84714,39.62929,104.7 2.84713,39.62927,104.8 2.84711,39.62917,105.0 2.84709,39.62906,105.1 2.84708,39.62895,105.3 2.8471,39.62885,105.4 2.84712,39.6286,105.6 2.84712,39.62857,105.7 2.84715,39.62836,105.8 2.84715,39.62833,105.8 2.84714,39.62817,106.2 2.84712,39.62772,107.0 2.84712,39.62767,107.1 2.84712,39.62758,107.3 2.84715,39.62716,107.9 2.84718,39.62669,108.6 2.84717,39.62659,108.7 2.84715,39.62652,108.7 2.8471,39.62624,108.8 2.84709,39.62619,108.8 2.84698,39.62579,108.8 2.84696,39.62571,109.0 2.84694,39.62563,109.1 2.84692,39.62556,109.3 2.84692,39.62554,109.3 2.84692,39.62553,109.4 2.84691,39.62545,109.6 2.84691,39.62535,109.8 2.84691,39.62499,110.8 2.84692,39.62497,110.8 2.84694,39.62489,111.2 2.84697,39.62482,111.4 2.84702,39.62477,111.6 2.84708,39.62472,111.8 2.84715,39.62469,112.0 2.84732,39.62459,112.5 2.84732,39.62459,112.5 2.84741,39.62463,112.2 2.84754,39.62466,112.1 2.84766,39.6247,112.1 2.84782,39.62471,112.3 2.84785,39.62472,112.2 2.84785,39.62472,112.2 2.84794,39.62473,112.3 2.84816,39.62473,112.7 2.8482,39.62472,112.8 2.84823,39.6247,113.0 2.84841,39.62454,114.5 2.84858,39.62432,116.4 2.84868,39.62419,117.3 2.8487,39.62416,117.5 2.84874,39.62411,117.6 2.84884,39.62401,117.9 2.84891,39.62394,118.0 2.84908,39.6238,118.4 2.84914,39.62374,118.5 2.84924,39.62364,118.6 2.84928,39.6236,118.6 2.84973,39.62312,118.2 2.84985,39.62297,118.1 2.85001,39.62279,118.0 2.85021,39.62255,117.5 2.85032,39.62244,117.2 2.85046,39.62231,116.8 2.85055,39.62221,116.7 2.85059,39.62217,116.6 2.85088,39.62188,116.8 2.85107,39.62169,117.3 2.85117,39.62158,117.4 2.85139,39.6213,117.4 2.85172,39.62086,117.1 2.85206,39.62042,117.5 2.85235,39.62007,117.8 2.85253,39.61985,117.8 2.85306,39.61922,117.0 2.85311,39.61916,117.0 2.85319,39.61906,117.1 2.85323,39.61901,117.2 2.85328,39.61895,117.2 2.8534,39.61876,117.5 2.85378,39.61823,118.1 2.85398,39.61794,118.1 2.85399,39.61792,118.1 2.85422,39.61757,118.0 2.85426,39.61751,118.0 2.85452,39.61712,118.2 2.85455,39.61707,118.2 2.85463,39.61696,118.4 2.85466,39.61694,118.4 2.85492,39.61661,118.9 2.85505,39.6164,119.1 2.85536,39.61599,119.4 2.85544,39.61587,119.5 2.85554,39.61575,119.6 2.85559,39.61569,119.7 2.85566,39.61562,119.8 2.85576,39.61551,119.9 2.85583,39.61543,120.0 2.85592,39.61531,120.0 2.85605,39.61513,120.0 2.85614,39.61502,120.0 2.85619,39.61491,120.0 2.85619,39.61491,120.0 2.85627,39.61492,119.9 2.85627,39.61492,119.9 2.85647,39.61464,119.7 2.8566,39.61444,119.4 2.85665,39.61437,119.3 2.85671,39.61429,119.2 2.85685,39.6141,119.4 2.85708,39.61379,120.2 2.8573,39.61349,120.8 2.85748,39.61324,120.9 2.85752,39.61317,120.8 2.85794,39.61253,120.0 2.85804,39.61237,120.3 2.85805,39.61235,120.4 2.85829,39.61196,121.8 2.85834,39.61188,122.2 2.85862,39.61139,123.0 2.85891,39.61089,124.2 2.85901,39.61073,124.8 2.85904,39.61068,124.9 2.85922,39.6104,125.6 2.85929,39.6103,125.8 2.85939,39.61017,126.2 2.85941,39.61014,126.3 2.8596,39.60989,127.2 2.85978,39.6096,127.7 2.85983,39.60952,127.8 2.86008,39.60903,128.0 2.8602,39.60881,128.1 2.86027,39.60869,128.2 2.8603,39.60863,128.2 2.86056,39.60826,128.7 2.86068,39.6081,128.9 2.8607,39.60807,128.9 2.86084,39.60786,129.0 2.86116,39.60744,129.9 2.8614,39.60713,131.1 2.86149,39.60701,131.4 2.86167,39.60676,131.9 2.8617,39.60672,132.1 2.8617,39.60671,132.1 2.862,39.60623,135.1 2.86201,39.60621,135.2 2.86214,39.606,136.4 2.86219,39.60591,136.9 2.86227,39.60581,137.5 2.86253,39.60552,139.1 2.86259,39.60545,139.4 2.86273,39.60531,140.0 2.86313,39.60486,141.3 2.86327,39.60472,141.4 2.86327,39.60471,141.4 2.86344,39.60452,141.7 2.8636,39.60435,142.1 2.86367,39.60428,142.3 2.86375,39.60419,142.5 2.86381,39.60413,142.5 2.86387,39.60408,142.6 2.86417,39.60381,142.6 2.86433,39.60365,142.3 2.86468,39.60336,141.4 2.86479,39.60326,141.3 2.86498,39.60312,141.0 2.86515,39.60297,140.9 2.86532,39.60282,140.8 2.86547,39.60267,140.6 2.86548,39.60266,140.5 2.86562,39.60252,140.3 2.86576,39.60236,139.9 2.86602,39.60202,139.3 2.86613,39.60184,139.1 2.86632,39.60159,139.0 2.86634,39.60156,139.1 2.86644,39.60143,139.1 2.8665,39.60135,139.1 2.86667,39.6011,139.0 2.8669,39.60077,138.2 2.86713,39.60045,137.8 2.86729,39.60021,137.9 2.86749,39.59993,138.0 2.86755,39.59985,138.1 2.86756,39.59983,138.1 2.86757,39.59983,138.1 2.86763,39.59973,138.1 2.86766,39.59968,138.1 2.86767,39.59964,138.1 2.86769,39.59955,138.0 2.86771,39.59947,137.9 2.86771,39.59945,137.8 2.86775,39.59932,137.6 2.86778,39.59911,137.3 2.86779,39.59905,137.2 2.86784,39.59893,137.0 2.8679,39.59881,137.0 2.86791,39.59877,137.0 2.86794,39.59869,137.0 2.86799,39.5986,137.2 2.868,39.59857,137.2 2.86806,39.59843,137.6 2.86814,39.59819,138.3 2.86818,39.59807,138.6 2.86818,39.59806,138.7 2.8682,39.59794,138.9 2.86821,39.5979,139.0 2.86824,39.59777,139.3 2.86824,39.59773,139.4 2.86826,39.5976,139.6 2.86827,39.59755,139.7 2.86831,39.59742,139.9 2.86833,39.59733,140.0 2.8684,39.59714,140.0 2.86845,39.59703,140.1 2.86851,39.59692,140.1 2.86855,39.59682,140.2 2.86869,39.59657,140.5 2.86881,39.59638,140.8 2.86885,39.59632,140.9 2.8689,39.59621,141.1 2.86899,39.59606,141.4 2.86929,39.59552,141.7 2.86936,39.59539,141.6 2.86943,39.59525,141.5 2.86968,39.5948,141.9 2.86977,39.59463,142.3 2.8699,39.59439,142.7 2.86993,39.59434,142.8 2.87017,39.59389,143.1 2.87022,39.5938,143.2 2.87034,39.59357,143.3 2.87037,39.59352,143.3 2.87051,39.59326,143.3 2.87056,39.59315,143.0 2.87075,39.5928,142.4 2.87076,39.59278,142.4 2.87084,39.59263,142.2 2.87102,39.5923,142.5 2.87114,39.59209,143.0 2.87129,39.5918,143.8 2.87132,39.59175,144.0 2.8715,39.59141,144.4 2.87167,39.59109,144.3 2.87169,39.59107,144.3 2.87176,39.59093,144.1 2.87187,39.59073,144.1 2.87198,39.59055,144.2 2.87208,39.59038,144.3 2.87214,39.59027,144.3 2.87218,39.5902,144.3 2.87223,39.59008,144.3 2.87225,39.59003,144.3 2.87225,39.58999,144.3 2.87225,39.58994,144.5 2.87221,39.58975,145.1 2.87217,39.58957,145.7 2.8721,39.58922,146.8 2.87196,39.58853,147.0 2.87189,39.58814,146.7 2.87186,39.58797,146.6 2.8718,39.58771,146.4 2.8718,39.58763,146.3 2.8718,39.58761,146.3 2.87181,39.58754,146.4 2.87182,39.58744,146.3 2.87184,39.58736,146.3 2.87186,39.58729,146.3 2.87196,39.58704,146.5 2.87207,39.58675,146.9 2.87225,39.58626,147.6 2.87232,39.58609,147.7 2.87238,39.58592,147.8 2.87251,39.58557,147.0 2.87258,39.58537,146.2 2.87266,39.58515,145.2 2.87268,39.58511,145.0 2.87276,39.58492,144.5 2.87282,39.58477,144.7 2.87284,39.58472,144.7 2.87286,39.58464,144.9 2.87294,39.58442,145.4 2.87297,39.58436,145.6 2.87304,39.58417,146.3 2.87307,39.58408,146.5 2.87317,39.58381,147.4 2.87319,39.58373,147.6 2.87331,39.58338,148.8 2.87332,39.58337,148.9 2.87344,39.58303,148.4 2.87345,39.58301,148.3 2.87351,39.58286,148.0 2.87359,39.58269,147.5 2.87361,39.58264,147.4 2.87365,39.58252,147.1 2.87368,39.58245,147.1 2.87372,39.58235,147.3 2.87377,39.5822,147.5 2.87378,39.58217,147.6 2.87386,39.58195,148.1 2.87395,39.5817,148.7 2.87404,39.58148,149.5 2.8741,39.58142,149.8 2.87417,39.58136,150.1 2.87423,39.5813,150.4 2.875,39.5806,154.3 2.87537,39.58026,155.0 2.87555,39.5801,155.5 2.8757,39.57996,155.8 2.876,39.57969,156.2 2.87617,39.57954,156.4 2.87655,39.57918,156.9 2.87664,39.5791,157.0 2.87674,39.57901,157.1 2.87676,39.579,157.1 2.87681,39.57895,157.1 2.87689,39.57884,157.2 2.87697,39.57874,157.3 2.87712,39.57856,157.6 2.87727,39.57837,157.9 2.87745,39.57818,158.0 2.87764,39.57797,158.0 2.87773,39.57789,158.0 2.8778,39.57783,158.1 2.87786,39.57778,158.1 2.87795,39.57773,158.2 2.87822,39.57758,158.7 2.87823,39.57757,158.7 2.87839,39.57748,159.1 2.87857,39.57739,159.4 2.87874,39.57729,159.7 2.8788,39.57725,159.9 2.8791,39.57704,160.5 2.87948,39.57676,160.9 2.87959,39.57667,161.0 2.87964,39.57663,161.1 2.8798,39.5765,161.2 2.87991,39.57641,161.3 2.88,39.57632,161.4 2.88008,39.57622,161.6 2.88015,39.5761,161.7 2.88019,39.57603,161.8 2.88025,39.57588,162.0 2.88035,39.57559,162.5 2.88041,39.57542,162.7 2.88052,39.57503,163.3 2.88054,39.57499,163.4 2.88055,39.57494,163.3 2.88061,39.57479,163.3 2.88064,39.57468,163.2 2.88065,39.57466,163.2 2.88066,39.57459,163.2 2.8807,39.57444,163.2 2.8807,39.57441,163.2 2.88072,39.57433,163.1 2.88075,39.57415,163.1 2.88077,39.57405,163.3 2.88078,39.57397,163.5 2.88081,39.57373,164.0 2.88082,39.57368,164.2 2.88084,39.57355,164.5 2.88101,39.5723,165.6 2.88104,39.57208,166.3 2.88113,39.57155,167.4 2.88115,39.57137,167.6 2.88125,39.57076,168.0 2.88127,39.57065,168.0 2.8813,39.57048,167.9 2.88131,39.57044,167.9 2.88135,39.5703,167.8 2.88145,39.56995,167.7 2.88148,39.5699,167.8 2.88162,39.56955,168.7 2.88171,39.56928,169.6 2.88172,39.56917,169.9 2.88172,39.56917,169.9 2.88171,39.56917,169.9 2.8817,39.56917,169.9 2.88169,39.56917,170.0 2.88168,39.56916,170.0 2.88167,39.56916,170.0 2.88166,39.56915,170.1 2.88165,39.56915,170.1 2.88165,39.56914,170.1 2.88164,39.56914,170.2 2.88164,39.56913,170.2 2.88164,39.56912,170.2 2.88163,39.56912,170.2 2.88163,39.56911,170.3 2.88163,39.5691,170.3 2.88163,39.56909,170.4 2.88162,39.56909,170.4 2.88163,39.56909,170.4 2.88162,39.56909,170.4 2.88163,39.56908,170.4 2.88163,39.56907,170.4 2.88163,39.56906,170.5 2.88163,39.56905,170.5 2.88164,39.56905,170.5 2.88164,39.56904,170.5 2.88165,39.56904,170.5 2.88165,39.56903,170.5 2.88166,39.56903,170.5 2.88167,39.56902,170.5 2.88168,39.56902,170.5 2.88169,39.56901,170.5 2.8817,39.56901,170.5 2.88171,39.56901,170.5 2.88166,39.56885,171.1 2.88166,39.56883,171.1 2.88164,39.56876,171.4 2.88163,39.56875,171.4 2.88163,39.56874,171.5 2.88159,39.56866,171.8 2.88155,39.56857,172.1 2.88155,39.56857,172.1 2.88154,39.56857,172.1 2.88153,39.56857,172.1 2.88153,39.56858,172.1 2.88152,39.56858,172.1 2.88151,39.56858,172.1 2.8815,39.56858,172.1 2.88149,39.56858,172.1 2.88149,39.56859,172.1 2.88148,39.56859,172.1 2.88147,39.56859,172.1 2.88146,39.56859,172.1 2.88145,39.56859,172.1 2.88145,39.56858,172.1 2.88144,39.56858,172.1 2.88143,39.56858,172.1 2.88142,39.56858,172.1 2.88141,39.56858,172.1 2.8814,39.56857,172.1 2.88139,39.56857,172.1 2.88138,39.56856,172.1 2.88137,39.56856,172.1 2.88137,39.56855,172.1 2.88136,39.56855,172.1 2.88136,39.56854,172.2 2.88135,39.56854,172.2 2.88135,39.56853,172.2 2.88134,39.56852,172.2 2.88134,39.56851,172.2 2.88134,39.5685,172.2 2.88133,39.5685,172.2 2.88133,39.56849,172.3 2.88133,39.56848,172.3 2.88133,39.56847,172.3 2.88134,39.56846,172.3 2.88134,39.56845,172.4 2.88134,39.56844,172.4 2.88135,39.56844,172.4 2.88135,39.56843,172.4 2.88135,39.56842,172.4 2.88136,39.56842,172.4 2.88137,39.56841,172.5 2.88137,39.5684,172.5 2.88138,39.5684,172.5 2.88139,39.5684,172.5 2.8814,39.56839,172.5 2.88141,39.56839,172.6 2.88141,39.56838,172.6 2.88142,39.56838,172.6 2.88143,39.56838,172.6 2.88144,39.56838,172.6 2.88145,39.56838,172.6 2.88146,39.56838,172.6 2.88147,39.56838,172.6 2.88148,39.56838,172.6 2.88149,39.56838,172.7 2.8815,39.56838,172.7 2.88151,39.56838,172.7 2.88152,39.56838,172.7 2.88153,39.56839,172.7 2.88154,39.56839,172.7 2.88155,39.5684,172.7 2.88162,39.56836,172.9 2.88167,39.56834,173.0 2.88174,39.56833,172.7 2.88176,39.56832,172.7 2.8818,39.56832,172.5 2.88193,39.56832,172.0 2.88223,39.56834,171.0 2.88229,39.56834,170.7 2.88239,39.56834,170.4 2.88253,39.56835,170.1 2.8827,39.56835,170.5 2.88289,39.56834,170.9 2.88299,39.56833,171.2 2.88361,39.56827,172.1 2.88368,39.56826,172.1 2.88426,39.56823,172.5 2.88468,39.5682,173.9 2.88512,39.56819,175.0 2.88512,39.56819,175.0 2.88557,39.56768,174.9 2.88563,39.56762,174.9 2.88565,39.5676,174.9 2.88579,39.56745,175.0 2.88595,39.56727,175.4 2.88601,39.5672,175.5 2.88644,39.56677,176.0 2.88652,39.56669,176.0 2.88658,39.56664,176.0 2.88664,39.5666,176.1 2.88699,39.56635,177.0 2.88704,39.56632,177.1 2.88783,39.56577,178.5 2.88795,39.56568,178.9 2.88805,39.56561,179.2 2.88812,39.56556,179.4 2.8882,39.56549,179.7 2.88826,39.56545,179.8 2.88829,39.56542,179.9 2.88831,39.5654,180.0 2.88833,39.56538,180.1 2.88836,39.56535,180.1 2.88838,39.56533,180.2 2.88839,39.56531,180.2 2.8884,39.56529,180.3 2.88841,39.56527,180.3 2.88842,39.56525,180.4 2.88842,39.56521,180.5 2.88844,39.56506,180.8 2.88847,39.56464,181.5 2.88851,39.56447,181.8 2.88852,39.56441,181.9 2.88855,39.56435,182.0 2.88877,39.56398,182.7 2.88881,39.56392,182.9 2.88903,39.56352,183.6 2.88918,39.56327,183.9 2.88939,39.5629,183.4 2.88946,39.56282,183.2 2.88954,39.56271,183.1 2.8898,39.56244,183.2 2.8902,39.56204,184.3 2.89058,39.56167,185.3 2.8907,39.56156,185.3 2.89092,39.56134,185.4 2.89107,39.5612,185.7 2.8913,39.56095,186.3 2.89149,39.56075,187.2 2.89188,39.56029,189.9 2.89189,39.56028,189.9 2.89189,39.56026,190.0 2.8919,39.56024,190.1 2.8919,39.56022,190.2 2.89189,39.56021,190.3 2.89189,39.56019,190.4 2.8924,39.55985,192.2 2.8924,39.55985,192.2 2.89256,39.55995,192.3 2.89258,39.55997,192.4 2.89269,39.56004,192.5 2.89276,39.56007,192.6 2.89283,39.5601,192.7 2.89292,39.56014,192.8 2.89299,39.56016,192.9 2.89308,39.56018,193.1 2.89321,39.56019,193.4 2.89322,39.56019,193.5 2.8933,39.56019,193.7 2.89338,39.5602,193.8 2.89344,39.56022,193.6 2.89359,39.56025,193.4 2.89399,39.56033,192.7 2.89429,39.5604,192.1 2.89444,39.56045,191.8 2.89465,39.56052,191.4 2.89485,39.56058,191.1 2.8953,39.56073,190.9 2.8953,39.56073,190.9 2.89532,39.56067,191.2 2.89534,39.5606,191.5 2.89535,39.56052,191.9 2.89538,39.56037,192.7 2.89538,39.56028,193.1 2.89538,39.56022,193.4 2.89538,39.56004,194.3 2.89537,39.56001,194.4 2.89537,39.55999,194.5 2.89536,39.55998,194.5 2.89535,39.55997,194.5 2.89534,39.55996,194.6 2.89532,39.55995,194.6 2.89529,39.55994,194.6 2.89529,39.55993,194.6 2.89528,39.55991,194.7 2.89527,39.5599,194.7 2.89527,39.55988,194.8 2.89526,39.55985,194.9 2.89526,39.55937,196.6 2.89526,39.5592,197.2 2.89526,39.55903,197.7 2.89525,39.55897,197.9 2.89523,39.55895,197.9 2.89523,39.55894,197.9 2.89522,39.55893,198.0 2.8952,39.55891,198.0 2.89516,39.55888,198.1 2.89508,39.55885,198.2 2.89486,39.55873,198.8 2.89466,39.55852,199.8 2.89429,39.55824,201.1 2.89418,39.55817,201.4 2.89418,39.55817,201.4 2.89422,39.5581,201.5 2.89422,39.55806,201.6 2.89421,39.55802,201.7 2.89418,39.55797,201.9 2.89416,39.5579,202.0 2.89411,39.55777,202.2 2.89408,39.55769,202.3 2.89405,39.55757,202.4 2.89404,39.55754,202.5 2.89402,39.5575,202.5 2.894,39.55746,202.4 2.89397,39.55742,202.4 2.89387,39.55729,202.1 2.89392,39.557,202.5 2.89395,39.55685,202.8 2.89421,39.55604,202.5 2.89432,39.55574,202.4 2.89432,39.55574,202.4 2.89418,39.5557,202.3 2.89394,39.55562,202.4 2.89289,39.55524,202.4 2.89224,39.55501,203.0 2.89206,39.55496,203.0 2.89189,39.5549,203.1 2.89155,39.55478,203.5 2.89075,39.5545,204.9 2.89064,39.55446,204.8 2.89032,39.55435,204.6 2.89032,39.55435,204.6 2.89033,39.55433,204.6 2.89033,39.55431,204.7 2.89033,39.55429,204.7 2.89032,39.55425,204.8 2.89031,39.55423,204.9 2.89024,39.55411,204.9 2.89009,39.55384,204.6 2.88991,39.55351,204.0 2.8897,39.55311,204.2 2.88958,39.55291,204.5 2.88956,39.55287,204.6 2.88943,39.55264,205.0 2.88942,39.55261,205.0 2.88939,39.55255,205.1 2.88926,39.55228,204.9 2.8892,39.55217,204.7 2.88904,39.55175,204.2 2.88901,39.55165,204.2 2.88899,39.55159,204.4 2.88894,39.55141,205.0 2.88886,39.55115,205.8 2.8888,39.55094,206.3 2.88875,39.55074,206.6 2.88865,39.55053,206.4 2.88841,39.55006,205.4 2.88834,39.54992,205.1 2.8883,39.54983,205.1 2.88814,39.54953,204.8 2.8881,39.54945,204.7 2.88805,39.54936,204.7 2.88784,39.54904,204.5 2.88766,39.54881,204.4 2.88764,39.54878,204.4 2.88762,39.54874,204.5 2.88761,39.54873,204.4 2.8876,39.54871,204.5 2.88741,39.54832,204.3 2.88736,39.54823,203.6 2.88727,39.54806,202.5 2.88726,39.54803,202.3 2.88721,39.54794,201.8 2.88721,39.54792,201.8 2.88719,39.54789,201.6 2.88707,39.54767,200.8 2.88706,39.54765,200.7 2.88701,39.54756,200.5 2.88697,39.54748,200.4 2.88695,39.54745,200.4 2.88692,39.54739,200.5 2.88691,39.54736,200.5 2.88687,39.54732,200.6 2.88685,39.54728,200.7 2.88681,39.54726,200.7 2.8868,39.54724,200.8 2.88675,39.54719,201.0 2.88673,39.54718,201.1 2.88669,39.54714,201.3 2.88666,39.54711,201.4 2.88664,39.54706,201.7 2.88665,39.547,201.8 2.88668,39.54692,202.0 2.88669,39.54684,202.3 2.8867,39.54679,202.4 2.8867,39.54675,202.5 2.88672,39.54657,202.5 2.88672,39.54653,202.4 2.88671,39.5465,202.4 2.8867,39.54646,202.4 2.88669,39.54643,202.3 2.88668,39.54641,202.3 2.88666,39.54639,202.4 2.88663,39.54637,202.4 2.88659,39.54634,202.5 2.88659,39.54634,202.5 2.88597,39.54614,204.6 2.88594,39.54613,204.6 2.88591,39.54611,204.7 2.88587,39.5461,204.8 2.88583,39.54608,204.9 2.8858,39.54606,204.9 2.88576,39.54602,205.0 2.88575,39.54602,205.0 2.88571,39.54596,205.0 2.88563,39.54587,205.1 2.88551,39.54572,205.5 2.8854,39.54557,205.9 2.88539,39.54556,206.0 2.88482,39.54493,208.7 2.8848,39.5449,208.9 2.88457,39.54463,210.2 2.88443,39.54448,211.1 2.8844,39.54444,211.3 2.88439,39.54442,211.4 2.88417,39.54419,212.9 2.88416,39.54418,213.0 2.88413,39.54415,213.1 2.88408,39.54409,213.1 2.88405,39.54405,213.0 2.88403,39.54404,213.0 2.88399,39.54399,213.0 2.88388,39.54386,212.8 2.88382,39.54379,212.6 2.88377,39.54374,212.6 2.88377,39.54373,212.5 2.88374,39.5437,212.5 2.88364,39.54359,212.3 2.88357,39.54351,212.1 2.88355,39.5435,212.1 2.88344,39.54339,211.9 2.88337,39.54331,211.8 2.88329,39.54324,211.8 2.88319,39.54317,211.6 2.88303,39.54305,211.3 2.88302,39.54305,211.3 2.88298,39.54302,211.2 2.88292,39.54297,211.1 2.8829,39.54296,211.0 2.88286,39.54293,210.9 2.88273,39.54282,210.7 2.88265,39.54275,210.5 2.88255,39.54265,210.2 2.88247,39.54257,210.0 2.88228,39.54236,210.1 2.8822,39.54227,210.3 2.88215,39.54222,210.4 2.88214,39.54221,210.4 2.8819,39.54192,211.2 2.88189,39.5419,211.2 2.88187,39.54188,211.3 2.88182,39.54181,211.5 2.88178,39.54176,211.7 2.88164,39.54157,212.2 2.88159,39.54148,212.3 2.88152,39.54139,212.4 2.88149,39.54134,212.4 2.88147,39.54129,212.5 2.88146,39.54128,212.4 2.88137,39.54111,212.5 2.88136,39.54109,212.5 2.88135,39.54108,212.5 2.88132,39.541,212.5 2.88129,39.54095,212.5 2.88125,39.54084,212.5 2.88123,39.54077,212.3 2.88121,39.54074,212.2 2.88119,39.54066,212.0 2.88119,39.54061,211.9 2.88118,39.54056,211.8 2.88117,39.54048,211.6 2.88117,39.54047,211.6 2.88117,39.54042,211.5 2.88116,39.54024,211.2 2.88115,39.53994,210.7 2.88115,39.53987,210.7 2.88115,39.53975,210.6 2.88114,39.53969,210.6 2.88114,39.53964,210.6 2.88113,39.53957,210.5 2.88112,39.53951,210.5 2.8811,39.53945,210.4 2.88106,39.53938,210.3 2.88103,39.53935,210.3 2.88101,39.53933,210.3 2.88092,39.53923,210.1 2.88089,39.5392,210.1 2.88074,39.53906,210.1 2.8806,39.53892,210.3 2.88054,39.53886,210.4 2.88045,39.53878,210.6 2.88018,39.53854,211.7 2.88,39.53837,212.8 2.87998,39.53834,212.9 2.87987,39.53825,213.2 2.87985,39.53824,213.2 2.87974,39.53816,213.4 2.87967,39.53812,213.3 2.8795,39.53801,213.2 2.87949,39.538,213.2 2.87935,39.5379,212.9 2.87926,39.53783,212.7 2.87919,39.53776,212.5 2.87914,39.53771,212.4 2.8791,39.53764,212.3 2.87908,39.53758,212.4 2.87906,39.53753,212.4 2.87904,39.53747,212.5 2.87903,39.5374,212.6 2.87902,39.53733,212.7 2.87902,39.53719,213.0 2.87904,39.53701,213.6 2.87908,39.53682,214.2 2.87909,39.53677,214.4 2.87908,39.53669,214.5 2.87908,39.53665,214.7 2.87908,39.53661,215.0 2.87907,39.53658,215.2 2.87904,39.53651,215.6 2.87901,39.53647,215.8 2.87898,39.53643,216.0 2.87889,39.5363,216.5 2.87885,39.53623,216.7 2.87885,39.53622,216.8 2.87877,39.53605,217.6 2.87874,39.53598,217.9 2.8787,39.53591,218.1 2.87869,39.53588,218.2 2.87863,39.53578,218.9 2.87859,39.53572,219.4 2.87855,39.53565,220.1 2.87848,39.53556,220.9 2.87847,39.53555,221.0 2.87836,39.53541,222.3 2.87836,39.5354,222.4 2.87835,39.53539,222.5 2.87828,39.53531,223.4 2.87823,39.53526,223.9 2.87822,39.53526,223.9 2.87813,39.53517,224.9 2.87801,39.53506,226.0 2.87791,39.53499,226.6 2.87784,39.53494,226.9 2.87774,39.53487,227.4 2.87756,39.53475,228.4 2.87739,39.53464,228.4 2.87739,39.53463,228.5 2.87729,39.53455,228.5 2.87725,39.53451,228.6 2.87725,39.5345,228.8 2.87724,39.53449,228.8 2.87723,39.53447,229.0 2.87721,39.53441,229.7 2.87721,39.53437,230.4 2.87719,39.53414,233.4 2.87719,39.53413,233.4 2.87718,39.53407,233.3 2.87716,39.53396,233.3 2.87716,39.53395,233.3 2.87712,39.53386,233.1 2.87709,39.5338,233.0 2.87706,39.53375,232.9 2.87701,39.53371,232.7 2.87698,39.53369,232.6 2.87694,39.53366,232.5 2.87693,39.53366,232.5 2.87685,39.53363,232.3 2.87671,39.5336,231.9 2.87664,39.53358,231.7 2.87659,39.53357,231.6 2.87651,39.53355,231.5 2.87643,39.53352,231.4 2.87636,39.53349,231.5 2.8763,39.53346,231.5 2.87619,39.53341,231.7 2.87618,39.53341,231.7 2.87608,39.53335,232.1 2.87602,39.5333,231.9 2.87588,39.53318,230.9 2.87586,39.53317,230.8 2.87568,39.53302,229.4 2.87546,39.5329,228.5 2.87523,39.5328,228.2 2.8752,39.53277,228.3 2.87517,39.53275,228.3 2.87514,39.53272,228.3 2.87504,39.53248,228.6 2.87501,39.53242,228.0 2.87498,39.53236,227.4 2.87492,39.53224,226.2 2.8749,39.53219,225.8 2.87485,39.53211,225.2 2.87483,39.53206,224.8 2.87482,39.53202,224.5 2.87482,39.532,224.3 2.87484,39.53185,222.6 2.87487,39.53167,220.4 2.87488,39.53166,220.3 2.87489,39.5315,219.3 2.87488,39.53149,219.4 2.87488,39.53146,219.2 2.87487,39.53142,219.1 2.87484,39.53135,219.0 2.87482,39.53132,219.0 2.87465,39.53098,218.4 2.87462,39.53095,218.5 2.87458,39.53091,218.5 2.87451,39.53083,218.5 2.87445,39.53077,218.5 2.87426,39.53053,217.9 2.87416,39.53041,217.5 2.87414,39.53038,217.4 2.87413,39.53036,217.4 2.87406,39.53028,217.3 2.87395,39.53014,217.1 2.8739,39.53007,216.9 2.87383,39.52995,216.3 2.8738,39.52991,216.1 2.8737,39.52978,215.3 2.87363,39.52966,214.3 2.87357,39.52957,213.6 2.87351,39.52947,212.6 2.87349,39.52944,212.3 2.87347,39.52941,211.9 2.87339,39.52929,210.6 2.87336,39.52926,210.3 2.87332,39.52922,209.8 2.87325,39.52914,209.2 2.8732,39.52907,209.2 2.87316,39.529,209.0 2.87315,39.52894,208.8 2.87315,39.52881,208.3 2.87315,39.52876,208.1 2.87314,39.52866,207.8 2.87314,39.52859,207.5 2.87314,39.52851,207.2 2.87313,39.52841,206.8 2.87313,39.52837,206.7 2.87312,39.52828,206.5 2.87312,39.52823,206.5 2.87311,39.52817,206.4 2.87309,39.52813,206.4 2.87305,39.52808,206.3 2.87303,39.52806,206.3 2.87292,39.52795,206.2 2.87288,39.52791,206.2 2.87273,39.52778,206.3 2.87272,39.52778,206.3 2.87265,39.52772,206.4 2.87258,39.52764,206.6 2.87246,39.52753,206.7 2.87243,39.5275,206.7 2.87238,39.52745,206.3 2.87228,39.52732,205.5 2.87217,39.52717,204.9 2.872,39.52697,204.2 2.87195,39.52689,204.1 2.87194,39.52688,204.1 2.87176,39.52663,203.9 2.8716,39.52642,202.8 2.87159,39.52641,202.8 2.87155,39.52636,202.4 2.87148,39.52627,201.9 2.87147,39.52626,201.8 2.87131,39.52604,200.7 2.87109,39.52576,199.4 2.87108,39.52574,199.3 2.8709,39.52549,197.9 2.87087,39.52545,197.7 2.87086,39.52544,197.6 2.87085,39.52542,197.6 2.87071,39.52524,196.9 2.87063,39.52514,196.5 2.87061,39.52511,196.4 2.87054,39.52502,196.1 2.8704,39.52482,195.6 2.87038,39.5248,195.5 2.87036,39.52477,195.4 2.87027,39.52466,195.0 2.87026,39.52464,195.0 2.87023,39.5246,194.8 2.87022,39.52455,194.7 2.87022,39.52452,194.6 2.87024,39.52448,194.5 2.87024,39.52447,194.5 2.8703,39.52442,194.4 2.87037,39.52436,194.4 2.8704,39.52434,194.4 2.87042,39.52432,194.4 2.87057,39.52422,194.5 2.87077,39.52409,194.8 2.87115,39.52382,195.4 2.8716,39.52353,195.9 2.87163,39.52352,196.0 2.87166,39.52349,196.0 2.87168,39.52348,196.1 2.87181,39.5234,196.9 2.87198,39.52328,197.9 2.87213,39.52318,198.8 2.87216,39.52316,199.0 2.87219,39.52314,199.1 2.87233,39.52304,200.0 2.87234,39.52304,200.0 2.87248,39.52294,200.9 2.87251,39.52292,201.0 2.87268,39.5228,201.6 2.87271,39.52278,201.7 2.873,39.52258,202.3 2.87302,39.52256,202.3 2.87315,39.52247,202.4 2.8732,39.52244,202.4 2.8735,39.52224,202.5 2.87353,39.52222,202.5 2.87356,39.5222,202.5 2.87362,39.52216,202.5 2.87365,39.52213,202.4 2.87367,39.52211,202.4 2.87367,39.52209,202.3 2.87368,39.52208,202.3 2.87369,39.52204,202.2 2.8737,39.52193,201.8 2.87372,39.52166,200.9 2.87374,39.52138,199.3 2.87375,39.52129,198.7 2.87375,39.52128,198.7 2.87376,39.5212,198.2 2.8738,39.52059,194.7 2.87381,39.52056,194.5 2.87383,39.52038,193.5 2.87384,39.52023,192.6 2.87385,39.52012,192.0 2.87385,39.52002,191.4 2.87386,39.51989,191.0 2.87387,39.51971,190.6 2.87389,39.51935,189.8 2.87391,39.51918,189.4 2.87391,39.51918,189.4 2.87392,39.51894,188.0 2.87393,39.51882,187.4 2.87395,39.5185,185.5 2.87397,39.51822,184.0 2.87399,39.51786,182.4 2.874,39.5177,181.7 2.87401,39.5176,181.3 2.87404,39.51725,179.4 2.87405,39.51702,178.1 2.87406,39.517,178.0 2.87408,39.51653,175.6 2.87412,39.5161,174.0 2.87413,39.51601,173.6 2.87413,39.51592,173.3 2.87415,39.51574,172.8 2.87416,39.5155,172.2 2.8742,39.51483,170.2 2.87421,39.51476,169.9 2.87423,39.51447,168.5 2.87426,39.51414,167.0 2.87428,39.51393,167.3 2.87428,39.51386,167.4 2.87433,39.51331,168.0 2.87435,39.51296,167.9 2.87436,39.51286,167.9 2.87436,39.51277,167.8 2.87452,39.51265,167.7 2.87453,39.51264,167.6 2.87483,39.51241,166.9 2.87502,39.51227,166.1 2.87518,39.51215,165.3 2.87527,39.51208,164.8 2.87529,39.51207,164.8 2.87535,39.51202,164.5 2.87539,39.51199,164.3 2.87544,39.51195,164.1 2.87547,39.51192,164.0 2.87547,39.51192,164.0 2.87548,39.51191,164.0 2.87551,39.51186,163.8 2.87555,39.51176,163.5 2.87557,39.51172,163.4 2.87566,39.51149,163.0 2.87582,39.51115,162.4 2.87592,39.51092,161.9 2.87593,39.5109,161.9 2.876,39.51075,161.5 2.87601,39.51073,161.5 2.87616,39.5104,160.9 2.87659,39.50939,158.7 2.87661,39.50934,158.5 2.87674,39.50904,157.9 2.87731,39.50769,156.8 2.87733,39.50765,156.8 2.87764,39.50694,155.0 2.87791,39.5063,153.6 2.87822,39.50555,152.5 2.87844,39.50493,151.9 2.87856,39.50457,151.5 2.87878,39.5039,150.5 2.87882,39.50381,150.4 2.87884,39.50379,150.4 2.87888,39.50373,150.3 2.87899,39.50363,150.2 2.8793,39.50334,150.0 2.87938,39.50327,150.0 2.87943,39.50322,150.0 2.87959,39.50308,150.0 2.87999,39.50273,150.0 2.88034,39.50243,150.4 2.8805,39.50229,150.4 2.88065,39.50216,150.5 2.88068,39.50214,150.5 2.88081,39.50203,150.4 2.88096,39.50189,150.3 2.88105,39.50181,150.3 2.88127,39.50162,150.4 2.8813,39.50159,150.4 2.88138,39.5015,150.3 2.88148,39.50138,150.1 2.88149,39.50137,150.1 2.88155,39.50129,150.0 2.88161,39.50122,149.9 2.88164,39.50118,149.8 2.88165,39.50116,149.8 2.88174,39.50106,149.5 2.88187,39.50092,149.0 2.88189,39.50089,148.9 2.88191,39.50088,148.8 2.882,39.50076,148.3 2.88211,39.50063,147.8 2.88225,39.50046,147.1 2.88226,39.50044,147.1 2.88234,39.50035,146.8 2.88239,39.50029,146.7 2.88248,39.50017,146.4 2.88258,39.50002,146.3 2.88273,39.49982,147.2 2.88295,39.49956,148.4 2.8832,39.49926,149.6 2.88343,39.499,150.1 2.88347,39.49895,150.1 2.88353,39.49881,150.0 2.88355,39.49876,150.0 2.88355,39.49874,150.0 2.8836,39.49858,149.9 2.88375,39.49816,149.0 2.88391,39.49769,147.5 2.88395,39.49756,147.2 2.88397,39.49752,147.1 2.884,39.49749,147.0 2.88406,39.49744,146.9 2.88411,39.49741,146.8 2.88431,39.49728,146.8 2.88443,39.4972,146.8 2.88482,39.49696,146.8 2.88484,39.49694,146.7 2.88514,39.49674,146.3 2.8853,39.49664,146.0 2.88539,39.49657,146.1 2.88541,39.49655,146.1 2.8855,39.49647,146.1 2.88554,39.49644,146.1 2.88583,39.49617,146.0 2.88586,39.49614,146.0 2.88598,39.49604,146.1 2.88598,39.49604,146.1 2.88635,39.49573,146.5 2.88655,39.49558,146.6 2.88669,39.49547,146.5 2.8867,39.49545,146.5 2.8868,39.49537,146.3 2.8869,39.4953,146.2 2.88691,39.49527,146.1 2.88693,39.49525,146.1 2.88695,39.49523,146.1 2.88697,39.49521,146.1 2.88699,39.4952,146.1 2.88702,39.49519,146.0 2.88705,39.49518,146.0 2.88708,39.49517,146.0 2.88709,39.49517,146.0 2.88711,39.49517,146.0 2.88714,39.49517,146.0 2.88716,39.49517,146.0 2.88718,39.49517,146.0 2.88725,39.4951,146.0 2.88734,39.49505,146.0 2.88745,39.49498,146.0 2.88756,39.49491,146.2 2.88775,39.49481,146.5 2.888,39.49468,147.0 2.88866,39.49435,147.5 2.8892,39.49406,147.2 2.88996,39.49361,149.6 2.88996,39.49361,149.6 2.88919,39.49257,148.0 2.88906,39.49241,147.6 2.8887,39.49195,146.2 2.88855,39.49174,145.6 2.88824,39.49131,144.5 2.88793,39.49101,144.1 2.88793,39.49101,144.1 2.8883,39.49084,144.0 2.88857,39.49072,144.4 2.88882,39.4906,144.6 2.88959,39.49028,145.5 2.89047,39.48989,146.9 2.89052,39.48987,147.0 2.8906,39.48984,147.1 2.8908,39.48975,147.3 2.8908,39.48975,147.3 2.89079,39.48974,147.3 2.89078,39.48972,147.2 2.89071,39.4896,146.8 2.89057,39.4894,146.2 2.8904,39.48919,145.5 2.89039,39.48918,145.5 2.89035,39.48912,145.3 2.89029,39.48905,145.0 2.89019,39.48892,144.6 2.89013,39.48885,144.3 2.89001,39.48872,143.9 2.88987,39.48855,143.3 2.88972,39.48839,142.8 2.8896,39.48834,142.5 2.88952,39.48829,142.4 2.88947,39.48827,142.3 2.88942,39.48826,142.3 2.88885,39.48808,141.9 2.88834,39.48794,141.5 2.88767,39.48775,140.5 2.88753,39.48772,140.3 2.88753,39.48772,140.3 2.88725,39.48761,139.8 2.88644,39.4873,138.2 2.88546,39.48694,136.1 2.88522,39.48684,136.1 2.88517,39.48678,136.0 2.88517,39.48678,136.0 2.88491,39.48682,136.2 2.8845,39.48687,136.2 2.88391,39.48696,135.8 2.88299,39.48707,133.9 2.88274,39.4871,133.2 2.88262,39.48711,132.9 2.88246,39.4871,132.5 2.88231,39.48709,132.5 2.88216,39.48707,132.5 2.88189,39.48703,132.4 2.88144,39.48695,132.1 2.88124,39.48692,131.8 2.88106,39.48689,131.5 2.88086,39.48687,131.3 2.88086,39.48687,131.3 2.88086,39.48688,131.3 2.88084,39.4869,131.3 2.88082,39.48692,131.3 2.8808,39.48694,131.3 2.88077,39.48695,131.3 2.88075,39.48697,131.3 2.88073,39.48697,131.3 2.88072,39.48697,131.3 2.88069,39.48698,131.3 2.88066,39.48698,131.3 2.88063,39.48698,131.3 2.88062,39.48698,131.3 2.88059,39.48697,131.3 2.88056,39.48697,131.2 2.88054,39.48695,131.2 2.88051,39.48694,131.2 2.88049,39.48692,131.2 2.88047,39.4869,131.2 2.88045,39.48688,131.1 2.88044,39.48686,131.1 2.88043,39.48683,131.1 2.88033,39.48681,131.1 2.88024,39.48678,131.0 2.88012,39.48676,131.0 2.87998,39.48674,131.0 2.87987,39.48673,130.8 2.87964,39.48672,130.5 2.87945,39.4867,130.3 2.87933,39.48669,130.2 2.87897,39.48666,130.0 2.87866,39.48664,129.9 2.87838,39.48662,129.9 2.87836,39.48662,129.9 2.878,39.48659,129.5 2.87771,39.48656,129.1 2.87755,39.48655,128.9 2.87679,39.48645,128.1 2.87657,39.48641,128.2 2.87647,39.48639,128.5 2.87631,39.48635,128.9 2.87617,39.48632,129.2 2.87564,39.48619,129.8 2.87503,39.48602,128.7 2.87477,39.48594,128.1 2.87454,39.48589,127.6 2.87447,39.48587,127.5 2.87422,39.48581,127.1 2.87394,39.48575,127.0 2.87363,39.4857,127.0 2.87334,39.48566,127.0 2.87303,39.48562,127.0 2.87275,39.48559,127.0 2.87248,39.48557,127.0 2.87247,39.48557,127.0 2.87227,39.48556,126.8 2.87223,39.48556,126.8 2.87111,39.48552,126.5 2.87108,39.48552,126.5 2.8708,39.48551,126.7 2.8705,39.48549,127.0 2.8704,39.48548,127.1 2.87022,39.48547,127.3 2.87014,39.48546,127.4 2.86993,39.48544,127.5 2.86965,39.48539,127.5 2.86934,39.48533,127.4 2.86908,39.48527,127.3 2.86879,39.4852,127.2 2.86853,39.48512,127.1 2.86825,39.48503,126.9 2.86799,39.48493,126.6 2.86772,39.48482,126.1 2.86747,39.4847,125.6 2.8672,39.48457,125.1 2.86693,39.48443,124.6 2.86669,39.48428,124.2 2.86643,39.48412,123.4 2.86618,39.48396,122.8 2.86595,39.48382,122.3 2.86553,39.48358,122.0 2.86544,39.48352,122.0 2.86521,39.48339,122.0 2.86496,39.48325,121.9 2.86468,39.48311,121.7 2.86444,39.483,121.6 2.86414,39.48286,121.4 2.86365,39.48265,121.1 2.86354,39.4826,121.0 2.86349,39.48258,121.0 2.86346,39.48257,121.0 2.8634,39.48254,121.0 2.86314,39.48245,120.9 2.86289,39.48235,120.7 2.86263,39.48226,120.7 2.86236,39.48217,120.6 2.86208,39.48208,120.5 2.86172,39.48197,120.4 2.8617,39.48197,120.4 2.8616,39.48194,120.2 2.86134,39.48187,119.4 2.86077,39.48172,117.4 2.86051,39.48166,117.8 2.85992,39.48151,119.0 2.85947,39.4814,118.6 2.85922,39.48136,118.3 2.85904,39.48132,118.3 2.85881,39.48128,118.3 2.85855,39.48125,118.4 2.85841,39.48128,118.6 2.85825,39.48126,118.6 2.85811,39.48125,118.8 2.85782,39.48123,119.1 2.85755,39.48123,119.4 2.85732,39.48124,119.3 2.85727,39.48124,119.2 2.85706,39.48124,119.0 2.85691,39.48125,118.8 2.85673,39.48126,118.6 2.85666,39.48127,118.5 2.85666,39.48127,118.5 2.85662,39.48124,118.5 2.85657,39.48121,118.5 2.85656,39.48116,118.4 2.85654,39.48113,118.4 2.85651,39.48108,118.4 2.85648,39.48106,118.3 2.85643,39.48102,118.3 2.85631,39.48094,118.2 2.85619,39.48085,118.0 2.85611,39.48078,118.0 2.856,39.48069,117.9 2.85585,39.48056,117.7 2.85574,39.48046,117.6 2.85559,39.48033,117.6 2.85555,39.48028,117.6 2.85549,39.48022,117.6 2.85547,39.48019,117.6 2.85542,39.48014,117.6 2.85531,39.47999,117.6 2.85508,39.47966,117.5 2.85498,39.47953,117.4 2.85494,39.47947,117.2 2.85487,39.47938,117.0 2.85482,39.47931,116.8 2.85479,39.47926,116.6 2.85476,39.47922,116.5 2.85464,39.47906,116.3 2.85452,39.47891,116.2 2.85448,39.47884,116.1 2.85441,39.47875,116.1 2.85436,39.47869,116.0 2.85429,39.47859,115.9 2.85425,39.47853,115.9 2.85418,39.47844,115.8 2.85416,39.47842,115.8 2.85416,39.47841,115.8 2.85413,39.47837,115.8 2.8541,39.47833,115.8 2.85404,39.47825,115.7 2.85403,39.47824,115.7 2.85395,39.47813,115.7 2.85394,39.47812,115.7 2.85383,39.47797,115.4 2.85383,39.47797,115.4 2.8536,39.47809,115.1 2.8534,39.47818,114.9 2.85321,39.47828,114.9 2.8531,39.47833,115.0 2.85301,39.47838,114.9 2.85236,39.47867,114.4 2.85211,39.47878,114.6 2.85188,39.47886,114.9 2.85157,39.47896,115.3 2.85157,39.47896,115.3 2.85072,39.47923,115.9 2.85066,39.47925,115.9 2.85056,39.47928,115.9 2.85028,39.47936,115.8 2.85022,39.47938,115.7 2.85,39.47944,115.7 2.84984,39.47951,115.7 2.84983,39.47951,115.8 2.84968,39.47958,115.9 2.84963,39.47961,115.9 2.84929,39.47978,116.5 2.84803,39.4804,116.3 2.84793,39.48045,116.2 2.84778,39.48052,116.0 2.84747,39.48067,115.4 2.84698,39.48092,115.4 2.84684,39.48099,115.7 2.84677,39.48102,115.9 2.84671,39.48105,116.0 2.84668,39.48106,116.1 2.84668,39.48106,116.1 2.84665,39.48107,116.2 2.84659,39.48109,116.4 2.84654,39.4811,116.5 2.84647,39.48111,116.6 2.84635,39.48113,116.9 2.8459,39.48119,117.5 2.84576,39.4812,117.5 2.84553,39.48121,117.3 2.8455,39.48121,117.3 2.84546,39.48122,117.3 2.84531,39.48122,117.2 2.8449,39.48125,117.1 2.84462,39.48127,117.5 2.8446,39.48127,117.5 2.84439,39.48129,117.8 2.84437,39.48129,117.8 2.84418,39.48132,118.1 2.84414,39.48132,118.1 2.84342,39.48144,117.2 2.84298,39.48151,117.1 2.84256,39.48155,117.1 2.84254,39.48155,117.1 2.84154,39.48168,118.1 2.84147,39.48169,118.2 2.84016,39.48188,118.3 2.84015,39.48189,118.4 2.83994,39.48192,118.2 2.83969,39.48197,118.0 2.83948,39.48201,117.8 2.83903,39.4821,117.7 2.83896,39.48212,117.8 2.83881,39.48215,118.0 2.83878,39.48215,118.0 2.83835,39.48223,118.7 2.83825,39.48224,118.8 2.83813,39.48227,119.0 2.8379,39.4823,119.3 2.83788,39.48231,119.3 2.83735,39.48242,119.6 2.83722,39.48245,119.3 2.83655,39.4826,118.3 2.83651,39.4826,118.4 2.83588,39.48275,119.6 2.83551,39.48283,120.0 2.83521,39.4829,120.3 2.83482,39.48299,120.8 2.83424,39.48314,121.8 2.83401,39.48319,122.0 2.83395,39.48321,122.0 2.83292,39.48349,122.7 2.83279,39.48353,122.9 2.83222,39.48371,123.5 2.83181,39.48384,123.4 2.83135,39.48402,123.5 2.83083,39.48423,123.9 2.8304,39.48441,123.9 2.8301,39.48455,123.9 2.82982,39.4847,123.9 2.82962,39.48482,123.9 2.82957,39.48484,123.9 2.82952,39.48487,123.9 2.82936,39.48496,124.0 2.82925,39.48501,124.0 2.82889,39.48518,125.4 2.82886,39.4852,125.5 2.82865,39.4853,126.5 2.8285,39.48535,127.2 2.82844,39.48537,127.5 2.82839,39.48538,127.7 2.82823,39.48542,127.8 2.82804,39.48544,127.6 2.82793,39.48544,127.4 2.82778,39.48543,127.1 2.82776,39.48542,127.0 2.82756,39.48538,126.4 2.82753,39.48538,126.3 2.82737,39.48534,125.8 2.82731,39.48532,125.6 2.82728,39.48532,125.5 2.82719,39.48532,125.3 2.82712,39.48533,125.2 2.82708,39.48534,125.2 2.82705,39.48536,125.3 2.827,39.48539,125.4 2.8269,39.48546,125.7 2.8269,39.48546,125.7 2.82693,39.48546,125.8 2.82695,39.48547,125.9 2.82696,39.48548,126.0 2.82698,39.48548,126.0 2.82699,39.48549,126.1 2.827,39.4855,126.2 2.82701,39.48551,126.2 2.82702,39.48552,126.3 2.82703,39.48553,126.4 2.82704,39.48554,126.5 2.82705,39.48555,126.6 2.82706,39.48556,126.7 2.82706,39.48558,126.8 2.82707,39.48559,126.9 2.82707,39.4856,126.9 2.82707,39.48561,127.0 2.82707,39.48563,127.1 2.82707,39.48564,127.2 2.82707,39.48565,127.3 2.82706,39.48566,127.3 2.82706,39.48568,127.5 2.82705,39.48569,127.5 2.82704,39.4857,127.6 2.82704,39.48571,127.6 2.82703,39.48572,127.7 2.82702,39.48573,127.7 2.82701,39.48574,127.8 2.82699,39.48575,127.8 2.82698,39.48576,127.9 2.82696,39.48577,127.9 2.82694,39.48577,127.9 2.82693,39.48578,128.0 2.82691,39.48578,127.9 2.8269,39.48578,127.9 2.82688,39.48579,128.0 2.82687,39.48579,127.9 2.82685,39.48579,127.9 2.82684,39.48579,127.9 2.82682,39.48578,127.8 2.8268,39.48578,127.8 2.82679,39.48578,127.8 2.82677,39.48577,127.7 2.82676,39.48577,127.7 2.82675,39.48576,127.6 2.82673,39.48576,127.6 2.82672,39.48575,127.5 2.82671,39.48574,127.4 2.8267,39.48573,127.3 2.82668,39.48572,127.2 2.82667,39.48571,127.1 2.82666,39.4857,127.0 2.82666,39.48569,127.0 2.82665,39.48568,126.9 2.82664,39.48567,126.8 2.82664,39.48565,126.7 2.82664,39.48564,126.6 2.82664,39.48563,126.6 2.82664,39.48562,126.5 2.82664,39.48561,126.4 2.8265,39.48566,126.8 2.82646,39.48569,127.0 2.82644,39.48571,127.1 2.82642,39.48573,127.2 2.82639,39.48576,127.3 2.82637,39.4858,127.5 2.82633,39.48589,127.7 2.8263,39.48605,127.8 2.8263,39.48608,127.9 2.82629,39.48611,127.9 2.82628,39.48623,128.0 2.82627,39.48626,128.0 2.82625,39.48632,128.1 2.82621,39.48639,128.1 2.82615,39.48647,128.1 2.82608,39.48655,128.2 2.82603,39.48661,128.2 2.82596,39.48668,128.2 2.82586,39.48675,128.0 2.82571,39.48685,128.1 2.82555,39.48695,128.0 2.82538,39.48704,127.8 2.82522,39.48712,127.5 2.8252,39.48712,127.5 2.82499,39.4872,127.1 2.82495,39.48722,127.0 2.8249,39.48724,126.9 2.82485,39.48726,126.7 2.82485,39.48726,126.7 2.82471,39.48731,126.4 2.82432,39.48744,125.5 2.82395,39.48753,125.1 2.82369,39.48759,125.1 2.82324,39.48769,125.3 2.82321,39.4877,125.4 2.82302,39.48774,125.9 2.82283,39.48777,126.4 2.82279,39.48778,126.5 2.82256,39.4878,127.1 2.82247,39.48782,127.2 2.82233,39.48783,126.9 2.82213,39.48785,126.5 2.82162,39.48789,125.5 2.8214,39.48789,125.4 2.82124,39.48789,125.3 2.82117,39.48789,125.2 2.82081,39.48788,125.0 2.82011,39.48786,125.4 2.81933,39.48786,124.7 2.81864,39.48788,124.5 2.81861,39.48788,124.5 2.81768,39.48794,124.1 2.81688,39.48798,123.3 2.81577,39.48806,123.7 2.81521,39.48812,123.9 2.8149,39.48814,124.1 2.8146,39.48816,124.5 2.81426,39.48817,124.9 2.81414,39.48818,125.0 2.8139,39.48818,125.0 2.81367,39.48819,125.0 2.81297,39.4882,125.0 2.81274,39.48821,125.0 2.81209,39.48822,125.4 2.81204,39.48822,125.4 2.81162,39.48824,125.8 2.81124,39.48828,126.4 2.81111,39.48829,126.5 2.81105,39.4883,126.6 2.81088,39.48832,126.9 2.81075,39.48833,126.9 2.81038,39.48834,126.5 2.80999,39.48835,126.0 2.80928,39.48833,125.1 2.80925,39.48833,125.1 2.80875,39.48832,125.0 2.80793,39.48837,124.0 2.80767,39.48841,123.4 2.80754,39.48842,123.1 2.80709,39.4885,123.0 2.80707,39.48851,123.0 2.80695,39.48853,123.0 2.80678,39.48858,123.0 2.80648,39.48866,123.1 2.80608,39.48877,123.4 2.80601,39.48879,123.4 2.80599,39.48879,123.4 2.80595,39.4888,123.5 2.80589,39.4888,123.5 2.80584,39.4888,123.6 2.80578,39.48879,123.5 2.80571,39.48877,123.4 2.80562,39.48873,123.4 2.80556,39.48871,123.3 2.80551,39.4887,123.3 2.80546,39.4887,123.2 2.80541,39.4887,123.2 2.80536,39.48871,123.2 2.80532,39.48872,123.2 2.80524,39.48875,123.1 2.80511,39.4888,123.1 2.80505,39.48883,123.0 2.80491,39.48889,123.1 2.80465,39.48899,123.4 2.80458,39.48903,123.5 2.80453,39.48906,123.6 2.80449,39.48909,123.6 2.80445,39.48912,123.7 2.80441,39.48917,123.7 2.80438,39.48921,123.7 2.80436,39.48925,123.7 2.80435,39.48929,123.7 2.80433,39.48946,123.6 2.80433,39.48947,123.6 2.80432,39.48952,123.5 2.8043,39.48956,123.5 2.80428,39.4896,123.5 2.80427,39.48961,123.5 2.80425,39.48963,123.5 2.80424,39.48964,123.4 2.80421,39.48967,123.4 2.80417,39.4897,123.4 2.80407,39.48975,123.6 2.80388,39.48985,123.9 2.80384,39.48987,124.0 2.8035,39.49006,124.5 2.80347,39.49008,124.6 2.80342,39.49011,124.7 2.80334,39.49015,124.8 2.80313,39.49027,124.7 2.80306,39.49031,124.6 2.80245,39.49062,123.0 2.80235,39.49066,122.7 2.80152,39.49099,120.8 2.80149,39.491,120.8 2.80128,39.49108,120.7 2.8011,39.49115,120.7 2.80058,39.49134,119.9 2.79998,39.49154,118.5 2.79982,39.49158,118.3 2.79979,39.49159,118.3 2.7996,39.49164,118.1 2.79952,39.49166,118.0 2.79937,39.49169,117.9 2.79893,39.49179,117.5 2.79829,39.49193,116.6 2.79759,39.4921,113.2 2.79756,39.4921,113.1 2.79736,39.49215,112.1 2.79692,39.49225,110.5 2.79653,39.49234,109.4 2.79625,39.49241,108.8 2.79622,39.49241,108.7 2.79535,39.49261,105.9 2.79513,39.49266,105.1 2.7951,39.49267,104.9 2.79491,39.49272,104.2 2.79424,39.49287,102.2 2.79331,39.49308,98.9 2.79322,39.4931,98.7 2.79312,39.49312,98.6 2.79309,39.49313,98.5 2.79289,39.49317,98.3 2.79245,39.49328,97.8 2.79242,39.49329,97.6 2.79222,39.49333,96.7 2.79156,39.49349,93.8 2.79133,39.49354,93.3 2.7913,39.49355,93.2 2.79111,39.49359,92.9 2.79089,39.49365,92.5 2.79086,39.49365,92.4 2.79077,39.49367,92.0 2.79066,39.4937,91.2 2.7904,39.49375,89.4 2.79019,39.49379,87.8 2.79018,39.49379,87.8 2.78992,39.49382,86.1 2.78984,39.49383,85.8 2.78975,39.49385,85.4 2.78967,39.49386,85.1 2.78959,39.49388,84.7 2.78937,39.49393,83.7 2.78934,39.49394,83.5 2.78922,39.49397,82.9 2.78918,39.49399,82.7 2.78915,39.494,82.5 2.7891,39.49403,82.1 2.78894,39.49409,81.0 2.78884,39.49413,80.2 2.78869,39.49417,79.1 2.78852,39.49421,78.2 2.78847,39.49422,77.9 2.78845,39.49423,77.8 2.7878,39.49437,77.2 2.78779,39.49438,77.2 2.78758,39.49442,77.1 2.78741,39.49446,77.0 2.78735,39.49448,76.9 2.78723,39.4945,76.9 2.78712,39.49453,76.8 2.7871,39.49453,76.8 2.78645,39.49468,76.3 2.78631,39.49472,76.2 2.78629,39.49472,76.2 2.78624,39.49473,76.2 2.7858,39.49484,76.0 2.78563,39.49489,75.7 2.78559,39.4949,75.7 2.78558,39.4949,75.7 2.78554,39.49491,75.6 2.78461,39.49512,74.7 2.78446,39.49515,74.5 2.78445,39.49516,74.5 2.78371,39.49532,72.9 2.78356,39.49535,72.5 2.78334,39.4954,72.0 2.78333,39.4954,72.0 2.78333,39.49541,72.0 2.78288,39.49551,71.2 2.78274,39.49554,71.0 2.78222,39.49568,69.4 2.78177,39.49582,67.5 2.78174,39.49583,67.3 2.78155,39.49589,66.7 2.78152,39.4959,66.6 2.78119,39.496,65.6 2.78097,39.49607,64.8 2.78066,39.49615,64.5 2.78021,39.49626,64.9 2.78001,39.4963,65.0 2.77998,39.49631,65.0 2.7798,39.49636,64.7 2.77953,39.49641,64.3 2.77943,39.49642,64.1 2.77931,39.49645,64.0 2.7792,39.49647,63.8 2.77908,39.49649,63.6 2.77898,39.49651,63.5 2.77888,39.49652,63.4 2.77885,39.49653,63.3 2.77872,39.49654,63.1 2.77863,39.49655,63.0 2.77862,39.49655,63.0 2.77848,39.49655,62.8 2.77842,39.49655,62.7 2.77836,39.49654,62.6 2.77835,39.49654,62.6 2.77826,39.49652,62.4 2.7782,39.49651,62.3 2.77814,39.4965,62.3 2.77808,39.49649,62.2 2.77801,39.49648,62.1 2.77796,39.49649,62.1 2.77791,39.49651,62.1 2.77791,39.49651,62.1 2.77791,39.49655,62.2 2.7779,39.49658,62.3 2.77787,39.49667,62.4 2.77787,39.49667,62.4 2.77785,39.49666,62.4 2.77783,39.49665,62.4 2.77781,39.49665,62.3 2.77778,39.49664,62.3 2.77776,39.49664,62.3 2.77773,39.49664,62.2 2.77771,39.49664,62.2 2.77768,39.49664,62.2 2.77766,39.49664,62.1 2.77764,39.49665,62.1 2.77761,39.49665,62.1 2.77759,39.49666,62.1 2.77757,39.49667,62.1 2.77755,39.49669,62.0 2.77753,39.4967,62.0 2.77752,39.49671,62.0 2.7775,39.49673,61.9 2.77749,39.49674,61.9 2.77748,39.49676,61.9 2.77747,39.49677,61.9 2.77746,39.49679,61.9 2.77746,39.4968,61.9 2.77745,39.49682,61.8 2.77745,39.49684,61.8 2.77745,39.49686,61.8 2.77745,39.49687,61.8 2.77746,39.49689,61.8 2.77746,39.49691,61.7 2.77747,39.49693,61.7 2.77748,39.49694,61.7 2.77749,39.49696,61.7 2.7775,39.49698,61.6 2.77743,39.49698,61.7 2.77737,39.49697,61.7 2.77723,39.49698,61.9 2.77717,39.49697,61.9 2.77707,39.49699,62.0 2.77677,39.49706,62.4 2.77654,39.49711,62.7 2.77635,39.49715,63.1 2.77598,39.49724,63.5 2.77595,39.49725,63.5 2.77528,39.4974,63.2 2.77478,39.49752,62.4 2.77429,39.49763,61.2 2.77404,39.49769,61.2 2.7725,39.49803,61.4 2.77229,39.49808,61.1 2.77171,39.49821,60.3 2.7716,39.49824,60.1 2.77042,39.49851,56.4 2.77013,39.49858,55.6 2.76962,39.49872,54.9 2.76918,39.49882,54.3 2.76873,39.49893,53.0 2.76851,39.49898,52.3 2.76762,39.4992,49.2 2.7674,39.49925,48.7 2.76709,39.49932,48.0 2.76673,39.49941,47.2 2.76543,39.49973,41.2 2.76538,39.49974,41.1 2.76494,39.49985,39.7 2.76373,39.50015,37.6 2.76363,39.50017,37.4 2.76356,39.50019,37.2 2.76336,39.50024,36.8 2.76293,39.50035,36.6 2.76289,39.50036,36.6 2.76269,39.50041,36.5 2.76268,39.50042,36.5 2.76264,39.50043,36.5 2.76256,39.50045,36.5 2.76201,39.50058,34.3 2.7619,39.50061,33.8 2.76182,39.50063,33.4 2.76182,39.50063,33.4 2.7618,39.50065,33.2 2.76179,39.50066,33.2 2.76173,39.50068,32.8 2.76157,39.50075,31.9 2.76151,39.50078,31.6 2.76136,39.50086,30.8 2.76123,39.50094,30.2 2.76123,39.50094,30.2 2.76122,39.50096,30.2 2.7612,39.50099,30.1 2.76118,39.50101,30.0 2.76116,39.50103,29.9 2.76114,39.50105,29.8 2.76111,39.50106,29.7 2.76108,39.50108,29.6 2.76105,39.50109,29.5 2.76102,39.5011,29.5 2.76099,39.50111,29.4 2.76095,39.50112,29.3 2.76092,39.50112,29.2 2.76088,39.50112,29.1 2.76084,39.50112,29.0 2.76081,39.50111,29.0 2.76077,39.50111,29.0 2.76075,39.5011,29.0 2.76073,39.50109,29.0 2.7607,39.50107,29.1 2.76068,39.50106,29.1 2.76066,39.50105,29.1 2.76064,39.50103,29.1 2.76063,39.50101,29.1 2.76061,39.501,29.2 2.76042,39.501,29.3 2.76024,39.50104,29.4 2.76021,39.50104,29.4 2.76013,39.50106,29.4 2.76008,39.50107,29.4 2.76003,39.50107,29.4 2.75998,39.50106,29.5 2.75918,39.50128,29.9 2.75895,39.50134,30.8 2.75866,39.50141,32.0 2.75843,39.50146,33.0 2.75823,39.50151,33.0 2.75772,39.50162,30.9 2.75711,39.50176,29.0 2.75667,39.50187,27.5 2.75613,39.50199,25.7 2.75571,39.50209,24.1 2.75549,39.50214,23.2 2.75527,39.50219,22.3 2.75488,39.50226,21.0 2.75436,39.50239,19.7 2.7543,39.5024,19.5 2.75407,39.50244,18.8 2.75385,39.50249,17.5 2.75335,39.50259,14.5 2.75313,39.50264,14.4 2.7528,39.5027,14.3 2.75242,39.50278,13.3 2.7523,39.5028,12.2 2.75218,39.50284,11.0 2.75208,39.50286,10.1 2.75207,39.50286,10.0 2.75193,39.50289,8.7 2.75174,39.50294,6.9 2.75173,39.50294,6.9 2.75172,39.50292,6.9 2.75172,39.50292,6.9 2.75161,39.50294,6.0 2.75175,39.50358,5.5 2.75176,39.50372,5.4 2.75177,39.50391,5.3 2.75177,39.50421,5.1 2.75218,39.50422,5.7 2.75318,39.50427,6.2 2.75418,39.50431,9.4 2.75407,39.50497,10.6 2.75395,39.50563,11.2 2.75384,39.50629,11.2 2.75385,39.50664,11.2 2.75391,39.50681,11.2 2.7544,39.50755,10.8 2.75348,39.50789,10.5 2.75257,39.50823,8.1 2.75285,39.50868,7.8 2.75314,39.50913,6.9 2.75307,39.50913,6.8 2.7528,39.50962,7.4 2.7525,39.51018,8.6 2.75221,39.5107,6.6 2.75192,39.51123,7.0 2.75114,39.51098,5.6 2.75036,39.51073,5.6 2.75007,39.51124,4.6 2.74975,39.51183,4.1 2.74964,39.51202,4.3 2.74954,39.51216,4.2 2.74898,39.51284,2.5 2.74857,39.51335,2.3 2.74817,39.51385,3.1 2.74779,39.5143,4.1 2.74684,39.51385,1.2 2.74646,39.51432,2.0 2.74593,39.51495,2.2 2.74539,39.51559,1.9 2.74485,39.51622,2.8 2.74438,39.5167,5.9 2.74391,39.51718,4.2 2.7432,39.51783,3.7 2.74249,39.51849,2.2 2.74203,39.51892,1.6 2.74156,39.51938,2.1 2.74111,39.5198,3.1 2.74065,39.52022,2.4 2.74016,39.52069,1.2 2.73945,39.52133,2.9 2.73875,39.52198,2.1 2.73823,39.52242,0.0 2.73791,39.52267,0.8 2.73723,39.52325,2.4 2.73655,39.52384,2.3 2.73587,39.52443,3.5 2.73519,39.52501,1.3 2.73451,39.5256,1.6 2.73383,39.52619,1.6 2.73315,39.52678,0.8 2.73398,39.52738,-0.1 2.73352,39.52777,0.6 2.73306,39.52816,1.8 2.73278,39.5284,2.9 2.7327,39.5285,2.9 2.73221,39.52891,2.4 2.73172,39.52932,3.1 2.7311,39.52979,4.1 2.73049,39.53027,1.6 2.73034,39.53042,0.5 2.73034,39.53044,0.4 2.73031,39.53051,0.1 2.73024,39.53056,-0.3 2.7302,39.53057,-0.5 2.72995,39.53072,-1.5 2.7295,39.53108,-0.7 2.72929,39.53121,-0.5 2.72863,39.53157,-0.5 2.72797,39.53193,0.9 2.72767,39.5321,1.6 2.72751,39.53221,2.0 2.72726,39.53244,2.8 2.72684,39.53295,3.3 2.72649,39.53334,3.6 2.72634,39.5335,3.5 2.72605,39.53376,3.3 2.72579,39.53399,3.0 2.72532,39.53433,3.3 2.72501,39.53453,3.2 2.72456,39.53478,1.5 2.72406,39.53502,0.3 2.72334,39.53532,2.4 2.72245,39.53566,4.2 2.72157,39.53601,3.7 2.72132,39.53612,3.7 2.72114,39.53617,3.8 2.72101,39.53619,3.9 2.72067,39.53622,4.4 2.72038,39.53626,4.8 2.71961,39.53655,5.7 2.71933,39.53679,6.4 2.71866,39.5375,7.0 2.7185,39.53762,6.7 2.71833,39.53768,6.6 2.71792,39.53774,5.9 2.71703,39.53793,5.5 2.71627,39.538,5.8 2.71543,39.53806,5.3 2.71507,39.53811,4.6 2.71498,39.53815,4.5 2.71482,39.53824,4.4 2.71421,39.53874,4.0 2.71365,39.53919,3.6 2.71308,39.53964,3.6 2.71251,39.54009,2.8 2.71187,39.54055,3.2 2.71145,39.54087,3.2 2.71091,39.5412,2.3 2.71064,39.54133,1.9 2.71044,39.54143,1.8 2.70955,39.54178,2.9 2.70927,39.54192,3.4 2.70872,39.54225,3.8 2.70853,39.54238,3.9 2.70798,39.54277,4.6 2.70744,39.54315,6.3 2.70673,39.54372,6.1 2.70617,39.54425,6.6 2.70581,39.54462,7.4 2.70545,39.54499,7.5 2.70498,39.54548,6.3 2.70451,39.54597,5.3 2.70404,39.54647,4.8 2.70389,39.54664,4.7 2.70369,39.54683,5.2 2.70311,39.54744,6.0 2.70254,39.54806,6.0 2.70201,39.54845,6.4 2.70184,39.54856,6.4 2.70112,39.54906,5.8 2.7004,39.54957,7.0 2.69989,39.54989,8.6 2.69985,39.5499,8.7 2.69896,39.55012,9.7 2.6988,39.55019,10.2 2.69845,39.55066,12.9 2.6981,39.55112,13.7 2.69789,39.55115,13.1 2.6969,39.55138,11.8 2.6959,39.5516,10.2 2.69568,39.55169,10.0 2.69551,39.55183,10.2 2.69501,39.55229,10.0 2.69434,39.55299,8.6 2.69392,39.55337,7.4 2.6935,39.55375,5.5 2.69305,39.55425,2.5 2.6926,39.55476,2.8 2.69216,39.55526,2.9 2.69181,39.5556,2.6 2.69123,39.55598,1.6 2.69066,39.55636,0.8 2.69043,39.55646,0.3 2.69016,39.55653,0.0 2.68978,39.5566,-0.2 2.68911,39.55671,-0.9 2.68845,39.55689,-0.5 2.68833,39.55693,-0.4 2.68835,39.55699,-0.2 2.68834,39.55709,0.0 2.68829,39.55715,0.2 2.68822,39.5572,0.2 2.68813,39.55722,0.2 2.68803,39.55722,0.2 2.68795,39.55721,0.2 2.68787,39.55713,0.0 2.68783,39.55707,0.0 2.68783,39.55701,-0.1 2.68784,39.55695,-0.1 2.68758,39.55696,0.0 2.68684,39.55706,1.7 2.6861,39.55717,1.0 2.68552,39.55719,0.8 2.68511,39.55726,0.6 2.68448,39.55737,0.4 2.68385,39.55749,1.2 2.68364,39.55753,1.9 2.68323,39.55767,3.0 2.6825,39.55795,3.9 2.68195,39.55823,3.7 2.68141,39.55851,3.6 2.68127,39.55857,3.6 2.68095,39.55872,3.5 2.68074,39.55879,3.3 2.68045,39.55888,2.9 2.68003,39.55898,2.3 2.67993,39.559,2.3 2.67907,39.55912,4.0 2.67796,39.55925,4.4 2.67694,39.55938,5.3 2.67613,39.55952,4.8 2.67564,39.55963,4.1 2.67527,39.55982,3.4 2.67465,39.56021,3.1 2.67403,39.56059,3.9 2.6739,39.56067,4.1 2.67381,39.5607,4.3 2.67294,39.56094,4.3 2.67206,39.56118,2.6 2.67119,39.56142,1.6 2.67102,39.56148,1.4 2.67089,39.56159,1.2 2.67049,39.56205,2.0 2.67034,39.56219,2.3 2.6703,39.56224,2.3 2.67015,39.56238,2.7 2.66977,39.56268,2.4 2.66966,39.56274,2.1 2.66955,39.56279,1.9 2.66927,39.56286,1.5 2.66917,39.56287,1.3 2.66905,39.56287,1.4 2.66888,39.56286,1.4 2.66808,39.56269,1.1 2.66733,39.56259,1.2 2.66667,39.56255,1.1 2.66601,39.56252,2.6 2.66491,39.56247,7.0 2.66382,39.56242,4.3 2.66365,39.56243,3.8 2.66356,39.56245,3.6 2.66348,39.56247,3.4 2.66342,39.56249,3.3 2.66336,39.56253,3.2 2.66332,39.56258,3.2 2.66328,39.56266,3.3 2.66311,39.56266,2.8 2.66313,39.5625,2.3 2.66306,39.56236,1.7 2.66303,39.56232,1.5 2.66287,39.56241,1.2 2.66269,39.56249,0.7 2.66234,39.56264,1.1 2.6622,39.56269,1.5 2.6613,39.56295,3.7 2.66069,39.56316,6.3 2.65972,39.5635,6.9 2.65875,39.56384,5.1 2.65867,39.56385,5.1 2.658,39.56408,4.8 2.65769,39.56415,4.9 2.65729,39.56417,4.0 2.65637,39.56417,1.7 2.65546,39.56416,2.5 2.65541,39.56412,2.4 2.65539,39.56412,2.3 2.65534,39.56415,2.4 2.65533,39.56416,2.4 2.65452,39.56415,0.8 2.65371,39.56415,0.0 2.6527,39.56418,0.1 2.65209,39.56422,0.4 2.65135,39.56429,0.5 2.65069,39.56438,0.0 2.65031,39.56444,0.0 2.65024,39.56443,0.0 2.65018,39.56446,0.0 2.6498,39.56453,0.0 2.64918,39.56466,0.0 2.64817,39.56486,0.7 2.64716,39.56506,0.5 2.64683,39.56514,1.1 2.64677,39.56514,1.2 2.64673,39.56517,1.3 2.64639,39.5653,1.5 2.64621,39.56538,1.4 2.64589,39.56558,1.1 2.64568,39.56574,1.3 2.64558,39.5658,1.6 2.64556,39.56583,1.7 2.64557,39.56591,1.9 2.64555,39.56593,1.9 2.64568,39.56602,2.0 2.64573,39.56607,2.0 2.64574,39.5661,2.1 2.64574,39.56615,2.3 2.64571,39.56619,2.5 2.64551,39.56639,3.3 2.64544,39.5666,3.8 2.64518,39.5669,4.6 2.64516,39.56695,4.7 2.64517,39.56696,4.8 2.64547,39.56712,5.4 2.6456,39.5672,5.7 2.64563,39.56723,5.9 2.64602,39.56793,10.6 2.64642,39.56862,12.0 2.64652,39.56892,12.2 2.64652,39.56894,12.2 2.64652,39.56894,12.2
        </coordinates>
      </LineString>
    </Placemark>
  </Document>
</kml>
